HIERARCHY
ROOT Hips
{
  OFFSET 0 0 0
  CHANNELS 6 Xposition Yposition Zposition Zrotation Xrotation Yrotation
  JOINT RightUpLeg
  {
    OFFSET -0.105 0 0
    CHANNELS 3 Zrotation Xrotation Yrotation
    JOINT RightLeg
    {
      OFFSET 0 -0.43 0
      CHANNELS 3 Zrotation Xrotation Yrotation
      JOINT RightFoot
      {
        OFFSET 0 -0.43 0
        CHANNELS 3 Zrotation Xrotation Yrotation
        End Site
        {
          OFFSET 0 -0.07 0.18
        }
      }
    }
  }
  JOINT LeftUpLeg
  {
    OFFSET 0.105 0 0
    CHANNELS 3 Zrotation Xrotation Yrotation
    JOINT LeftLeg
    {
      OFFSET 0 -0.43 0
      CHANNELS 3 Zrotation Xrotation Yrotation
      JOINT LeftFoot
      {
        OFFSET 0 -0.43 0
        CHANNELS 3 Zrotation Xrotation Yrotation
        End Site
        {
          OFFSET 0 -0.07 0.18
        }
      }
    }
  }
  JOINT Spine
  {
    OFFSET 0 0.19 0
    CHANNELS 3 Zrotation Xrotation Yrotation
    JOINT Chest
    {
      OFFSET 0 0.18 0
      CHANNELS 3 Zrotation Xrotation Yrotation
      JOINT Neck
      {
        OFFSET 0 0.17 0
        CHANNELS 3 Zrotation Xrotation Yrotation
        JOINT Head
        {
          OFFSET 0 0.15 0
          CHANNELS 3 Zrotation Xrotation Yrotation
          End Site
          {
            OFFSET 0 0.12 0
          }
        }
      }
      JOINT LeftArm
      {
        OFFSET 0.19 0.17 0.04
        CHANNELS 3 Zrotation Xrotation Yrotation
        JOINT LeftForeArm
        {
          OFFSET 0 -0.34 0
          CHANNELS 3 Zrotation Xrotation Yrotation
          JOINT LeftHand
          {
            OFFSET 0 -0.38 0
            CHANNELS 3 Zrotation Xrotation Yrotation
            End Site
            {
              OFFSET 0 -0.08 0
            }
          }
        }
      }
      JOINT RightArm
      {
        OFFSET -0.19 0.17 0.04
        CHANNELS 3 Zrotation Xrotation Yrotation
        JOINT RightForeArm
        {
          OFFSET 0 -0.34 0
          CHANNELS 3 Zrotation Xrotation Yrotation
          JOINT RightHand
          {
            OFFSET 0 -0.38 0
            CHANNELS 3 Zrotation Xrotation Yrotation
            End Site
            {
              OFFSET 0 -0.08 0
            }
          }
        }
      }
    }
  }
}
MOTION
Frames: 33
Frame Time: 0.04000000
0.000000 0.652496 0.000000 -0.000000 0.000000 75.318534 -53.535698 -49.538400 -101.523333 -41.555820 46.988547 13.724540 -11.362183 1.107763 75.428737 26.577359 -11.354041 -72.628605 -57.604800 35.559004 1.687430 56.298142 -47.955803 102.090273 14.121283 2.481550 12.480601 0.000000 0.000000 -0.000000 0.000000 0.000000 -0.000000 0.000000 0.000000 -0.000000 46.404316 1.871713 -89.512078 -0.669383 5.825097 -0.381826 0.000000 0.000000 -0.000000 -115.264753 -18.352941 -109.411336 6.253938 -12.793708 -2.477950 0.000000 0.000000 -0.000000
0.000000 0.635322 0.000000 -0.000000 0.000000 74.826625 -57.287144 -51.146423 -104.123505 -48.477519 51.126114 18.354727 -9.897220 -1.859292 74.665625 23.705305 -16.593246 -71.320747 -66.796178 38.290020 5.839519 58.580852 -46.499340 101.926536 15.017126 3.604781 12.744607 -0.000000 0.000000 0.000000 -0.000000 0.000000 0.000000 -0.000000 0.000000 0.000000 42.529869 2.727099 -89.507659 -0.820564 2.966755 -0.400527 0.000000 0.000000 0.000000 -111.647552 -18.744613 -109.038431 6.597953 -13.141132 -2.307486 -0.000000 0.000000 0.000000
0.000000 0.620812 0.000000 -0.000000 0.000000 74.208462 -60.826350 -52.641993 -106.593362 -55.731731 54.651906 23.575703 -8.650722 -4.641049 73.857243 20.502634 -22.507761 -70.086472 -76.942025 39.785422 10.959805 59.832275 -44.355516 100.609345 15.945417 4.835133 13.144339 -0.000000 0.000000 -0.000000 -0.000000 0.000000 -0.000000 -0.000000 0.000000 -0.000000 38.806141 2.943721 -89.219753 -0.783335 0.440742 -0.400320 -0.000000 0.000000 -0.000000 -107.697892 -19.118542 -108.547425 7.067477 -13.212029 -2.328310 0.000000 0.000000 0.000000
0.000000 0.608901 0.000000 -0.000000 0.000000 73.449812 -64.155914 -54.009950 -108.878873 -62.556102 57.262299 28.801878 -7.733947 -6.726157 72.994643 17.535734 -28.568834 -68.952218 -86.527631 40.546595 16.408249 60.105092 -42.568165 98.853257 16.879294 6.196866 13.740700 -0.000000 0.000000 -0.000000 -0.000000 0.000000 -0.000000 -0.000000 0.000000 -0.000000 35.517841 2.571151 -88.782504 -0.597392 -1.928004 -0.357699 0.000000 0.000000 0.000000 -103.747253 -19.308234 -107.962276 7.670108 -13.342897 -2.412593 0.000000 0.000000 -0.000000
0.000000 0.600995 0.000000 -0.000000 0.000000 72.625675 -66.785508 -55.098022 -110.579124 -67.555890 58.848577 32.856847 -7.217597 -7.852727 72.129639 14.843897 -34.546160 -67.986510 -94.902326 40.179330 21.320405 59.325667 -40.611577 96.426564 17.833536 7.661583 14.289144 -0.000000 0.000000 -0.000000 -0.000000 0.000000 -0.000000 -0.000000 0.000000 -0.000000 32.688767 2.151656 -88.302552 0.169373 -4.377184 -0.038293 -0.000000 0.000000 -0.000000 -99.777227 -19.428459 -107.274569 8.555221 -13.879997 -2.528524 -0.000000 0.000000 0.000000
0.000000 0.595983 0.000000 -0.000000 0.000000 71.995912 -68.767892 -55.864381 -111.878678 -71.178466 59.797019 35.870753 -6.889784 -8.507766 71.482828 12.636787 -40.711044 -67.291044 -101.694626 39.208104 25.157134 57.333279 -38.717171 93.742805 18.653309 8.941495 14.614201 -0.000000 0.000000 0.000000 -0.000000 0.000000 0.000000 -0.000000 0.000000 0.000000 30.609240 1.714639 -87.845111 1.343268 -6.964424 0.488945 0.000000 0.000000 0.000000 -95.805934 -19.381461 -106.371885 9.533808 -14.190689 -2.751066 0.000000 0.000000 -0.000000
0.000000 0.593223 0.000000 -0.000000 0.000000 71.701646 -70.234142 -56.192078 -112.858113 -73.348135 60.235432 37.746635 -6.691184 -8.681391 71.193179 11.316764 -45.688339 -66.921463 -106.223422 38.133613 27.354293 55.309484 -37.185023 91.695399 19.424424 9.991067 14.542145 -0.000000 0.000000 -0.000000 -0.000000 0.000000 -0.000000 -0.000000 0.000000 -0.000000 29.089981 1.494744 -87.447856 2.993816 -9.493325 1.280281 0.000000 0.000000 0.000000 -91.844658 -19.182301 -105.267591 10.363549 -13.889343 -3.028555 0.000000 0.000000 0.000000
0.000000 0.591050 0.000000 -0.000000 0.000000 71.580933 -71.417597 -56.426804 -113.757881 -74.385237 60.135186 38.598228 -6.603630 -8.336512 71.099141 10.661027 -49.988761 -66.599639 -109.843728 37.277711 28.812439 53.594384 -36.093155 90.270930 19.982614 10.748005 14.263590 -0.000000 0.000000 -0.000000 -0.000000 0.000000 -0.000000 -0.000000 0.000000 -0.000000 28.130176 1.367795 -87.038970 4.805739 -11.723399 2.206125 -0.000000 0.000000 -0.000000 -87.547233 -18.730331 -103.818327 11.211889 -13.477778 -3.303854 0.000000 0.000000 -0.000000
0.000000 0.590036 0.000000 -0.000000 0.000000 71.697972 -72.242599 -56.551008 -114.562437 -74.368984 59.439980 38.445703 -6.539296 -7.512410 71.268188 10.847091 -53.490458 -66.219514 -112.597689 36.696117 29.392361 52.295814 -35.453492 89.535235 20.266778 11.156409 13.740965 0.000000 0.000000 -0.000000 0.000000 0.000000 -0.000000 0.000000 0.000000 -0.000000 27.693540 1.249305 -86.567934 6.598949 -13.352707 3.186240 0.000000 0.000000 -0.000000 -82.936133 -18.023116 -102.096464 11.928550 -12.686460 -3.566589 0.000000 0.000000 0.000000
0.000000 0.590157 0.000000 -0.000000 0.000000 71.910479 -72.820772 -56.708104 -115.317983 -73.768857 58.249212 37.697024 -6.446103 -6.326005 71.553886 11.758965 -56.669929 -65.553847 -115.055914 36.388585 29.541735 51.217312 -35.187147 89.194459 20.342049 11.336895 13.034497 0.000000 0.000000 0.000000 0.000000 0.000000 0.000000 0.000000 0.000000 0.000000 27.575762 1.155201 -85.965375 8.547697 -14.643115 4.308095 -0.000000 0.000000 0.000000 -77.422321 -16.904555 -99.886961 12.691152 -11.385577 -3.860859 0.000000 0.000000 0.000000
0.000000 0.591409 0.000000 -0.000000 0.000000 72.307735 -73.117572 -56.782930 -115.990733 -72.549480 56.514975 36.369361 -6.319319 -4.725674 72.046718 13.414691 -59.655018 -64.592863 -117.306657 36.286998 29.212101 50.312852 -35.203271 89.256280 20.193129 11.236750 12.122587 0.000000 0.000000 -0.000000 0.000000 0.000000 -0.000000 0.000000 0.000000 -0.000000 27.774822 1.037043 -85.271453 10.762151 -15.649313 5.638494 -0.000000 0.000000 0.000000 -71.302638 -15.222294 -97.326898 14.146637 -10.001392 -4.307410 -0.000000 0.000000 0.000000
0.000000 0.594342 0.000000 -0.000000 0.000000 72.730903 -73.033549 -56.930711 -116.475177 -70.748574 54.246462 34.524084 -6.228659 -2.715150 72.583147 15.878196 -62.014159 -63.148499 -118.549192 36.216705 28.077099 49.273651 -35.216115 89.293595 19.774304 10.906642 11.114556 0.000000 0.000000 0.000000 0.000000 0.000000 0.000000 0.000000 0.000000 0.000000 28.309081 0.798109 -84.394995 13.267372 -16.538553 7.221975 0.000000 0.000000 -0.000000 -64.757498 -13.064345 -94.568007 16.071136 -8.050682 -4.802795 0.000000 0.000000 0.000000
0.000000 0.599300 0.000000 -0.000000 0.000000 73.263598 -72.446930 -56.984990 -116.629218 -68.543031 51.522747 32.392976 -6.121140 -0.422608 73.241001 19.230072 -63.416834 -61.313671 -118.424421 36.037039 25.783944 48.216826 -35.114101 89.380979 19.032505 10.309897 9.839272 -0.000000 0.000000 -0.000000 -0.000000 0.000000 -0.000000 -0.000000 0.000000 -0.000000 29.095177 0.431780 -83.240975 16.405948 -17.340830 9.257615 -0.000000 0.000000 0.000000 -57.654101 -10.704574 -91.691839 17.820105 -5.328687 -5.054871 0.000000 0.000000 0.000000
0.000000 0.605518 0.000000 -0.000000 0.000000 73.844318 -71.487960 -57.024958 -116.554179 -66.144230 48.320985 30.162979 -6.018590 2.186745 73.959291 23.278207 -63.967784 -59.184762 -116.938249 35.645248 22.437675 46.933960 -34.843251 89.359303 18.083888 9.469328 8.354029 0.000000 0.000000 0.000000 0.000000 0.000000 0.000000 0.000000 0.000000 0.000000 29.978532 -0.267551 -81.767374 20.005595 -18.302712 11.713192 0.000000 0.000000 0.000000 -50.001889 -8.176356 -88.734508 18.765767 -2.557297 -4.751297 -0.000000 0.000000 -0.000000
0.000000 0.612049 0.000000 -0.000000 0.000000 74.321838 -70.286233 -57.296248 -116.391935 -63.868314 44.563440 28.037693 -5.913989 5.137086 74.587372 26.943318 -63.793483 -57.362150 -114.789151 35.236316 19.088978 45.694356 -34.656554 89.299928 16.954469 8.451304 6.942363 -0.000000 0.000000 0.000000 -0.000000 0.000000 0.000000 -0.000000 0.000000 0.000000 30.841711 -1.443665 -80.103160 23.945560 -19.747804 14.602661 0.000000 0.000000 0.000000 -41.948962 -4.937708 -85.790867 19.589630 -0.640495 -4.040948 -0.000000 0.000000 -0.000000
0.000000 0.620262 0.000000 -0.000000 0.000000 74.644415 -68.513493 -57.645655 -115.732673 -61.152810 40.207705 25.760260 -5.963665 8.627417 75.094665 29.202073 -62.693172 -56.611755 -111.662679 34.870717 16.063333 44.376827 -34.594017 89.121156 15.674028 7.278677 5.612319 0.000000 0.000000 -0.000000 0.000000 0.000000 -0.000000 0.000000 0.000000 -0.000000 31.367774 -3.426868 -78.120677 27.527224 -21.841269 17.609540 -0.000000 0.000000 -0.000000 -33.551740 -0.664046 -82.968334 20.257636 -0.180933 -2.897499 0.000000 0.000000 0.000000
0.000000 0.634304 0.000000 -0.000000 0.000000 74.851474 -63.872538 -57.391425 -112.530672 -55.851841 34.567876 22.110385 -6.602031 13.099278 75.610304 29.334889 -60.504603 -57.492501 -107.249086 34.127266 13.370009 42.907074 -34.221084 88.647007 14.515664 6.065143 3.969625 -0.000000 0.000000 -0.000000 -0.000000 0.000000 -0.000000 -0.000000 0.000000 -0.000000 31.229123 -5.919134 -75.646176 30.434793 -24.317174 20.484215 0.000000 0.000000 -0.000000 -25.209191 4.278957 -80.284375 20.476541 -2.430960 -1.325262 -0.000000 0.000000 0.000000
0.000000 0.653993 0.000000 -0.000000 0.000000 74.488287 -56.515772 -56.448612 -106.673658 -48.723013 28.117925 17.868232 -7.923062 17.929623 75.740135 27.659506 -57.527131 -59.096575 -102.186597 33.382199 11.878915 41.198512 -33.686847 87.471799 13.333951 4.783469 2.080100 0.000000 0.000000 0.000000 0.000000 0.000000 0.000000 0.000000 0.000000 0.000000 30.402004 -8.340359 -72.586282 32.670508 -26.759250 22.987198 0.000000 0.000000 0.000000 -17.372545 9.105379 -77.456509 19.402315 -4.617874 0.077015 0.000000 0.000000 0.000000
0.000000 0.672762 0.000000 -0.000000 0.000000 73.306231 -47.998915 -54.893410 -99.346610 -40.957703 21.272579 13.901495 -9.893253 22.784207 75.304407 26.111804 -54.396016 -59.714656 -97.093649 32.286920 10.983116 39.075676 -32.577968 85.146467 12.230777 3.515091 -0.141094 -0.000000 0.000000 -0.000000 -0.000000 0.000000 -0.000000 -0.000000 0.000000 -0.000000 29.318587 -10.338123 -68.682220 34.786256 -28.812651 25.356211 0.000000 0.000000 -0.000000 -11.492349 13.364514 -73.979295 18.358470 -6.463054 0.987675 0.000000 0.000000 -0.000000
0.000000 0.691634 0.000000 -0.000000 0.000000 71.356319 -39.212097 -52.485309 -91.275858 -32.718402 14.529748 10.305480 -12.677799 27.132714 74.427330 25.420744 -50.834152 -59.120947 -91.469296 30.689241 9.839493 36.564517 -30.944915 81.806657 11.207480 2.276118 -2.931177 0.000000 0.000000 -0.000000 0.000000 0.000000 -0.000000 0.000000 0.000000 -0.000000 28.377496 -11.785391 -63.690119 36.833440 -30.269881 27.476094 -0.000000 0.000000 -0.000000 -8.161609 16.936237 -69.286145 18.361556 -6.749534 1.602628 -0.000000 0.000000 -0.000000
0.000000 0.709206 0.000000 -0.000000 0.000000 68.658649 -31.621257 -49.488942 -83.530039 -24.430161 8.746435 7.271344 -16.231739 30.546683 73.118665 25.611879 -46.961252 -57.380099 -85.629251 28.680099 8.443115 33.882265 -28.962809 77.655198 10.203832 1.176771 -6.285813 -0.000000 0.000000 0.000000 -0.000000 0.000000 0.000000 -0.000000 0.000000 0.000000 27.983056 -12.947321 -57.434646 38.808262 -31.582990 29.545144 -0.000000 0.000000 -0.000000 -7.129757 20.424793 -63.141835 19.775091 -5.515587 2.239142 0.000000 0.000000 0.000000
0.000000 0.725857 0.000000 -0.000000 0.000000 65.455097 -25.729727 -46.337091 -76.619548 -16.713952 4.409585 4.842389 -19.978752 32.687835 71.368759 25.154071 -42.866811 -55.444226 -79.484860 26.834413 7.549881 31.067530 -26.862561 73.050499 9.538464 0.389106 -10.316537 0.000000 0.000000 -0.000000 0.000000 0.000000 -0.000000 0.000000 0.000000 -0.000000 27.829525 -13.747096 -50.015576 41.243479 -33.260415 32.034350 -0.000000 0.000000 -0.000000 -8.142002 24.058398 -55.570870 20.047396 -2.686712 2.717237 -0.000000 0.000000 0.000000
0.000000 0.740544 0.000000 -0.000000 0.000000 62.135734 -21.243833 -43.710359 -70.739175 -10.730151 1.404914 3.186145 -22.931224 33.694178 69.165017 24.441185 -39.232241 -53.307834 -73.539596 25.089323 6.902674 28.116090 -24.608526 68.388111 9.211640 -0.015655 -14.543929 -0.000000 0.000000 0.000000 -0.000000 0.000000 0.000000 -0.000000 0.000000 0.000000 28.213600 -14.801693 -42.019563 43.483241 -35.645411 35.025416 0.000000 0.000000 0.000000 -10.685858 27.205887 -47.376390 20.051153 -0.785070 3.222450 -0.000000 0.000000 -0.000000
0.000000 0.751652 0.000000 -0.000000 0.000000 58.682762 -17.813347 -42.587929 -65.673520 -7.814983 0.706770 2.312999 -23.970548 33.293517 65.946656 23.344790 -36.348495 -50.923082 -68.022917 23.520371 6.674492 25.101269 -22.024440 63.644066 9.271611 0.122030 -17.539525 -0.000000 0.000000 0.000000 -0.000000 0.000000 0.000000 -0.000000 0.000000 0.000000 28.800009 -16.157922 -34.880477 46.049787 -39.015844 39.196046 -0.000000 0.000000 0.000000 -14.182280 29.910066 -40.068047 21.597816 -0.507164 4.000436 0.000000 0.000000 0.000000
0.000000 0.762228 0.000000 -0.000000 0.000000 55.166614 -14.951050 -43.013829 -61.086461 -7.870501 2.138701 2.045930 -23.051975 31.863510 61.829662 21.699738 -34.516739 -48.351483 -62.844207 22.457554 6.971483 21.894367 -19.139816 58.902202 9.595182 0.988494 -18.708156 0.000000 0.000000 -0.000000 0.000000 0.000000 -0.000000 0.000000 0.000000 -0.000000 29.470615 -18.055286 -29.202433 47.948953 -41.931359 42.847906 0.000000 0.000000 -0.000000 -16.545992 31.825529 -34.884489 21.809154 -0.478149 4.634639 0.000000 0.000000 -0.000000
0.000000 0.775399 0.000000 -0.000000 0.000000 51.358114 -11.430722 -44.872949 -56.091057 -11.101568 5.309256 2.572228 -20.083160 29.373920 56.672698 19.826263 -33.841968 -45.271319 -58.056768 22.518268 7.788649 18.497078 -16.421905 54.050123 10.023431 2.576787 -18.619008 -0.000000 0.000000 0.000000 -0.000000 0.000000 0.000000 -0.000000 0.000000 0.000000 30.169466 -20.377540 -24.244957 49.323234 -44.439962 45.854248 0.000000 0.000000 0.000000 -19.812764 35.075197 -30.372154 25.587581 -2.961420 6.206745 -0.000000 0.000000 -0.000000
0.000000 0.794783 0.000000 -0.000000 0.000000 47.314972 -6.542327 -46.594310 -50.134654 -15.846802 8.980637 3.653647 -16.066991 25.918274 51.035374 17.289747 -34.629406 -41.887732 -53.091858 24.375182 9.125340 14.474140 -13.982915 49.099338 10.502112 5.123235 -18.091689 -0.000000 0.000000 -0.000000 -0.000000 0.000000 -0.000000 -0.000000 0.000000 -0.000000 30.973583 -22.653310 -19.358097 50.213794 -46.704984 48.151873 -0.000000 0.000000 -0.000000 -22.465704 36.407696 -26.574187 28.482056 -5.229728 7.672590 -0.000000 0.000000 -0.000000
0.000000 0.820138 0.000000 -0.000000 0.000000 43.507293 -1.397434 -47.172217 -44.117438 -20.466492 13.071444 4.776473 -12.054176 21.330380 45.785479 15.338660 -35.431450 -38.581025 -47.581756 25.346346 9.405770 10.387494 -10.837142 44.495280 10.809901 7.943640 -17.819217 0.000000 0.000000 0.000000 0.000000 0.000000 0.000000 0.000000 0.000000 0.000000 31.855119 -24.207266 -14.674833 50.715556 -48.858446 49.928239 0.000000 0.000000 0.000000 -24.656822 36.642630 -23.099274 31.022102 -7.750103 9.090125 0.000000 0.000000 -0.000000
0.000000 0.841875 0.000000 -0.000000 0.000000 40.323394 2.925653 -46.275766 -39.072988 -23.354011 16.031584 5.440692 -9.222592 17.115225 41.714138 14.364226 -35.281657 -35.733904 -42.163251 24.564385 8.573829 7.032876 -7.428566 40.780522 10.776857 9.906716 -17.538520 -0.000000 0.000000 0.000000 -0.000000 0.000000 0.000000 -0.000000 0.000000 0.000000 32.431968 -24.886352 -11.168236 51.240430 -50.517670 51.263876 -0.000000 0.000000 -0.000000 -26.175699 36.464838 -20.260977 32.232550 -9.355225 9.978881 0.000000 0.000000 -0.000000
0.000000 0.863422 0.000000 -0.000000 0.000000 37.413232 6.400344 -44.135970 -34.816230 -24.578551 17.742506 5.562052 -7.313538 13.548263 38.283135 13.331450 -33.568778 -33.375625 -35.405194 22.320387 6.796936 3.672160 -3.911648 37.538675 10.674067 11.430010 -17.384819 -0.000000 0.000000 -0.000000 -0.000000 0.000000 -0.000000 -0.000000 0.000000 -0.000000 32.563290 -25.149049 -8.160621 51.525912 -51.940401 52.011942 -0.000000 0.000000 0.000000 -27.301606 36.021818 -17.634039 33.164992 -11.046306 10.740081 -0.000000 0.000000 0.000000
0.000000 0.879216 0.000000 -0.000000 0.000000 34.766145 9.122156 -41.974934 -31.260450 -25.682918 19.611426 5.681613 -5.603635 9.963027 35.254964 12.500494 -31.375647 -31.242399 -29.071482 19.308927 5.033678 0.689126 -0.566177 34.769550 10.509969 12.674773 -16.985329 0.000000 0.000000 0.000000 0.000000 0.000000 0.000000 0.000000 0.000000 0.000000 32.550626 -25.222483 -5.805381 52.052570 -53.140166 52.848140 -0.000000 0.000000 -0.000000 -28.011006 35.285151 -15.629020 33.764222 -12.345129 11.276805 -0.000000 0.000000 0.000000
0.000000 0.893054 0.000000 -0.000000 0.000000 32.460444 11.036937 -39.689254 -28.466444 -25.968835 20.784658 5.561683 -4.478805 7.147240 32.740299 11.902821 -29.398338 -29.327485 -23.965384 16.257357 3.709338 -1.742764 2.395959 32.496891 10.292584 13.703873 -16.673716 -0.000000 0.000000 -0.000000 -0.000000 0.000000 -0.000000 -0.000000 0.000000 -0.000000 32.569975 -25.141922 -3.769043 52.450154 -54.252569 53.617377 -0.000000 0.000000 -0.000000 -28.473977 34.459678 -13.892860 34.105901 -13.472232 11.664274 -0.000000 0.000000 -0.000000
0.000000 0.904530 0.000000 -0.000000 0.000000 30.567529 12.190085 -37.672245 -26.395195 -25.764164 21.726269 5.338809 -3.773074 4.890896 30.728724 11.598971 -28.046724 -27.661246 -20.625485 13.966553 2.947679 -3.348224 4.576997 30.701373 10.048741 14.477848 -16.295263 -0.000000 0.000000 0.000000 -0.000000 0.000000 0.000000 -0.000000 0.000000 0.000000 32.693182 -25.112851 -2.172074 52.932784 -55.240027 54.561263 -0.000000 0.000000 0.000000 -28.802480 33.747605 -12.581846 34.223700 -14.164021 11.888574 -0.000000 0.000000 0.000000
