HIERARCHY
ROOT Hips
{
  OFFSET 0 0 0
  CHANNELS 6 Xposition Yposition Zposition Zrotation Xrotation Yrotation
  JOINT RightUpLeg
  {
    OFFSET -0.105 0 0
    CHANNELS 3 Zrotation Xrotation Yrotation
    JOINT RightLeg
    {
      OFFSET 0 -0.43 0
      CHANNELS 3 Zrotation Xrotation Yrotation
      JOINT RightFoot
      {
        OFFSET 0 -0.43 0
        CHANNELS 3 Zrotation Xrotation Yrotation
        End Site
        {
          OFFSET 0 -0.07 0.18
        }
      }
    }
  }
  JOINT LeftUpLeg
  {
    OFFSET 0.105 0 0
    CHANNELS 3 Zrotation Xrotation Yrotation
    JOINT LeftLeg
    {
      OFFSET 0 -0.43 0
      CHANNELS 3 Zrotation Xrotation Yrotation
      JOINT LeftFoot
      {
        OFFSET 0 -0.43 0
        CHANNELS 3 Zrotation Xrotation Yrotation
        End Site
        {
          OFFSET 0 -0.07 0.18
        }
      }
    }
  }
  JOINT Spine
  {
    OFFSET 0 0.19 0
    CHANNELS 3 Zrotation Xrotation Yrotation
    JOINT Chest
    {
      OFFSET 0 0.18 0
      CHANNELS 3 Zrotation Xrotation Yrotation
      JOINT Neck
      {
        OFFSET 0 0.17 0
        CHANNELS 3 Zrotation Xrotation Yrotation
        JOINT Head
        {
          OFFSET 0 0.15 0
          CHANNELS 3 Zrotation Xrotation Yrotation
          End Site
          {
            OFFSET 0 0.12 0
          }
        }
      }
      JOINT LeftArm
      {
        OFFSET 0.19 0.17 0.04
        CHANNELS 3 Zrotation Xrotation Yrotation
        JOINT LeftForeArm
        {
          OFFSET 0 -0.34 0
          CHANNELS 3 Zrotation Xrotation Yrotation
          JOINT LeftHand
          {
            OFFSET 0 -0.38 0
            CHANNELS 3 Zrotation Xrotation Yrotation
            End Site
            {
              OFFSET 0 -0.08 0
            }
          }
        }
      }
      JOINT RightArm
      {
        OFFSET -0.19 0.17 0.04
        CHANNELS 3 Zrotation Xrotation Yrotation
        JOINT RightForeArm
        {
          OFFSET 0 -0.34 0
          CHANNELS 3 Zrotation Xrotation Yrotation
          JOINT RightHand
          {
            OFFSET 0 -0.38 0
            CHANNELS 3 Zrotation Xrotation Yrotation
            End Site
            {
              OFFSET 0 -0.08 0
            }
          }
        }
      }
    }
  }
}
MOTION
Frames: 23
Frame Time: 0.04000000
0.000000 0.851493 0.000000 -0.000000 0.000000 -10.363522 -12.117004 -10.090789 9.289773 21.190926 37.430652 -3.913270 -6.306948 -29.829356 -12.044978 9.085709 25.954039 8.265594 -11.121124 15.641811 -2.730831 -0.943265 -39.609350 -10.703211 -8.097416 12.933483 8.242318 -0.000000 0.000000 0.000000 -0.000000 0.000000 0.000000 -0.000000 0.000000 0.000000 31.965779 -13.635368 9.995248 -125.012420 -51.268542 -57.293295 -0.000000 0.000000 -0.000000 -29.827816 2.447059 0.055854 0.541858 -20.669133 -6.377208 -0.000000 0.000000 0.000000
0.000000 0.870036 0.000000 -0.000000 0.000000 -9.638153 -8.376040 -5.980192 9.199857 18.531066 33.638529 -3.502783 -8.644872 -29.250066 -11.898004 6.012950 24.869274 8.311150 -17.193126 16.601825 -2.590675 10.372221 -39.538256 -5.901347 -8.113948 11.879847 6.595955 -0.000000 0.000000 0.000000 -0.000000 0.000000 0.000000 -0.000000 0.000000 0.000000 31.463187 -17.552862 11.150653 -130.062665 -49.626073 -56.047528 -0.000000 0.000000 -0.000000 -29.662179 2.679135 1.340059 -0.228622 -20.552611 -6.626477 0.000000 0.000000 0.000000
0.000000 0.887130 0.000000 -0.000000 0.000000 -9.351252 -4.995092 -2.676212 9.234500 16.429135 30.135579 -3.237366 -10.826414 -28.354871 -12.093863 2.302235 23.306498 8.876380 -21.651813 18.765264 -1.807424 20.256943 -39.959040 -1.919279 -8.315617 11.091761 5.461236 -0.000000 0.000000 0.000000 -0.000000 0.000000 0.000000 -0.000000 0.000000 0.000000 30.622422 -22.034552 12.319758 -131.141835 -47.943137 -50.576351 -0.000000 0.000000 0.000000 -29.557669 2.836924 2.468042 -1.381549 -20.482183 -7.034039 -0.000000 0.000000 0.000000
0.000000 0.901639 0.000000 -0.000000 0.000000 -9.479978 -2.027801 -0.015784 9.479698 14.849842 26.985590 -3.055498 -12.886248 -27.294706 -12.621234 -1.757109 21.033074 9.806188 -25.607316 22.135051 -0.100448 29.834945 -40.817002 1.841414 -8.692992 10.446726 4.799561 0.000000 0.000000 -0.000000 0.000000 0.000000 -0.000000 0.000000 0.000000 -0.000000 29.216630 -26.977244 13.311594 -129.666133 -46.672385 -43.083782 0.000000 0.000000 -0.000000 -29.201568 3.085453 3.558715 -3.497717 -20.530957 -7.779069 0.000000 0.000000 -0.000000
0.000000 0.910620 0.000000 -0.000000 0.000000 -9.801474 -0.139939 1.806776 9.803680 14.624281 24.522282 -3.011129 -15.013096 -26.266506 -13.323388 -5.546916 18.176255 10.689443 -28.236539 26.010283 2.487418 37.386453 -41.923193 4.969538 -9.099727 9.873842 4.347660 0.000000 0.000000 0.000000 0.000000 0.000000 0.000000 0.000000 0.000000 0.000000 27.237314 -31.879290 13.960327 -126.227621 -45.667581 -34.626254 0.000000 0.000000 0.000000 -28.920710 3.419608 4.631392 -6.532570 -20.684373 -8.922875 0.000000 0.000000 -0.000000
0.000000 0.912751 0.000000 -0.000000 0.000000 -10.265311 0.380508 2.812782 10.255969 15.837050 22.842014 -3.038115 -17.055176 -25.431594 -14.140995 -9.430322 15.316724 11.536181 -28.931962 28.667756 5.077870 42.317720 -42.357805 6.791998 -9.510083 9.292089 4.075427 -0.000000 0.000000 -0.000000 -0.000000 0.000000 -0.000000 -0.000000 0.000000 -0.000000 24.369961 -37.201518 14.094729 -122.244954 -45.318482 -26.893480 -0.000000 0.000000 -0.000000 -28.801508 3.696391 5.627592 -10.385189 -20.818996 -10.434105 -0.000000 0.000000 0.000000
0.000000 0.906978 0.000000 -0.000000 0.000000 -10.703668 -0.275119 3.215871 10.711391 17.990493 22.082344 -3.112654 -18.760291 -25.129693 -14.920863 -13.226902 12.982209 12.215235 -26.455199 29.491059 6.577434 43.176355 -42.064169 6.598198 -9.887111 8.626870 3.962548 0.000000 0.000000 0.000000 0.000000 0.000000 0.000000 0.000000 0.000000 0.000000 21.346014 -42.723214 13.721752 -118.372477 -45.433564 -19.264165 -0.000000 0.000000 0.000000 -28.910167 3.961593 6.424865 -14.907831 -21.094947 -12.369544 -0.000000 0.000000 -0.000000
0.000000 0.895196 0.000000 -0.000000 0.000000 -11.135596 -1.767769 3.121686 11.183769 20.931528 22.265509 -3.326444 -20.332123 -25.451732 -15.773549 -16.316252 11.513130 12.791536 -22.482049 29.224605 6.970598 41.598540 -41.568032 5.272032 -10.172769 7.900474 4.136714 -0.000000 0.000000 0.000000 -0.000000 0.000000 0.000000 -0.000000 0.000000 0.000000 18.769720 -49.008739 13.088774 -113.334795 -46.005582 -9.705005 -0.000000 0.000000 0.000000 -29.584969 4.037226 6.825443 -19.859374 -21.496739 -14.722575 0.000000 0.000000 -0.000000
0.000000 0.879635 0.000000 -0.000000 0.000000 -11.463977 -4.160225 2.449457 11.552956 24.702314 23.196398 -3.700402 -21.698504 -26.163996 -16.563961 -18.560405 10.795754 13.233116 -18.109692 28.482035 6.724741 38.763572 -41.139382 3.577410 -10.388888 7.164504 4.636173 0.000000 0.000000 -0.000000 0.000000 0.000000 -0.000000 0.000000 0.000000 -0.000000 17.825704 -56.195618 12.789179 -107.128727 -47.654873 1.016636 -0.000000 0.000000 -0.000000 -31.168320 3.794064 6.628906 -24.962791 -22.020478 -17.503615 -0.000000 0.000000 0.000000
0.000000 0.858171 0.000000 -0.000000 0.000000 -11.743096 -7.477088 0.875074 11.800277 28.263459 25.329030 -4.227112 -21.619315 -27.486512 -17.090369 -20.362034 10.858026 13.698717 -13.304450 27.197306 6.037232 34.971572 -40.808017 1.624036 -10.548698 6.463521 5.388340 0.000000 0.000000 0.000000 0.000000 0.000000 0.000000 0.000000 0.000000 0.000000 19.842932 -64.072724 14.142451 -99.492032 -49.604988 13.701547 -0.000000 0.000000 -0.000000 -33.669597 2.989131 5.851877 -29.356457 -22.515918 -20.246959 -0.000000 0.000000 0.000000
0.000000 0.836732 0.000000 -0.000000 0.000000 -12.020191 -11.296354 -1.157388 11.905721 31.493633 27.554424 -4.681356 -20.486771 -28.642855 -17.303063 -21.154404 11.491686 14.173038 -9.484636 26.501536 5.444513 31.275532 -41.309279 0.026720 -10.639073 5.789651 6.287077 -0.000000 0.000000 0.000000 -0.000000 0.000000 0.000000 -0.000000 0.000000 0.000000 29.311827 -73.077777 21.725352 -90.006178 -51.406309 29.925186 0.000000 0.000000 0.000000 -36.992858 1.920460 4.734543 -33.213765 -23.185849 -23.207546 -0.000000 0.000000 -0.000000
0.000000 0.815551 0.000000 -0.000000 0.000000 -12.283148 -15.591582 -3.622310 11.787062 35.134313 29.796862 -5.215938 -19.069829 -29.556517 -17.357515 -21.417877 12.743419 14.702726 -5.743159 25.680374 4.754740 26.949189 -42.155744 -1.730385 -10.612197 5.169443 7.279593 0.000000 0.000000 -0.000000 0.000000 0.000000 -0.000000 0.000000 0.000000 -0.000000 68.379598 -81.402258 58.149088 -78.389010 -53.049337 49.329214 -0.000000 0.000000 -0.000000 -41.190779 0.869726 3.398244 -36.467728 -24.072561 -26.573292 -0.000000 0.000000 0.000000
0.000000 0.787214 0.000000 -0.000000 0.000000 -12.632541 -20.723915 -6.869963 11.374924 38.997377 32.397597 -5.822882 -16.672652 -30.339349 -17.182703 -21.370873 14.502293 15.383135 -1.295397 24.619399 4.024157 21.111479 -43.247154 -4.183224 -10.351864 4.733510 8.377159 0.000000 0.000000 -0.000000 0.000000 0.000000 -0.000000 0.000000 0.000000 -0.000000 139.582097 -76.448287 125.132518 -66.056873 -54.037629 73.405148 0.000000 0.000000 -0.000000 -46.354252 -0.172083 1.857555 -39.094705 -25.074344 -30.412398 -0.000000 0.000000 0.000000
0.000000 0.766722 0.000000 -0.000000 0.000000 -12.909531 -25.927850 -10.082358 10.582832 42.547010 33.953355 -6.202595 -13.898800 -30.080045 -16.661191 -20.695194 16.175479 15.882104 2.251056 23.203522 3.395305 15.425122 -43.610499 -6.706802 -9.789654 4.597593 9.456341 0.000000 0.000000 -0.000000 0.000000 0.000000 -0.000000 0.000000 0.000000 -0.000000 151.751661 -64.679345 130.560806 -55.700342 -56.818633 97.338791 -0.000000 0.000000 -0.000000 -51.987082 -0.962946 0.182127 -40.577658 -25.962411 -34.103880 0.000000 0.000000 -0.000000
0.000000 0.758360 0.000000 -0.000000 0.000000 -13.187515 -31.031249 -12.843895 9.607974 44.272675 33.781728 -5.715328 -9.810701 -28.356257 -15.671704 -19.252734 18.037385 16.271624 4.829510 21.331797 2.796411 9.892228 -43.387371 -9.243935 -8.924479 4.699507 10.329550 -0.000000 0.000000 -0.000000 -0.000000 0.000000 -0.000000 -0.000000 0.000000 -0.000000 147.716696 -53.495082 115.614622 -43.074318 -64.919972 123.574159 0.000000 0.000000 0.000000 -57.672932 -1.855127 -1.516346 -40.824086 -26.765768 -37.179676 -0.000000 0.000000 -0.000000
0.000000 0.761386 0.000000 -0.000000 0.000000 -13.489693 -35.751093 -14.972802 8.635900 44.712263 31.892983 -4.693396 -5.332348 -25.313485 -14.687981 -17.264359 20.117201 16.574712 6.916304 18.938074 2.291926 4.235409 -42.602275 -11.837641 -7.812200 4.977880 10.859939 -0.000000 0.000000 -0.000000 -0.000000 0.000000 -0.000000 -0.000000 0.000000 -0.000000 139.575166 -43.645239 94.493484 -9.849679 -74.570404 167.649636 0.000000 0.000000 -0.000000 -62.904307 -2.939510 -3.088225 -39.983323 -27.288430 -39.038076 0.000000 0.000000 -0.000000
0.000000 0.768925 0.000000 -0.000000 0.000000 -13.543378 -40.044576 -16.166576 7.617990 43.876745 28.082437 -3.320503 -0.547585 -20.900906 -13.644378 -14.601763 21.995853 16.395995 9.263777 16.818212 1.975618 -2.265995 -41.532619 -14.402720 -6.467741 5.516482 11.012185 0.000000 0.000000 -0.000000 0.000000 0.000000 -0.000000 0.000000 0.000000 -0.000000 130.238375 -34.718587 72.947375 52.760266 -72.283856 -122.202650 -0.000000 0.000000 -0.000000 -67.878017 -4.133395 -4.813084 -38.409861 -27.445417 -39.697711 -0.000000 0.000000 0.000000
0.000000 0.778737 0.000000 -0.000000 0.000000 -13.016782 -43.410842 -16.440548 6.434465 41.476425 23.859783 -2.001610 4.621610 -16.340300 -12.352903 -10.960931 23.078521 15.261194 12.001118 16.214297 1.700969 -9.639374 -40.733034 -16.602516 -5.135293 6.293306 11.017327 0.000000 0.000000 0.000000 0.000000 0.000000 0.000000 0.000000 0.000000 0.000000 122.115357 -26.850186 55.296436 75.193669 -58.330266 -98.326745 -0.000000 0.000000 0.000000 -72.636036 -4.913860 -6.941883 -36.189020 -27.348471 -39.469072 -0.000000 0.000000 0.000000
0.000000 0.786692 0.000000 -0.000000 0.000000 -12.187653 -44.899233 -15.980077 5.549245 37.170982 21.074626 -0.780639 9.861243 -13.425614 -11.024155 -6.266239 23.611261 13.498631 13.402191 16.651057 1.086299 -16.015710 -40.255144 -18.090604 -4.182965 6.960182 10.896324 -0.000000 0.000000 0.000000 -0.000000 0.000000 0.000000 -0.000000 0.000000 0.000000 115.651345 -19.989359 41.468511 79.030181 -43.421217 -100.851473 0.000000 0.000000 0.000000 -76.539477 -5.397462 -9.006926 -34.248500 -27.129661 -39.048666 0.000000 0.000000 -0.000000
0.000000 0.789880 0.000000 -0.000000 0.000000 -11.670694 -45.780830 -15.552961 5.070618 32.292309 18.777099 0.310072 15.212907 -11.153470 -10.176588 -1.524920 23.783704 11.991837 14.761488 17.390900 0.312531 -22.366910 -39.791656 -19.856002 -3.314062 7.597585 11.103956 0.000000 0.000000 0.000000 0.000000 0.000000 0.000000 0.000000 0.000000 0.000000 110.572184 -14.319433 31.301568 76.356035 -30.146342 -131.193900 -0.000000 0.000000 0.000000 -80.667022 -6.007185 -11.363431 -31.605469 -26.764556 -38.037074 -0.000000 0.000000 0.000000
0.000000 0.790170 0.000000 -0.000000 0.000000 -11.502270 -46.024330 -15.262763 4.988204 27.032486 16.968068 1.272855 20.456333 -9.480561 -9.787850 3.022085 23.489425 10.873827 16.056318 18.491947 -0.681058 -28.381815 -39.323946 -21.827729 -2.474014 8.271635 11.571872 -0.000000 0.000000 0.000000 -0.000000 0.000000 0.000000 -0.000000 0.000000 0.000000 105.483168 -9.512714 23.228587 69.973686 -17.566536 97.066255 -0.000000 0.000000 -0.000000 -84.842102 -6.662072 -13.856632 -28.546557 -26.308437 -36.697106 -0.000000 0.000000 0.000000
0.000000 0.786330 0.000000 -0.000000 0.000000 -11.710230 -45.835150 -15.160459 5.269851 21.649193 15.492908 2.121664 25.519677 -8.252106 -9.838409 7.120795 22.809238 10.272053 17.664700 20.082931 -1.952493 -34.305857 -39.008800 -24.188506 -1.641230 8.981553 12.234083 0.000000 0.000000 0.000000 0.000000 0.000000 0.000000 0.000000 0.000000 0.000000 101.005643 -5.308500 17.011341 60.297977 -6.344659 6.343222 0.000000 0.000000 -0.000000 -88.925821 -7.352705 -16.349581 -25.520187 -25.646064 -35.111006 0.000000 0.000000 -0.000000
0.000000 0.778457 0.000000 -0.000000 0.000000 -12.457018 -45.598414 -15.431529 5.937996 16.971678 14.338502 2.790837 29.980243 -7.411710 -10.469853 10.403477 21.972115 10.432058 19.938021 22.000086 -3.486177 -40.259956 -38.831562 -27.179906 -0.856929 9.697397 13.139593 -0.000000 0.000000 -0.000000 -0.000000 0.000000 -0.000000 -0.000000 0.000000 -0.000000 97.141041 -1.631403 12.311122 49.186843 1.477767 -10.200091 0.000000 0.000000 -0.000000 -93.269851 -8.213996 -18.948572 -22.070699 -24.824979 -33.345282 0.000000 0.000000 -0.000000
