HIERARCHY
ROOT Hips
{
  OFFSET 0 0 0
  CHANNELS 6 Xposition Yposition Zposition Zrotation Xrotation Yrotation
  JOINT RightUpLeg
  {
    OFFSET -0.105 0 0
    CHANNELS 3 Zrotation Xrotation Yrotation
    JOINT RightLeg
    {
      OFFSET 0 -0.43 0
      CHANNELS 3 Zrotation Xrotation Yrotation
      JOINT RightFoot
      {
        OFFSET 0 -0.43 0
        CHANNELS 3 Zrotation Xrotation Yrotation
        End Site
        {
          OFFSET 0 -0.07 0.18
        }
      }
    }
  }
  JOINT LeftUpLeg
  {
    OFFSET 0.105 0 0
    CHANNELS 3 Zrotation Xrotation Yrotation
    JOINT LeftLeg
    {
      OFFSET 0 -0.43 0
      CHANNELS 3 Zrotation Xrotation Yrotation
      JOINT LeftFoot
      {
        OFFSET 0 -0.43 0
        CHANNELS 3 Zrotation Xrotation Yrotation
        End Site
        {
          OFFSET 0 -0.07 0.18
        }
      }
    }
  }
  JOINT Spine
  {
    OFFSET 0 0.19 0
    CHANNELS 3 Zrotation Xrotation Yrotation
    JOINT Chest
    {
      OFFSET 0 0.18 0
      CHANNELS 3 Zrotation Xrotation Yrotation
      JOINT Neck
      {
        OFFSET 0 0.17 0
        CHANNELS 3 Zrotation Xrotation Yrotation
        JOINT Head
        {
          OFFSET 0 0.15 0
          CHANNELS 3 Zrotation Xrotation Yrotation
          End Site
          {
            OFFSET 0 0.12 0
          }
        }
      }
      JOINT LeftArm
      {
        OFFSET 0.19 0.17 0.04
        CHANNELS 3 Zrotation Xrotation Yrotation
        JOINT LeftForeArm
        {
          OFFSET 0 -0.34 0
          CHANNELS 3 Zrotation Xrotation Yrotation
          JOINT LeftHand
          {
            OFFSET 0 -0.38 0
            CHANNELS 3 Zrotation Xrotation Yrotation
            End Site
            {
              OFFSET 0 -0.08 0
            }
          }
        }
      }
      JOINT RightArm
      {
        OFFSET -0.19 0.17 0.04
        CHANNELS 3 Zrotation Xrotation Yrotation
        JOINT RightForeArm
        {
          OFFSET 0 -0.34 0
          CHANNELS 3 Zrotation Xrotation Yrotation
          JOINT RightHand
          {
            OFFSET 0 -0.38 0
            CHANNELS 3 Zrotation Xrotation Yrotation
            End Site
            {
              OFFSET 0 -0.08 0
            }
          }
        }
      }
    }
  }
}
MOTION
Frames: 40
Frame Time: 0.04000000
0.000000 0.633270 0.000000 -0.000000 0.000000 -37.481584 -69.856327 -55.762193 -3.072665 78.605244 35.160574 -16.139258 4.001521 -15.108103 -36.950721 -7.559872 -20.664237 36.101408 107.835244 32.208027 -43.141745 -81.711843 -33.212037 -66.407859 1.305885 28.445273 25.781178 0.000000 0.000000 -0.000000 0.000000 0.000000 -0.000000 0.000000 0.000000 -0.000000 22.085050 18.479736 10.400275 -14.474239 -26.202979 2.484898 -0.000000 0.000000 0.000000 -84.839647 -19.561398 -21.625643 -24.393065 -37.288534 -36.284524 -0.000000 0.000000 0.000000
0.000000 0.623283 0.000000 -0.000000 0.000000 -38.479665 -70.374815 -57.033236 -3.443934 79.555490 35.152263 -16.623079 3.806624 -14.953835 -37.979893 -8.700332 -23.682571 36.652169 111.508897 32.427554 -45.397292 -81.425986 -33.951545 -67.916928 0.800011 29.308646 25.640456 -0.000000 0.000000 -0.000000 -0.000000 0.000000 -0.000000 -0.000000 0.000000 -0.000000 20.233714 17.053628 12.236762 -20.816430 -28.031806 -0.487869 -0.000000 0.000000 -0.000000 -77.331538 -18.875880 -16.909772 -24.994156 -38.889665 -34.996707 -0.000000 0.000000 0.000000
0.000000 0.617740 0.000000 -0.000000 0.000000 -39.442336 -70.578045 -58.089010 -3.470519 79.828427 35.076277 -16.723106 3.937849 -14.774577 -38.931589 -9.799085 -26.286187 37.148959 113.867243 32.723312 -46.688205 -80.297865 -34.527881 -68.821507 0.108825 29.902736 25.144634 -0.000000 0.000000 -0.000000 -0.000000 0.000000 -0.000000 -0.000000 0.000000 -0.000000 18.900445 15.612346 14.469796 -27.220342 -29.540812 -3.464461 0.000000 0.000000 -0.000000 -68.277475 -17.507732 -11.052372 -26.610166 -40.637894 -33.918505 0.000000 0.000000 -0.000000
0.000000 0.618833 0.000000 -0.000000 0.000000 -40.312266 -70.335908 -58.746934 -2.952658 79.286879 34.817911 -16.301243 4.389597 -14.563430 -39.751099 -10.986260 -28.571563 37.506764 114.743928 32.997146 -46.743426 -78.072716 -34.718440 -68.758336 -0.690154 30.290429 24.077830 -0.000000 0.000000 -0.000000 -0.000000 0.000000 -0.000000 -0.000000 0.000000 -0.000000 17.859120 14.039498 17.265911 -33.674649 -30.428742 -6.425746 -0.000000 0.000000 0.000000 -58.827683 -15.935423 -4.816302 -29.715428 -41.665323 -33.092592 0.000000 0.000000 -0.000000
0.000000 0.628809 0.000000 -0.000000 0.000000 -41.083225 -69.668723 -58.970687 -1.875136 77.622850 34.305167 -15.206430 5.416051 -14.220336 -40.407148 -12.596694 -31.055352 37.570233 114.400932 33.196183 -45.634304 -74.364464 -34.429275 -67.534895 -1.385653 30.792044 22.273700 0.000000 0.000000 0.000000 0.000000 0.000000 0.000000 0.000000 0.000000 0.000000 16.805634 12.080923 20.740308 -40.296816 -30.421485 -9.317785 -0.000000 0.000000 0.000000 -49.468802 -13.950196 1.757862 -33.915018 -41.916426 -32.549335 -0.000000 0.000000 0.000000
0.000000 0.647849 0.000000 -0.000000 0.000000 -41.571227 -68.814859 -58.653450 -0.519310 74.998325 33.564034 -13.585256 6.992675 -13.768681 -40.725925 -14.315178 -33.227997 37.279527 112.646423 33.416684 -43.646601 -69.660901 -33.752337 -65.409962 -1.960990 31.344382 19.992549 -0.000000 0.000000 0.000000 -0.000000 0.000000 0.000000 -0.000000 0.000000 0.000000 15.974561 9.773965 24.401208 -46.749589 -29.656335 -11.855519 0.000000 0.000000 -0.000000 -41.036967 -11.175874 8.096784 -38.114072 -41.245245 -31.996206 -0.000000 0.000000 -0.000000
0.000000 0.676986 0.000000 -0.000000 0.000000 -41.755769 -67.167454 -57.684104 1.584277 71.140978 32.688586 -11.447883 9.072618 -13.380067 -40.689383 -16.171984 -34.941206 36.635231 109.177251 33.465440 -40.530647 -63.938818 -32.448636 -62.342702 -2.511148 31.815987 17.227671 0.000000 0.000000 -0.000000 0.000000 0.000000 -0.000000 0.000000 0.000000 -0.000000 15.443972 7.174289 28.239861 -53.153184 -28.422513 -14.017644 -0.000000 0.000000 0.000000 -33.701329 -8.079780 14.071365 -40.637828 -38.933004 -30.124309 0.000000 0.000000 -0.000000
0.000000 0.712631 0.000000 -0.000000 0.000000 -41.868691 -64.485049 -56.175036 4.659799 66.104886 31.492427 -8.917673 11.495102 -13.017326 -40.552870 -17.726468 -35.922091 36.080980 104.174965 33.039906 -36.474584 -57.946883 -30.426326 -58.994595 -3.293641 31.888165 14.067243 -0.000000 0.000000 0.000000 -0.000000 0.000000 0.000000 -0.000000 0.000000 0.000000 15.251729 4.572362 32.373715 -59.312044 -26.781156 -15.706461 0.000000 0.000000 -0.000000 -27.651422 -5.306262 19.844328 -40.491582 -35.263075 -26.753979 -0.000000 0.000000 -0.000000
0.000000 0.758264 0.000000 -0.000000 0.000000 -42.156886 -61.639452 -54.501975 7.995099 60.657226 29.959203 -6.345888 14.159698 -12.677619 -40.575978 -18.739409 -36.188003 35.984879 97.106797 31.873042 -31.257557 -51.304258 -27.439992 -55.531362 -4.284649 31.349908 10.633664 -0.000000 0.000000 0.000000 -0.000000 0.000000 0.000000 -0.000000 0.000000 0.000000 15.461573 2.304623 36.813292 -64.971756 -24.975740 -16.754646 0.000000 0.000000 0.000000 -22.653621 -2.957004 25.753867 -39.480352 -30.821893 -23.286729 0.000000 0.000000 0.000000
0.000000 0.794364 0.000000 -0.000000 0.000000 -42.529668 -58.544867 -52.646519 11.530152 54.578886 28.108220 -3.824828 17.219245 -12.255507 -40.667148 -19.276183 -35.955713 36.221398 91.460196 30.669029 -27.248205 -46.578742 -25.104852 -53.478835 -5.381201 30.354673 7.510585 0.000000 0.000000 0.000000 0.000000 0.000000 0.000000 0.000000 0.000000 0.000000 16.241276 0.201418 40.939455 -70.492414 -22.967198 -17.147810 0.000000 0.000000 -0.000000 -18.714824 -0.216403 31.243831 -38.120906 -26.650411 -20.396581 0.000000 0.000000 0.000000
0.000000 0.826713 0.000000 -0.000000 0.000000 -43.081788 -55.060348 -50.687935 15.346372 47.692242 26.086282 -1.405281 20.818975 -11.841385 -40.898948 -19.086871 -34.950508 37.022242 85.615689 29.793994 -23.677459 -42.495611 -23.478098 -52.320736 -6.658068 28.888828 4.955126 0.000000 0.000000 -0.000000 0.000000 0.000000 -0.000000 0.000000 0.000000 -0.000000 17.539843 -1.842682 44.617642 -76.563233 -20.533050 -16.885286 -0.000000 0.000000 -0.000000 -15.938345 2.380562 36.043024 -36.953132 -23.155951 -18.366704 0.000000 0.000000 -0.000000
0.000000 0.850348 0.000000 -0.000000 0.000000 -43.889895 -51.491495 -48.658206 19.289403 39.853226 23.553958 0.857997 25.291874 -11.166059 -41.377027 -18.671744 -33.854546 38.161222 80.415475 29.581070 -20.880028 -38.934555 -22.889787 -52.076286 -7.859284 26.886574 2.851759 0.000000 0.000000 0.000000 0.000000 0.000000 0.000000 0.000000 0.000000 0.000000 19.136802 -3.810689 47.895218 -82.968665 -17.987546 -15.698459 -0.000000 0.000000 0.000000 -14.205482 5.140429 40.382955 -35.616870 -19.919011 -16.674332 -0.000000 0.000000 0.000000
0.000000 0.869407 0.000000 -0.000000 0.000000 -44.899048 -47.789753 -46.375740 23.408247 31.437503 20.187775 2.591903 30.220615 -9.990462 -42.195132 -18.392175 -33.093200 39.391596 75.676173 29.385428 -18.382981 -35.403394 -22.498612 -52.163972 -8.999081 24.503751 1.144502 0.000000 0.000000 -0.000000 0.000000 0.000000 -0.000000 0.000000 0.000000 -0.000000 20.777336 -5.573280 50.737510 -89.203584 -15.813282 -13.801346 -0.000000 0.000000 -0.000000 -13.245423 8.033931 44.350149 -33.784814 -16.655772 -14.998541 0.000000 0.000000 -0.000000
0.000000 0.884437 0.000000 -0.000000 0.000000 -45.989365 -43.893409 -43.699695 27.633087 22.658133 16.345376 3.600634 35.269254 -8.534456 -43.271881 -18.357186 -32.691330 40.562990 71.518561 29.010388 -16.123692 -31.994480 -22.076187 -52.391271 -10.007277 21.975461 -0.574458 -0.000000 0.000000 -0.000000 -0.000000 0.000000 -0.000000 -0.000000 0.000000 -0.000000 22.375633 -7.142701 53.454415 -94.128509 -14.711029 -11.615510 -0.000000 0.000000 -0.000000 -13.244989 10.552205 48.161400 -31.033239 -12.743139 -13.088281 -0.000000 0.000000 0.000000
0.000000 0.898381 0.000000 -0.000000 0.000000 -47.049076 -39.778448 -40.611548 31.799509 13.569124 12.354819 3.833796 40.243919 -6.837841 -44.541232 -18.650143 -32.444991 41.578502 67.367084 28.059611 -13.712261 -28.370767 -21.229684 -52.473443 -10.809349 19.551768 -2.402416 0.000000 0.000000 -0.000000 0.000000 0.000000 -0.000000 0.000000 0.000000 -0.000000 23.956438 -8.783516 56.142883 -98.571468 -14.474504 -9.452646 -0.000000 0.000000 0.000000 -13.911469 12.876827 51.939938 -28.692414 -9.212169 -11.667397 0.000000 0.000000 -0.000000
0.000000 0.913432 0.000000 -0.000000 0.000000 -48.277845 -35.910876 -37.311779 35.790021 5.589946 8.340166 3.199634 44.056664 -5.044583 -46.235695 -18.855379 -32.167886 42.795827 62.968118 26.602687 -11.244240 -24.587346 -20.042388 -52.688383 -11.425037 17.301739 -3.917642 0.000000 0.000000 0.000000 0.000000 0.000000 0.000000 0.000000 0.000000 0.000000 25.479339 -10.655572 58.679128 -100.942937 -14.887980 -7.125249 0.000000 0.000000 0.000000 -15.026980 13.991327 55.251608 -27.582728 -6.325255 -10.915063 -0.000000 0.000000 -0.000000
0.000000 0.927315 0.000000 -0.000000 0.000000 -49.603292 -32.818017 -34.411088 39.182494 -0.066103 5.045333 2.149883 46.098158 -3.571820 -48.083129 -19.185523 -31.994882 44.055221 58.776603 24.665024 -8.894978 -20.823056 -18.572801 -53.045066 -11.781879 15.364434 -5.135073 -0.000000 0.000000 -0.000000 -0.000000 0.000000 -0.000000 -0.000000 0.000000 -0.000000 27.166472 -12.522113 61.121842 -102.125321 -15.571101 -4.563909 0.000000 0.000000 -0.000000 -16.374870 14.656950 58.195935 -27.464597 -3.206810 -10.545468 0.000000 0.000000 0.000000
0.000000 0.940535 0.000000 -0.000000 0.000000 -50.824391 -30.510245 -32.169826 41.831315 -2.655598 2.938264 1.247185 45.825962 -2.759069 -49.657993 -19.937836 -32.168504 45.021809 55.149564 22.168036 -6.770982 -17.065185 -16.663540 -53.341833 -11.918726 13.976247 -5.830790 0.000000 0.000000 0.000000 0.000000 0.000000 0.000000 0.000000 0.000000 0.000000 29.040115 -14.597396 63.223650 -102.555789 -16.512766 -2.008530 -0.000000 0.000000 -0.000000 -17.742184 15.085770 60.385495 -29.813821 -0.720803 -11.228379 0.000000 0.000000 -0.000000
0.000000 0.955112 0.000000 -0.000000 0.000000 -51.897972 -28.896475 -30.368034 43.898081 -2.220568 1.570807 0.600710 43.164698 -2.480804 -50.916507 -20.752974 -32.265448 45.834256 51.097560 19.217204 -4.768273 -12.855352 -14.404455 -53.529227 -11.865261 13.060734 -5.913211 -0.000000 0.000000 0.000000 -0.000000 0.000000 0.000000 -0.000000 0.000000 0.000000 30.522533 -16.181651 64.647906 -102.963934 -17.380941 -0.064511 -0.000000 0.000000 -0.000000 -19.148724 15.255358 61.663794 -31.752697 1.467552 -11.779066 -0.000000 0.000000 -0.000000
0.000000 0.969886 0.000000 -0.000000 0.000000 -52.607941 -28.200950 -29.518989 45.035577 1.433988 1.402456 0.511502 38.476620 -2.992565 -51.563367 -21.552432 -32.427744 46.272226 46.837369 16.227437 -3.165246 -8.295860 -11.962961 -53.478665 -11.683258 12.693925 -5.432983 0.000000 0.000000 -0.000000 0.000000 0.000000 -0.000000 0.000000 0.000000 -0.000000 31.573092 -17.264704 65.236375 -103.655355 -18.191349 1.092839 -0.000000 0.000000 0.000000 -20.680489 15.199545 61.870061 -35.036988 4.030483 -12.813241 0.000000 0.000000 -0.000000
0.000000 0.986679 0.000000 -0.000000 0.000000 -53.219982 -28.152091 -29.633387 45.630692 8.918214 2.123470 0.748796 31.025593 -4.063482 -52.091665 -21.780973 -32.560754 46.787911 41.241871 13.373352 -1.877204 -2.656734 -9.332952 -53.436879 -11.498531 12.702137 -4.606207 -0.000000 0.000000 0.000000 -0.000000 0.000000 0.000000 -0.000000 0.000000 0.000000 32.252306 -17.783530 65.374604 -104.770956 -18.612107 1.903852 -0.000000 0.000000 0.000000 -21.718703 14.666261 61.412472 -39.162695 7.192587 -13.752712 0.000000 0.000000 0.000000
0.000000 1.004271 0.000000 -0.000000 0.000000 -53.872743 -28.348020 -29.923011 46.150620 17.637085 2.632461 0.891690 22.596305 -4.967425 -52.879722 -21.166770 -31.890731 47.761175 34.758049 10.708595 -0.899707 2.863937 -6.991582 -53.697752 -11.355373 12.697471 -3.740029 0.000000 0.000000 -0.000000 0.000000 0.000000 -0.000000 0.000000 0.000000 -0.000000 32.451117 -17.281981 65.215854 -106.417961 -18.733829 2.086290 -0.000000 0.000000 0.000000 -22.556036 13.792388 60.840167 -44.008482 10.349420 -14.579906 0.000000 0.000000 0.000000
0.000000 1.020762 0.000000 -0.000000 0.000000 -54.735861 -28.239923 -29.530377 47.149577 25.007108 2.015030 0.949581 14.813100 -5.147883 -54.066226 -19.626253 -29.990886 49.430474 27.811273 8.188975 -0.209348 7.457508 -5.166205 -54.398946 -11.325225 12.464610 -2.770812 0.000000 0.000000 0.000000 0.000000 0.000000 0.000000 0.000000 0.000000 0.000000 32.512795 -16.098573 64.924404 -108.027747 -18.813954 1.872888 0.000000 0.000000 -0.000000 -23.431525 12.661781 60.325815 -48.839769 12.278493 -15.484347 0.000000 0.000000 -0.000000
0.000000 1.035223 0.000000 -0.000000 0.000000 -56.057756 -27.704460 -28.796870 48.813038 30.296760 0.710505 1.154320 8.563941 -4.833508 -55.695639 -17.812776 -27.660849 51.639014 21.440169 5.830703 0.178255 11.027212 -3.784025 -55.692358 -11.394481 11.949578 -1.574049 -0.000000 0.000000 0.000000 -0.000000 0.000000 0.000000 -0.000000 0.000000 0.000000 32.657724 -14.400353 64.694587 -109.769519 -19.048059 1.398467 0.000000 0.000000 0.000000 -24.443239 11.358952 60.014610 -53.188157 13.087170 -16.513274 0.000000 0.000000 0.000000
0.000000 1.043418 0.000000 -0.000000 0.000000 -57.630855 -26.835736 -27.886143 50.851657 34.348834 -0.561830 1.535407 3.187893 -4.494756 -57.505716 -16.701907 -26.922405 53.606145 19.508279 5.018622 0.255664 11.812178 -3.476085 -57.271154 -11.495006 11.186501 -0.108351 0.000000 0.000000 -0.000000 0.000000 0.000000 -0.000000 0.000000 0.000000 -0.000000 32.603197 -12.521205 64.284573 -111.693688 -19.558064 0.290604 -0.000000 0.000000 -0.000000 -25.464423 10.234178 59.755085 -57.090947 12.948649 -17.847355 0.000000 0.000000 -0.000000
0.000000 1.050762 0.000000 -0.000000 0.000000 -59.319449 -25.809957 -26.969085 53.029888 37.943999 -1.617472 2.034711 -1.852727 -4.192920 -59.387276 -15.844021 -26.899407 55.507418 20.424983 5.149828 0.244769 10.474094 -3.879361 -58.963735 -11.634684 10.455525 1.502608 0.000000 0.000000 -0.000000 0.000000 0.000000 -0.000000 0.000000 0.000000 -0.000000 32.341237 -10.454398 63.782810 -113.724275 -20.051098 -1.324277 -0.000000 0.000000 -0.000000 -26.562497 8.790087 59.340552 -59.760260 11.796722 -19.353398 0.000000 0.000000 0.000000
0.000000 1.052114 0.000000 -0.000000 0.000000 -61.164509 -24.652056 -25.936503 55.403148 41.404581 -2.521954 2.657664 -6.954196 -3.934242 -61.403652 -15.678588 -28.234915 57.198034 26.051468 6.268584 0.060036 5.927852 -5.118153 -60.899333 -11.742209 9.602154 3.422989 -0.000000 0.000000 -0.000000 -0.000000 0.000000 -0.000000 -0.000000 0.000000 -0.000000 32.148307 -8.280986 63.094214 -116.121851 -20.761625 -3.249301 -0.000000 0.000000 0.000000 -27.957509 7.388522 58.759383 -61.700769 9.635277 -21.477561 0.000000 0.000000 0.000000
0.000000 1.049071 0.000000 -0.000000 0.000000 -63.197324 -23.550207 -24.855072 57.936986 45.822099 -3.508893 3.545925 -13.049248 -3.489552 -63.596549 -15.865122 -30.808925 58.800025 35.510153 8.036730 -0.477741 -1.187422 -6.819895 -63.268079 -11.782772 8.673030 5.678987 0.000000 0.000000 0.000000 0.000000 0.000000 0.000000 0.000000 0.000000 0.000000 31.894102 -5.967090 62.207720 -118.949854 -21.609744 -5.640376 0.000000 0.000000 0.000000 -29.610971 5.594307 57.842463 -62.857783 6.879909 -23.825767 0.000000 0.000000 0.000000
0.000000 1.043212 0.000000 -0.000000 0.000000 -65.290468 -22.445531 -23.827508 60.496116 50.685720 -4.233296 4.574477 -19.562398 -3.018953 -65.811028 -15.823204 -33.245884 60.538936 43.571336 9.090665 -1.063506 -7.084967 -7.890638 -65.779723 -11.738116 7.549255 8.420362 -0.000000 0.000000 -0.000000 -0.000000 0.000000 -0.000000 -0.000000 0.000000 -0.000000 31.324527 -3.826922 60.834501 -121.904589 -22.496237 -8.647611 0.000000 0.000000 -0.000000 -31.268540 3.625812 56.407300 -63.721557 3.694913 -26.388142 -0.000000 0.000000 -0.000000
0.000000 1.036960 0.000000 -0.000000 0.000000 -67.297639 -21.476089 -22.178078 63.040441 55.705075 -5.062251 5.965981 -26.691718 -2.420550 -67.871960 -15.190442 -34.863650 62.502640 48.935542 9.899329 -1.543014 -11.206356 -8.732411 -68.155995 -11.604754 6.150981 11.615471 0.000000 0.000000 0.000000 0.000000 0.000000 0.000000 0.000000 0.000000 0.000000 30.605084 -1.418689 58.782987 -125.478464 -23.398708 -12.550812 -0.000000 0.000000 -0.000000 -33.046967 1.568131 54.392341 -64.015563 -0.413779 -29.480022 -0.000000 0.000000 -0.000000
0.000000 1.028678 0.000000 -0.000000 0.000000 -69.078789 -21.208536 -19.816968 65.332517 60.532514 -6.592717 8.148459 -33.858667 -1.346366 -69.488617 -14.189560 -36.308795 64.404677 52.492322 10.904701 -2.059091 -13.739854 -9.535224 -70.230220 -11.255032 4.475663 15.085199 0.000000 0.000000 0.000000 0.000000 0.000000 0.000000 0.000000 0.000000 0.000000 29.368242 1.113516 56.094952 -129.911196 -24.703629 -18.716270 0.000000 0.000000 -0.000000 -34.998095 -0.400313 51.930360 -63.421500 -4.726824 -32.435077 0.000000 0.000000 -0.000000
0.000000 1.013238 0.000000 -0.000000 0.000000 -70.032479 -21.851401 -16.705290 66.785604 65.219167 -8.080767 11.084202 -41.016865 -0.349495 -70.163208 -13.915205 -38.064832 65.211393 55.306230 11.711676 -2.493748 -14.969679 -10.085741 -71.360949 -10.612468 2.568976 18.966234 0.000000 0.000000 0.000000 0.000000 0.000000 0.000000 0.000000 0.000000 0.000000 28.537225 3.669847 52.144257 -135.122218 -26.559317 -26.653835 0.000000 0.000000 -0.000000 -37.460567 -0.910699 48.867062 -62.334286 -8.767700 -35.533512 0.000000 0.000000 0.000000
0.000000 0.990052 0.000000 -0.000000 0.000000 -70.361537 -22.147781 -13.053276 67.796084 69.392000 -7.849236 13.464520 -48.457117 -0.403411 -70.543079 -14.243505 -41.007126 65.011388 58.016782 12.426857 -3.022522 -14.777579 -10.163679 -71.682955 -9.905743 0.960641 22.753939 0.000000 0.000000 0.000000 0.000000 0.000000 0.000000 0.000000 0.000000 0.000000 28.713337 6.048443 47.811744 -139.549948 -28.302712 -33.714075 0.000000 0.000000 0.000000 -39.851759 -0.742239 45.596228 -60.806263 -12.184161 -38.005440 0.000000 0.000000 0.000000
0.000000 0.975228 0.000000 -0.000000 0.000000 -70.024233 -21.828467 -9.278318 68.231346 70.788863 -6.785723 14.459362 -53.603814 -1.202426 -70.631689 -14.964148 -43.411093 64.038954 59.238374 12.643532 -3.351209 -13.522233 -9.718259 -71.179108 -9.499715 0.078043 25.419693 0.000000 0.000000 -0.000000 0.000000 0.000000 -0.000000 0.000000 0.000000 -0.000000 29.143579 8.048221 44.205552 -142.539441 -29.806214 -39.876316 0.000000 0.000000 0.000000 -41.288680 -0.852148 42.604263 -59.118406 -14.787224 -39.233020 0.000000 0.000000 0.000000
0.000000 0.968495 0.000000 -0.000000 0.000000 -69.433454 -21.361365 -5.797505 68.339127 70.846555 -5.601518 14.780104 -57.233960 -2.244455 -70.658143 -15.810921 -44.952861 62.857373 59.172604 12.518649 -3.438980 -11.798841 -9.073685 -70.372978 -9.269921 -0.582214 27.411745 0.000000 0.000000 -0.000000 0.000000 0.000000 -0.000000 0.000000 0.000000 -0.000000 29.840213 9.877023 41.089702 -144.800286 -31.077656 -45.054631 -0.000000 0.000000 -0.000000 -42.208990 -1.049853 39.982336 -57.490554 -16.920056 -39.909229 -0.000000 0.000000 -0.000000
0.000000 0.966606 0.000000 -0.000000 0.000000 -67.920442 -20.894370 -2.504471 67.458582 70.208857 -4.566132 14.752236 -59.707292 -3.261296 -69.792600 -17.610686 -45.773066 60.437841 57.599241 11.902615 -3.219796 -9.029181 -8.027504 -68.555309 -9.112292 -0.717292 28.349417 -0.000000 0.000000 -0.000000 -0.000000 0.000000 -0.000000 -0.000000 0.000000 -0.000000 30.529218 11.518260 38.238062 -146.701477 -32.566858 -50.321709 -0.000000 0.000000 0.000000 -42.926556 -1.331306 37.374406 -55.858364 -18.879984 -40.268928 -0.000000 0.000000 0.000000
0.000000 0.966039 0.000000 -0.000000 0.000000 -66.159022 -20.371674 0.613585 66.269268 69.103973 -3.388177 14.426027 -61.548575 -4.549136 -68.869004 -19.542715 -46.135993 57.769629 53.402976 10.743679 -2.657334 -4.050907 -6.353306 -66.383941 -8.951499 -0.445309 28.583454 0.000000 0.000000 0.000000 0.000000 0.000000 0.000000 0.000000 0.000000 0.000000 31.162865 12.813536 35.974130 -148.289656 -34.032359 -54.810196 0.000000 0.000000 0.000000 -43.494116 -1.825279 35.058673 -54.461488 -20.464386 -40.342890 -0.000000 0.000000 0.000000
0.000000 0.966331 0.000000 -0.000000 0.000000 -64.064963 -19.741635 3.290936 64.637749 67.631613 -2.544638 13.985413 -62.444314 -5.618427 -67.472301 -21.626691 -45.458297 54.915765 46.881122 8.437336 -1.822642 2.387468 -3.812096 -63.985499 -8.725539 -0.007402 28.676247 0.000000 0.000000 0.000000 0.000000 0.000000 0.000000 0.000000 0.000000 0.000000 31.919028 14.115249 33.506539 -150.273194 -36.281190 -60.668140 -0.000000 0.000000 0.000000 -44.223775 -2.285639 32.529311 -52.867536 -22.131494 -40.353847 0.000000 0.000000 -0.000000
0.000000 0.965857 0.000000 -0.000000 0.000000 -61.669822 -18.951389 5.894120 62.654433 65.932781 -2.159429 13.686976 -62.863252 -6.319077 -65.534246 -23.637556 -43.702961 52.076531 39.544293 5.352633 -1.138919 8.845581 -0.943142 -61.596872 -8.545583 0.499712 28.277651 -0.000000 0.000000 0.000000 -0.000000 0.000000 0.000000 -0.000000 0.000000 0.000000 32.349773 14.776461 31.397656 -151.844441 -38.325271 -65.869197 -0.000000 0.000000 -0.000000 -44.795010 -2.549925 30.284876 -51.454959 -23.513654 -40.268061 0.000000 0.000000 0.000000
0.000000 0.964189 0.000000 -0.000000 0.000000 -59.420573 -18.172788 7.805201 60.670747 64.621867 -1.909223 13.401314 -63.002906 -6.801749 -63.591986 -25.252770 -41.994963 49.592378 33.480176 2.757788 -0.884657 14.116422 1.407037 -59.594795 -8.368662 1.012078 27.794389 -0.000000 0.000000 0.000000 -0.000000 0.000000 0.000000 -0.000000 0.000000 0.000000 32.460920 14.941115 29.659381 -152.822783 -39.983740 -69.931760 -0.000000 0.000000 -0.000000 -45.328883 -2.666364 28.339630 -50.143900 -24.548319 -40.021516 0.000000 0.000000 -0.000000
