HIERARCHY
ROOT Hips
{
  OFFSET 0 0 0
  CHANNELS 6 Xposition Yposition Zposition Zrotation Xrotation Yrotation
  JOINT RightUpLeg
  {
    OFFSET -0.105 0 0
    CHANNELS 3 Zrotation Xrotation Yrotation
    JOINT RightLeg
    {
      OFFSET 0 -0.43 0
      CHANNELS 3 Zrotation Xrotation Yrotation
      JOINT RightFoot
      {
        OFFSET 0 -0.43 0
        CHANNELS 3 Zrotation Xrotation Yrotation
        End Site
        {
          OFFSET 0 -0.07 0.18
        }
      }
    }
  }
  JOINT LeftUpLeg
  {
    OFFSET 0.105 0 0
    CHANNELS 3 Zrotation Xrotation Yrotation
    JOINT LeftLeg
    {
      OFFSET 0 -0.43 0
      CHANNELS 3 Zrotation Xrotation Yrotation
      JOINT LeftFoot
      {
        OFFSET 0 -0.43 0
        CHANNELS 3 Zrotation Xrotation Yrotation
        End Site
        {
          OFFSET 0 -0.07 0.18
        }
      }
    }
  }
  JOINT Spine
  {
    OFFSET 0 0.19 0
    CHANNELS 3 Zrotation Xrotation Yrotation
    JOINT Chest
    {
      OFFSET 0 0.18 0
      CHANNELS 3 Zrotation Xrotation Yrotation
      JOINT Neck
      {
        OFFSET 0 0.17 0
        CHANNELS 3 Zrotation Xrotation Yrotation
        JOINT Head
        {
          OFFSET 0 0.15 0
          CHANNELS 3 Zrotation Xrotation Yrotation
          End Site
          {
            OFFSET 0 0.12 0
          }
        }
      }
      JOINT LeftArm
      {
        OFFSET 0.19 0.17 0.04
        CHANNELS 3 Zrotation Xrotation Yrotation
        JOINT LeftForeArm
        {
          OFFSET 0 -0.34 0
          CHANNELS 3 Zrotation Xrotation Yrotation
          JOINT LeftHand
          {
            OFFSET 0 -0.38 0
            CHANNELS 3 Zrotation Xrotation Yrotation
            End Site
            {
              OFFSET 0 -0.08 0
            }
          }
        }
      }
      JOINT RightArm
      {
        OFFSET -0.19 0.17 0.04
        CHANNELS 3 Zrotation Xrotation Yrotation
        JOINT RightForeArm
        {
          OFFSET 0 -0.34 0
          CHANNELS 3 Zrotation Xrotation Yrotation
          JOINT RightHand
          {
            OFFSET 0 -0.38 0
            CHANNELS 3 Zrotation Xrotation Yrotation
            End Site
            {
              OFFSET 0 -0.08 0
            }
          }
        }
      }
    }
  }
}
MOTION
Frames: 81
Frame Time: 0.04000000
0.000000 0.796145 0.000000 -0.000000 0.000000 -13.039269 -23.970096 -27.592179 7.071408 23.280094 49.466676 -2.112469 7.437678 -27.242119 -11.234625 16.613557 24.174561 9.457516 -4.508636 21.339679 -4.068093 -17.895045 -41.441215 -19.856116 -9.720102 18.040013 13.102144 -0.000000 0.000000 0.000000 -0.000000 0.000000 0.000000 -0.000000 0.000000 0.000000 33.723789 -1.845683 7.849522 -66.667078 -51.895033 -25.632009 -0.000000 0.000000 -0.000000 -28.659599 1.486005 -3.200981 -0.528778 -23.103509 -7.248093 0.000000 0.000000 -0.000000
0.000000 0.809090 0.000000 -0.000000 0.000000 -12.374785 -21.536478 -23.552831 7.833588 24.516748 47.191797 -3.521194 3.425269 -28.472819 -11.505500 15.445445 25.425982 8.870161 -3.460592 19.416218 -3.616498 -18.010685 -41.171593 -19.187682 -9.133574 16.834762 12.400529 0.000000 0.000000 -0.000000 0.000000 0.000000 -0.000000 0.000000 0.000000 -0.000000 33.365452 -4.662325 7.889754 -83.000607 -54.371877 -35.742001 -0.000000 0.000000 -0.000000 -29.192602 1.602690 -3.047086 0.335822 -21.916137 -6.655567 -0.000000 0.000000 0.000000
0.000000 0.821670 0.000000 -0.000000 0.000000 -11.771121 -18.867016 -18.966970 8.591481 24.980624 44.050791 -4.325864 -0.626784 -29.317653 -11.935075 14.094559 26.225675 8.472139 -4.759030 17.834051 -3.246790 -14.872399 -40.897776 -17.343518 -8.695907 15.478674 11.393088 0.000000 0.000000 -0.000000 0.000000 0.000000 -0.000000 0.000000 0.000000 -0.000000 33.097435 -7.254520 8.225890 -99.625621 -54.462519 -45.562319 -0.000000 0.000000 0.000000 -29.575492 1.847081 -2.387631 1.002781 -21.050493 -6.242669 0.000000 0.000000 -0.000000
0.000000 0.834825 0.000000 -0.000000 0.000000 -11.164456 -15.699954 -14.541452 9.148978 23.664643 40.954277 -4.318136 -3.756183 -29.853503 -12.166111 11.796393 26.434219 8.384638 -7.353812 16.321374 -2.908413 -8.951644 -40.229431 -14.448686 -8.296713 14.148377 9.961205 -0.000000 0.000000 -0.000000 -0.000000 0.000000 -0.000000 -0.000000 0.000000 -0.000000 32.548956 -10.091113 8.975107 -114.575320 -53.279590 -53.710440 0.000000 0.000000 -0.000000 -29.837064 2.160368 -1.234809 1.001710 -20.822860 -6.232087 -0.000000 0.000000 -0.000000
0.000000 0.851493 0.000000 -0.000000 0.000000 -10.363522 -12.117004 -10.090789 9.289773 21.190926 37.430652 -3.913270 -6.306948 -29.829356 -12.044978 9.085709 25.954039 8.265594 -11.121124 15.641811 -2.730831 -0.943265 -39.609350 -10.703211 -8.097416 12.933483 8.242318 -0.000000 0.000000 0.000000 -0.000000 0.000000 0.000000 -0.000000 0.000000 0.000000 31.965779 -13.635368 9.995248 -125.012420 -51.268542 -57.293295 -0.000000 0.000000 -0.000000 -29.827816 2.447059 0.055854 0.541858 -20.669133 -6.377208 -0.000000 0.000000 0.000000
0.000000 0.870036 0.000000 -0.000000 0.000000 -9.638153 -8.376040 -5.980192 9.199857 18.531066 33.638529 -3.502783 -8.644872 -29.250066 -11.898004 6.012950 24.869274 8.311150 -17.193126 16.601825 -2.590675 10.372221 -39.538256 -5.901347 -8.113948 11.879847 6.595955 -0.000000 0.000000 0.000000 -0.000000 0.000000 0.000000 -0.000000 0.000000 0.000000 31.463187 -17.552862 11.150653 -130.062665 -49.626073 -56.047528 -0.000000 0.000000 -0.000000 -29.662179 2.679135 1.340059 -0.228622 -20.552611 -6.626477 0.000000 0.000000 0.000000
0.000000 0.887130 0.000000 -0.000000 0.000000 -9.351252 -4.995092 -2.676212 9.234500 16.429135 30.135579 -3.237366 -10.826414 -28.354871 -12.093863 2.302235 23.306498 8.876380 -21.651813 18.765264 -1.807424 20.256943 -39.959040 -1.919279 -8.315617 11.091761 5.461236 -0.000000 0.000000 0.000000 -0.000000 0.000000 0.000000 -0.000000 0.000000 0.000000 30.622422 -22.034552 12.319758 -131.141835 -47.943137 -50.576351 -0.000000 0.000000 0.000000 -29.557669 2.836924 2.468042 -1.381549 -20.482183 -7.034039 -0.000000 0.000000 0.000000
0.000000 0.901639 0.000000 -0.000000 0.000000 -9.479978 -2.027801 -0.015784 9.479698 14.849842 26.985590 -3.055498 -12.886248 -27.294706 -12.621234 -1.757109 21.033074 9.806188 -25.607316 22.135051 -0.100448 29.834945 -40.817002 1.841414 -8.692992 10.446726 4.799561 0.000000 0.000000 -0.000000 0.000000 0.000000 -0.000000 0.000000 0.000000 -0.000000 29.216630 -26.977244 13.311594 -129.666133 -46.672385 -43.083782 0.000000 0.000000 -0.000000 -29.201568 3.085453 3.558715 -3.497717 -20.530957 -7.779069 0.000000 0.000000 -0.000000
0.000000 0.910620 0.000000 -0.000000 0.000000 -9.801474 -0.139939 1.806776 9.803680 14.624281 24.522282 -3.011129 -15.013096 -26.266506 -13.323388 -5.546916 18.176255 10.689443 -28.236539 26.010283 2.487418 37.386453 -41.923193 4.969538 -9.099727 9.873842 4.347660 0.000000 0.000000 0.000000 0.000000 0.000000 0.000000 0.000000 0.000000 0.000000 27.237314 -31.879290 13.960327 -126.227621 -45.667581 -34.626254 0.000000 0.000000 0.000000 -28.920710 3.419608 4.631392 -6.532570 -20.684373 -8.922875 0.000000 0.000000 -0.000000
0.000000 0.912751 0.000000 -0.000000 0.000000 -10.265311 0.380508 2.812782 10.255969 15.837050 22.842014 -3.038115 -17.055176 -25.431594 -14.140995 -9.430322 15.316724 11.536181 -28.931962 28.667756 5.077870 42.317720 -42.357805 6.791998 -9.510083 9.292089 4.075427 -0.000000 0.000000 -0.000000 -0.000000 0.000000 -0.000000 -0.000000 0.000000 -0.000000 24.369961 -37.201518 14.094729 -122.244954 -45.318482 -26.893480 -0.000000 0.000000 -0.000000 -28.801508 3.696391 5.627592 -10.385189 -20.818996 -10.434105 -0.000000 0.000000 0.000000
0.000000 0.906978 0.000000 -0.000000 0.000000 -10.703668 -0.275119 3.215871 10.711391 17.990493 22.082344 -3.112654 -18.760291 -25.129693 -14.920863 -13.226902 12.982209 12.215235 -26.455199 29.491059 6.577434 43.176355 -42.064169 6.598198 -9.887111 8.626870 3.962548 0.000000 0.000000 0.000000 0.000000 0.000000 0.000000 0.000000 0.000000 0.000000 21.346014 -42.723214 13.721752 -118.372477 -45.433564 -19.264165 -0.000000 0.000000 0.000000 -28.910167 3.961593 6.424865 -14.907831 -21.094947 -12.369544 -0.000000 0.000000 -0.000000
0.000000 0.895196 0.000000 -0.000000 0.000000 -11.135596 -1.767769 3.121686 11.183769 20.931528 22.265509 -3.326444 -20.332123 -25.451732 -15.773549 -16.316252 11.513130 12.791536 -22.482049 29.224605 6.970598 41.598540 -41.568032 5.272032 -10.172769 7.900474 4.136714 -0.000000 0.000000 0.000000 -0.000000 0.000000 0.000000 -0.000000 0.000000 0.000000 18.769720 -49.008739 13.088774 -113.334795 -46.005582 -9.705005 -0.000000 0.000000 0.000000 -29.584969 4.037226 6.825443 -19.859374 -21.496739 -14.722575 0.000000 0.000000 -0.000000
0.000000 0.879635 0.000000 -0.000000 0.000000 -11.463977 -4.160225 2.449457 11.552956 24.702314 23.196398 -3.700402 -21.698504 -26.163996 -16.563961 -18.560405 10.795754 13.233116 -18.109692 28.482035 6.724741 38.763572 -41.139382 3.577410 -10.388888 7.164504 4.636173 0.000000 0.000000 -0.000000 0.000000 0.000000 -0.000000 0.000000 0.000000 -0.000000 17.825704 -56.195618 12.789179 -107.128727 -47.654873 1.016636 -0.000000 0.000000 -0.000000 -31.168320 3.794064 6.628906 -24.962791 -22.020478 -17.503615 -0.000000 0.000000 0.000000
0.000000 0.858171 0.000000 -0.000000 0.000000 -11.743096 -7.477088 0.875074 11.800277 28.263459 25.329030 -4.227112 -21.619315 -27.486512 -17.090369 -20.362034 10.858026 13.698717 -13.304450 27.197306 6.037232 34.971572 -40.808017 1.624036 -10.548698 6.463521 5.388340 0.000000 0.000000 0.000000 0.000000 0.000000 0.000000 0.000000 0.000000 0.000000 19.842932 -64.072724 14.142451 -99.492032 -49.604988 13.701547 -0.000000 0.000000 -0.000000 -33.669597 2.989131 5.851877 -29.356457 -22.515918 -20.246959 -0.000000 0.000000 0.000000
0.000000 0.836732 0.000000 -0.000000 0.000000 -12.020191 -11.296354 -1.157388 11.905721 31.493633 27.554424 -4.681356 -20.486771 -28.642855 -17.303063 -21.154404 11.491686 14.173038 -9.484636 26.501536 5.444513 31.275532 -41.309279 0.026720 -10.639073 5.789651 6.287077 -0.000000 0.000000 0.000000 -0.000000 0.000000 0.000000 -0.000000 0.000000 0.000000 29.311827 -73.077777 21.725352 -90.006178 -51.406309 29.925186 0.000000 0.000000 0.000000 -36.992858 1.920460 4.734543 -33.213765 -23.185849 -23.207546 -0.000000 0.000000 -0.000000
0.000000 0.815551 0.000000 -0.000000 0.000000 -12.283148 -15.591582 -3.622310 11.787062 35.134313 29.796862 -5.215938 -19.069829 -29.556517 -17.357515 -21.417877 12.743419 14.702726 -5.743159 25.680374 4.754740 26.949189 -42.155744 -1.730385 -10.612197 5.169443 7.279593 0.000000 0.000000 -0.000000 0.000000 0.000000 -0.000000 0.000000 0.000000 -0.000000 68.379598 -81.402258 58.149088 -78.389010 -53.049337 49.329214 -0.000000 0.000000 -0.000000 -41.190779 0.869726 3.398244 -36.467728 -24.072561 -26.573292 -0.000000 0.000000 0.000000
0.000000 0.787214 0.000000 -0.000000 0.000000 -12.632541 -20.723915 -6.869963 11.374924 38.997377 32.397597 -5.822882 -16.672652 -30.339349 -17.182703 -21.370873 14.502293 15.383135 -1.295397 24.619399 4.024157 21.111479 -43.247154 -4.183224 -10.351864 4.733510 8.377159 0.000000 0.000000 -0.000000 0.000000 0.000000 -0.000000 0.000000 0.000000 -0.000000 139.582097 -76.448287 125.132518 -66.056873 -54.037629 73.405148 0.000000 0.000000 -0.000000 -46.354252 -0.172083 1.857555 -39.094705 -25.074344 -30.412398 -0.000000 0.000000 0.000000
0.000000 0.766722 0.000000 -0.000000 0.000000 -12.909531 -25.927850 -10.082358 10.582832 42.547010 33.953355 -6.202595 -13.898800 -30.080045 -16.661191 -20.695194 16.175479 15.882104 2.251056 23.203522 3.395305 15.425122 -43.610499 -6.706802 -9.789654 4.597593 9.456341 0.000000 0.000000 -0.000000 0.000000 0.000000 -0.000000 0.000000 0.000000 -0.000000 151.751661 -64.679345 130.560806 -55.700342 -56.818633 97.338791 -0.000000 0.000000 -0.000000 -51.987082 -0.962946 0.182127 -40.577658 -25.962411 -34.103880 0.000000 0.000000 -0.000000
0.000000 0.758360 0.000000 -0.000000 0.000000 -13.187515 -31.031249 -12.843895 9.607974 44.272675 33.781728 -5.715328 -9.810701 -28.356257 -15.671704 -19.252734 18.037385 16.271624 4.829510 21.331797 2.796411 9.892228 -43.387371 -9.243935 -8.924479 4.699507 10.329550 -0.000000 0.000000 -0.000000 -0.000000 0.000000 -0.000000 -0.000000 0.000000 -0.000000 147.716696 -53.495082 115.614622 -43.074318 -64.919972 123.574159 0.000000 0.000000 0.000000 -57.672932 -1.855127 -1.516346 -40.824086 -26.765768 -37.179676 -0.000000 0.000000 -0.000000
0.000000 0.761386 0.000000 -0.000000 0.000000 -13.489693 -35.751093 -14.972802 8.635900 44.712263 31.892983 -4.693396 -5.332348 -25.313485 -14.687981 -17.264359 20.117201 16.574712 6.916304 18.938074 2.291926 4.235409 -42.602275 -11.837641 -7.812200 4.977880 10.859939 -0.000000 0.000000 -0.000000 -0.000000 0.000000 -0.000000 -0.000000 0.000000 -0.000000 139.575166 -43.645239 94.493484 -9.849679 -74.570404 167.649636 0.000000 0.000000 -0.000000 -62.904307 -2.939510 -3.088225 -39.983323 -27.288430 -39.038076 0.000000 0.000000 -0.000000
0.000000 0.768925 0.000000 -0.000000 0.000000 -13.543378 -40.044576 -16.166576 7.617990 43.876745 28.082437 -3.320503 -0.547585 -20.900906 -13.644378 -14.601763 21.995853 16.395995 9.263777 16.818212 1.975618 -2.265995 -41.532619 -14.402720 -6.467741 5.516482 11.012185 0.000000 0.000000 -0.000000 0.000000 0.000000 -0.000000 0.000000 0.000000 -0.000000 130.238375 -34.718587 72.947375 52.760266 -72.283856 -122.202650 -0.000000 0.000000 -0.000000 -67.878017 -4.133395 -4.813084 -38.409861 -27.445417 -39.697711 -0.000000 0.000000 0.000000
0.000000 0.778737 0.000000 -0.000000 0.000000 -13.016782 -43.410842 -16.440548 6.434465 41.476425 23.859783 -2.001610 4.621610 -16.340300 -12.352903 -10.960931 23.078521 15.261194 12.001118 16.214297 1.700969 -9.639374 -40.733034 -16.602516 -5.135293 6.293306 11.017327 0.000000 0.000000 0.000000 0.000000 0.000000 0.000000 0.000000 0.000000 0.000000 122.115357 -26.850186 55.296436 75.193669 -58.330266 -98.326745 -0.000000 0.000000 0.000000 -72.636036 -4.913860 -6.941883 -36.189020 -27.348471 -39.469072 -0.000000 0.000000 0.000000
0.000000 0.786692 0.000000 -0.000000 0.000000 -12.187653 -44.899233 -15.980077 5.549245 37.170982 21.074626 -0.780639 9.861243 -13.425614 -11.024155 -6.266239 23.611261 13.498631 13.402191 16.651057 1.086299 -16.015710 -40.255144 -18.090604 -4.182965 6.960182 10.896324 -0.000000 0.000000 0.000000 -0.000000 0.000000 0.000000 -0.000000 0.000000 0.000000 115.651345 -19.989359 41.468511 79.030181 -43.421217 -100.851473 0.000000 0.000000 0.000000 -76.539477 -5.397462 -9.006926 -34.248500 -27.129661 -39.048666 0.000000 0.000000 -0.000000
0.000000 0.789880 0.000000 -0.000000 0.000000 -11.670694 -45.780830 -15.552961 5.070618 32.292309 18.777099 0.310072 15.212907 -11.153470 -10.176588 -1.524920 23.783704 11.991837 14.761488 17.390900 0.312531 -22.366910 -39.791656 -19.856002 -3.314062 7.597585 11.103956 0.000000 0.000000 0.000000 0.000000 0.000000 0.000000 0.000000 0.000000 0.000000 110.572184 -14.319433 31.301568 76.356035 -30.146342 -131.193900 -0.000000 0.000000 0.000000 -80.667022 -6.007185 -11.363431 -31.605469 -26.764556 -38.037074 -0.000000 0.000000 0.000000
0.000000 0.790170 0.000000 -0.000000 0.000000 -11.502270 -46.024330 -15.262763 4.988204 27.032486 16.968068 1.272855 20.456333 -9.480561 -9.787850 3.022085 23.489425 10.873827 16.056318 18.491947 -0.681058 -28.381815 -39.323946 -21.827729 -2.474014 8.271635 11.571872 -0.000000 0.000000 0.000000 -0.000000 0.000000 0.000000 -0.000000 0.000000 0.000000 105.483168 -9.512714 23.228587 69.973686 -17.566536 97.066255 -0.000000 0.000000 -0.000000 -84.842102 -6.662072 -13.856632 -28.546557 -26.308437 -36.697106 -0.000000 0.000000 0.000000
0.000000 0.786330 0.000000 -0.000000 0.000000 -11.710230 -45.835150 -15.160459 5.269851 21.649193 15.492908 2.121664 25.519677 -8.252106 -9.838409 7.120795 22.809238 10.272053 17.664700 20.082931 -1.952493 -34.305857 -39.008800 -24.188506 -1.641230 8.981553 12.234083 0.000000 0.000000 0.000000 0.000000 0.000000 0.000000 0.000000 0.000000 0.000000 101.005643 -5.308500 17.011341 60.297977 -6.344659 6.343222 0.000000 0.000000 -0.000000 -88.925821 -7.352705 -16.349581 -25.520187 -25.646064 -35.111006 0.000000 0.000000 -0.000000
0.000000 0.778457 0.000000 -0.000000 0.000000 -12.457018 -45.598414 -15.431529 5.937996 16.971678 14.338502 2.790837 29.980243 -7.411710 -10.469853 10.403477 21.972115 10.432058 19.938021 22.000086 -3.486177 -40.259956 -38.831562 -27.179906 -0.856929 9.697397 13.139593 -0.000000 0.000000 -0.000000 -0.000000 0.000000 -0.000000 -0.000000 0.000000 -0.000000 97.141041 -1.631403 12.311122 49.186843 1.477767 -10.200091 0.000000 0.000000 -0.000000 -93.269851 -8.213996 -18.948572 -22.070699 -24.824979 -33.345282 0.000000 0.000000 -0.000000
0.000000 0.768289 0.000000 -0.000000 0.000000 -13.713557 -45.122981 -15.902455 7.071247 12.722485 13.357926 3.333450 33.899174 -6.922112 -11.601582 12.885617 21.426416 11.265762 22.575024 23.450820 -4.989802 -45.885482 -38.399407 -30.484130 -0.131606 10.476213 14.275520 0.000000 0.000000 0.000000 0.000000 0.000000 0.000000 0.000000 0.000000 0.000000 93.035232 2.158848 8.091078 36.060056 5.753455 -10.712904 -0.000000 0.000000 0.000000 -97.743690 -9.122546 -21.603860 -18.689201 -23.940229 -31.788239 0.000000 0.000000 0.000000
0.000000 0.752400 0.000000 -0.000000 0.000000 -15.865112 -44.707874 -16.931075 8.860172 9.524940 12.642751 3.729953 37.031014 -6.801263 -13.585016 14.623242 21.378832 13.090280 25.701166 24.595321 -6.502790 -51.594336 -37.845371 -34.682435 0.387199 11.199999 15.949620 0.000000 0.000000 0.000000 0.000000 0.000000 0.000000 0.000000 0.000000 0.000000 88.062560 6.390623 3.979215 27.359652 5.141628 -4.488292 -0.000000 0.000000 0.000000 -102.493928 -10.230852 -24.412488 -14.940425 -22.890513 -30.233722 0.000000 0.000000 -0.000000
0.000000 0.734209 0.000000 -0.000000 0.000000 -18.361708 -44.633951 -18.550351 10.691489 8.627013 12.939577 4.066219 38.350701 -7.361904 -15.798472 15.713317 21.382381 15.377089 29.466779 25.406679 -8.017098 -57.199097 -36.905051 -38.982882 0.665195 11.911695 17.791011 -0.000000 0.000000 -0.000000 -0.000000 0.000000 -0.000000 -0.000000 0.000000 -0.000000 83.146044 10.520046 0.669807 22.357858 2.571146 1.454854 -0.000000 0.000000 -0.000000 -107.031598 -11.257319 -27.204824 -11.335323 -21.900423 -29.085785 0.000000 0.000000 0.000000
0.000000 0.712392 0.000000 -0.000000 0.000000 -21.623845 -46.391944 -22.142144 12.038097 13.000408 15.156517 4.268406 36.610266 -8.757104 -18.721807 16.193184 21.811167 18.483744 33.400891 25.405137 -9.166441 -62.444365 -35.348247 -43.487501 0.629340 12.634608 20.081987 0.000000 0.000000 0.000000 0.000000 0.000000 0.000000 0.000000 0.000000 0.000000 79.144933 14.628302 -1.813081 18.342568 -0.025736 5.249945 0.000000 0.000000 0.000000 -111.593881 -12.355269 -30.191055 -7.955937 -20.985561 -28.425656 -0.000000 0.000000 0.000000
0.000000 0.702742 0.000000 -0.000000 0.000000 -24.851697 -49.338349 -27.351130 12.098204 20.581252 19.074795 4.111678 33.171594 -10.494303 -21.718055 15.639460 21.436321 21.873608 37.328139 25.271960 -10.164523 -65.995810 -33.579453 -47.022208 0.527375 13.727727 22.199631 -0.000000 0.000000 -0.000000 -0.000000 0.000000 -0.000000 -0.000000 0.000000 -0.000000 74.888220 18.170576 -3.040652 15.628206 -1.949564 7.238766 0.000000 0.000000 -0.000000 -114.546547 -13.259198 -32.601670 -7.415236 -21.170075 -29.331017 0.000000 0.000000 0.000000
0.000000 0.700742 0.000000 -0.000000 0.000000 -27.818394 -52.716221 -33.017323 11.109674 29.742254 23.464044 3.039458 28.779711 -12.190559 -24.679623 14.164168 19.788392 25.335558 42.398543 25.757954 -11.749285 -68.980189 -32.129088 -50.200108 0.429136 15.102635 23.910095 0.000000 0.000000 -0.000000 0.000000 0.000000 -0.000000 0.000000 0.000000 -0.000000 70.294189 21.048815 -3.130721 13.581225 -3.328019 8.130521 -0.000000 0.000000 0.000000 -116.002542 -14.212000 -34.413650 -8.704038 -22.087128 -30.944692 -0.000000 0.000000 0.000000
0.000000 0.698851 0.000000 -0.000000 0.000000 -29.837728 -55.924839 -37.558157 9.373615 38.797949 26.866947 1.010293 24.141157 -13.320713 -26.976862 12.329539 17.248511 27.960639 48.021369 26.442452 -13.615437 -71.388814 -31.036509 -52.400662 0.460254 16.496395 24.605121 0.000000 0.000000 0.000000 0.000000 0.000000 0.000000 0.000000 0.000000 0.000000 65.159494 23.255540 -2.388964 11.547934 -5.013338 8.808774 -0.000000 0.000000 -0.000000 -115.901912 -15.365085 -35.465132 -10.902371 -23.378002 -32.598579 -0.000000 0.000000 -0.000000
0.000000 0.696296 0.000000 -0.000000 0.000000 -31.322591 -59.108267 -41.364708 7.157838 47.663832 29.427834 -1.710187 19.537705 -14.030812 -28.895122 9.682532 13.280657 30.192723 55.756966 27.619588 -16.466038 -74.064990 -30.352550 -54.453513 0.611288 18.000043 24.761396 0.000000 0.000000 0.000000 0.000000 0.000000 0.000000 0.000000 0.000000 0.000000 58.817478 24.749208 -0.871403 10.081584 -6.844661 9.385474 -0.000000 0.000000 0.000000 -114.462903 -16.598149 -35.692565 -14.277003 -25.269193 -34.921863 0.000000 0.000000 0.000000
0.000000 0.690319 0.000000 -0.000000 0.000000 -32.310458 -61.605424 -44.357084 4.990085 54.381511 31.301293 -4.277595 16.188788 -14.367660 -30.256516 6.457009 8.163558 31.849192 64.955405 28.818536 -20.096389 -76.603953 -29.965268 -56.180551 0.896460 19.608193 24.598233 0.000000 0.000000 0.000000 0.000000 0.000000 0.000000 0.000000 0.000000 0.000000 51.507104 25.396105 1.089810 8.645261 -9.283669 9.982884 -0.000000 0.000000 -0.000000 -111.847237 -17.841490 -35.211256 -18.248397 -27.420281 -37.344308 -0.000000 0.000000 -0.000000
0.000000 0.683956 0.000000 -0.000000 0.000000 -33.115413 -63.548454 -46.792074 3.111152 59.637260 32.662640 -6.598101 13.625416 -14.545590 -31.368426 3.125213 2.306811 33.052476 74.863076 29.704233 -24.394262 -78.866159 -29.755722 -57.763760 1.256949 21.254539 24.473084 -0.000000 0.000000 -0.000000 -0.000000 0.000000 -0.000000 -0.000000 0.000000 -0.000000 44.276491 25.169162 3.104632 7.226391 -11.906472 10.313556 -0.000000 0.000000 0.000000 -108.886353 -18.836930 -34.290168 -22.308852 -29.572386 -39.845226 0.000000 0.000000 -0.000000
0.000000 0.675805 0.000000 -0.000000 0.000000 -33.927028 -65.187956 -49.019278 1.423002 64.640747 33.734163 -9.015248 11.054718 -14.727210 -32.494037 0.083934 -3.393404 33.929514 83.792882 30.352992 -28.724530 -80.320710 -29.957319 -59.372872 1.549641 22.916435 24.563577 0.000000 0.000000 0.000000 0.000000 0.000000 0.000000 0.000000 0.000000 0.000000 37.712167 24.363048 4.888096 4.913742 -15.100276 10.220460 0.000000 0.000000 -0.000000 -105.068562 -19.521095 -32.637144 -25.338026 -31.583585 -41.410415 0.000000 0.000000 -0.000000
0.000000 0.665570 0.000000 -0.000000 0.000000 -34.797411 -66.855412 -51.046807 -0.189110 69.619539 34.389999 -11.454885 8.456652 -14.896819 -33.689841 -2.582063 -8.758006 34.599651 91.793282 30.967966 -33.101018 -81.272633 -30.621093 -61.240842 1.758056 24.489823 24.870841 0.000000 0.000000 0.000000 0.000000 0.000000 0.000000 0.000000 0.000000 0.000000 32.241882 23.141142 6.356383 1.367584 -18.339616 9.268910 -0.000000 0.000000 -0.000000 -100.992202 -19.938981 -30.657204 -26.771540 -33.212629 -41.533294 -0.000000 0.000000 0.000000
0.000000 0.655273 0.000000 -0.000000 0.000000 -35.628554 -68.196314 -52.767556 -1.498516 73.632012 34.788104 -13.497253 6.376224 -15.033698 -34.786346 -4.539970 -13.156381 35.104742 97.912229 31.393804 -36.749727 -81.650660 -31.362851 -62.895377 1.824743 25.990783 25.259592 -0.000000 0.000000 0.000000 -0.000000 0.000000 0.000000 -0.000000 0.000000 0.000000 27.901104 21.624441 7.604713 -2.817959 -21.171586 7.670589 0.000000 0.000000 -0.000000 -96.491843 -19.915536 -28.239415 -26.524440 -34.737164 -40.561771 0.000000 0.000000 0.000000
0.000000 0.644344 0.000000 -0.000000 0.000000 -36.485623 -69.195971 -54.289469 -2.468629 76.707882 35.029675 -15.106623 4.811848 -15.138719 -35.845835 -6.199082 -17.140719 35.550488 103.256158 31.874304 -40.200742 -81.756307 -32.322332 -64.647865 1.671996 27.300975 25.570855 0.000000 0.000000 0.000000 0.000000 0.000000 0.000000 0.000000 0.000000 0.000000 24.571333 20.064109 8.883247 -8.205313 -23.783716 5.320506 -0.000000 0.000000 0.000000 -91.020015 -19.784920 -25.200869 -25.386617 -36.077713 -38.535823 -0.000000 0.000000 -0.000000
0.000000 0.633270 0.000000 -0.000000 0.000000 -37.481584 -69.856327 -55.762193 -3.072665 78.605244 35.160574 -16.139258 4.001521 -15.108103 -36.950721 -7.559872 -20.664237 36.101408 107.835244 32.208027 -43.141745 -81.711843 -33.212037 -66.407859 1.305885 28.445273 25.781178 0.000000 0.000000 -0.000000 0.000000 0.000000 -0.000000 0.000000 0.000000 -0.000000 22.085050 18.479736 10.400275 -14.474239 -26.202979 2.484898 -0.000000 0.000000 0.000000 -84.839647 -19.561398 -21.625643 -24.393065 -37.288534 -36.284524 -0.000000 0.000000 0.000000
0.000000 0.623283 0.000000 -0.000000 0.000000 -38.479665 -70.374815 -57.033236 -3.443934 79.555490 35.152263 -16.623079 3.806624 -14.953835 -37.979893 -8.700332 -23.682571 36.652169 111.508897 32.427554 -45.397292 -81.425986 -33.951545 -67.916928 0.800011 29.308646 25.640456 -0.000000 0.000000 -0.000000 -0.000000 0.000000 -0.000000 -0.000000 0.000000 -0.000000 20.233714 17.053628 12.236762 -20.816430 -28.031806 -0.487869 -0.000000 0.000000 -0.000000 -77.331538 -18.875880 -16.909772 -24.994156 -38.889665 -34.996707 -0.000000 0.000000 0.000000
0.000000 0.617740 0.000000 -0.000000 0.000000 -39.442336 -70.578045 -58.089010 -3.470519 79.828427 35.076277 -16.723106 3.937849 -14.774577 -38.931589 -9.799085 -26.286187 37.148959 113.867243 32.723312 -46.688205 -80.297865 -34.527881 -68.821507 0.108825 29.902736 25.144634 -0.000000 0.000000 -0.000000 -0.000000 0.000000 -0.000000 -0.000000 0.000000 -0.000000 18.900445 15.612346 14.469796 -27.220342 -29.540812 -3.464461 0.000000 0.000000 -0.000000 -68.277475 -17.507732 -11.052372 -26.610166 -40.637894 -33.918505 0.000000 0.000000 -0.000000
0.000000 0.618833 0.000000 -0.000000 0.000000 -40.312266 -70.335908 -58.746934 -2.952658 79.286879 34.817911 -16.301243 4.389597 -14.563430 -39.751099 -10.986260 -28.571563 37.506764 114.743928 32.997146 -46.743426 -78.072716 -34.718440 -68.758336 -0.690154 30.290429 24.077830 -0.000000 0.000000 -0.000000 -0.000000 0.000000 -0.000000 -0.000000 0.000000 -0.000000 17.859120 14.039498 17.265911 -33.674649 -30.428742 -6.425746 -0.000000 0.000000 0.000000 -58.827683 -15.935423 -4.816302 -29.715428 -41.665323 -33.092592 0.000000 0.000000 -0.000000
0.000000 0.628809 0.000000 -0.000000 0.000000 -41.083225 -69.668723 -58.970687 -1.875136 77.622850 34.305167 -15.206430 5.416051 -14.220336 -40.407148 -12.596694 -31.055352 37.570233 114.400932 33.196183 -45.634304 -74.364464 -34.429275 -67.534895 -1.385653 30.792044 22.273700 0.000000 0.000000 0.000000 0.000000 0.000000 0.000000 0.000000 0.000000 0.000000 16.805634 12.080923 20.740308 -40.296816 -30.421485 -9.317785 -0.000000 0.000000 0.000000 -49.468802 -13.950196 1.757862 -33.915018 -41.916426 -32.549335 -0.000000 0.000000 0.000000
0.000000 0.647849 0.000000 -0.000000 0.000000 -41.571227 -68.814859 -58.653450 -0.519310 74.998325 33.564034 -13.585256 6.992675 -13.768681 -40.725925 -14.315178 -33.227997 37.279527 112.646423 33.416684 -43.646601 -69.660901 -33.752337 -65.409962 -1.960990 31.344382 19.992549 -0.000000 0.000000 0.000000 -0.000000 0.000000 0.000000 -0.000000 0.000000 0.000000 15.974561 9.773965 24.401208 -46.749589 -29.656335 -11.855519 0.000000 0.000000 -0.000000 -41.036967 -11.175874 8.096784 -38.114072 -41.245245 -31.996206 -0.000000 0.000000 -0.000000
0.000000 0.676986 0.000000 -0.000000 0.000000 -41.755769 -67.167454 -57.684104 1.584277 71.140978 32.688586 -11.447883 9.072618 -13.380067 -40.689383 -16.171984 -34.941206 36.635231 109.177251 33.465440 -40.530647 -63.938818 -32.448636 -62.342702 -2.511148 31.815987 17.227671 0.000000 0.000000 -0.000000 0.000000 0.000000 -0.000000 0.000000 0.000000 -0.000000 15.443972 7.174289 28.239861 -53.153184 -28.422513 -14.017644 -0.000000 0.000000 0.000000 -33.701329 -8.079780 14.071365 -40.637828 -38.933004 -30.124309 0.000000 0.000000 -0.000000
0.000000 0.712631 0.000000 -0.000000 0.000000 -41.868691 -64.485049 -56.175036 4.659799 66.104886 31.492427 -8.917673 11.495102 -13.017326 -40.552870 -17.726468 -35.922091 36.080980 104.174965 33.039906 -36.474584 -57.946883 -30.426326 -58.994595 -3.293641 31.888165 14.067243 -0.000000 0.000000 0.000000 -0.000000 0.000000 0.000000 -0.000000 0.000000 0.000000 15.251729 4.572362 32.373715 -59.312044 -26.781156 -15.706461 0.000000 0.000000 -0.000000 -27.651422 -5.306262 19.844328 -40.491582 -35.263075 -26.753979 -0.000000 0.000000 -0.000000
0.000000 0.758264 0.000000 -0.000000 0.000000 -42.156886 -61.639452 -54.501975 7.995099 60.657226 29.959203 -6.345888 14.159698 -12.677619 -40.575978 -18.739409 -36.188003 35.984879 97.106797 31.873042 -31.257557 -51.304258 -27.439992 -55.531362 -4.284649 31.349908 10.633664 -0.000000 0.000000 0.000000 -0.000000 0.000000 0.000000 -0.000000 0.000000 0.000000 15.461573 2.304623 36.813292 -64.971756 -24.975740 -16.754646 0.000000 0.000000 0.000000 -22.653621 -2.957004 25.753867 -39.480352 -30.821893 -23.286729 0.000000 0.000000 0.000000
0.000000 0.794364 0.000000 -0.000000 0.000000 -42.529668 -58.544867 -52.646519 11.530152 54.578886 28.108220 -3.824828 17.219245 -12.255507 -40.667148 -19.276183 -35.955713 36.221398 91.460196 30.669029 -27.248205 -46.578742 -25.104852 -53.478835 -5.381201 30.354673 7.510585 0.000000 0.000000 0.000000 0.000000 0.000000 0.000000 0.000000 0.000000 0.000000 16.241276 0.201418 40.939455 -70.492414 -22.967198 -17.147810 0.000000 0.000000 -0.000000 -18.714824 -0.216403 31.243831 -38.120906 -26.650411 -20.396581 0.000000 0.000000 0.000000
0.000000 0.826713 0.000000 -0.000000 0.000000 -43.081788 -55.060348 -50.687935 15.346372 47.692242 26.086282 -1.405281 20.818975 -11.841385 -40.898948 -19.086871 -34.950508 37.022242 85.615689 29.793994 -23.677459 -42.495611 -23.478098 -52.320736 -6.658068 28.888828 4.955126 0.000000 0.000000 -0.000000 0.000000 0.000000 -0.000000 0.000000 0.000000 -0.000000 17.539843 -1.842682 44.617642 -76.563233 -20.533050 -16.885286 -0.000000 0.000000 -0.000000 -15.938345 2.380562 36.043024 -36.953132 -23.155951 -18.366704 0.000000 0.000000 -0.000000
0.000000 0.850348 0.000000 -0.000000 0.000000 -43.889895 -51.491495 -48.658206 19.289403 39.853226 23.553958 0.857997 25.291874 -11.166059 -41.377027 -18.671744 -33.854546 38.161222 80.415475 29.581070 -20.880028 -38.934555 -22.889787 -52.076286 -7.859284 26.886574 2.851759 0.000000 0.000000 0.000000 0.000000 0.000000 0.000000 0.000000 0.000000 0.000000 19.136802 -3.810689 47.895218 -82.968665 -17.987546 -15.698459 -0.000000 0.000000 0.000000 -14.205482 5.140429 40.382955 -35.616870 -19.919011 -16.674332 -0.000000 0.000000 0.000000
0.000000 0.869407 0.000000 -0.000000 0.000000 -44.899048 -47.789753 -46.375740 23.408247 31.437503 20.187775 2.591903 30.220615 -9.990462 -42.195132 -18.392175 -33.093200 39.391596 75.676173 29.385428 -18.382981 -35.403394 -22.498612 -52.163972 -8.999081 24.503751 1.144502 0.000000 0.000000 -0.000000 0.000000 0.000000 -0.000000 0.000000 0.000000 -0.000000 20.777336 -5.573280 50.737510 -89.203584 -15.813282 -13.801346 -0.000000 0.000000 -0.000000 -13.245423 8.033931 44.350149 -33.784814 -16.655772 -14.998541 0.000000 0.000000 -0.000000
0.000000 0.884437 0.000000 -0.000000 0.000000 -45.989365 -43.893409 -43.699695 27.633087 22.658133 16.345376 3.600634 35.269254 -8.534456 -43.271881 -18.357186 -32.691330 40.562990 71.518561 29.010388 -16.123692 -31.994480 -22.076187 -52.391271 -10.007277 21.975461 -0.574458 -0.000000 0.000000 -0.000000 -0.000000 0.000000 -0.000000 -0.000000 0.000000 -0.000000 22.375633 -7.142701 53.454415 -94.128509 -14.711029 -11.615510 -0.000000 0.000000 -0.000000 -13.244989 10.552205 48.161400 -31.033239 -12.743139 -13.088281 -0.000000 0.000000 0.000000
0.000000 0.898381 0.000000 -0.000000 0.000000 -47.049076 -39.778448 -40.611548 31.799509 13.569124 12.354819 3.833796 40.243919 -6.837841 -44.541232 -18.650143 -32.444991 41.578502 67.367084 28.059611 -13.712261 -28.370767 -21.229684 -52.473443 -10.809349 19.551768 -2.402416 0.000000 0.000000 -0.000000 0.000000 0.000000 -0.000000 0.000000 0.000000 -0.000000 23.956438 -8.783516 56.142883 -98.571468 -14.474504 -9.452646 -0.000000 0.000000 0.000000 -13.911469 12.876827 51.939938 -28.692414 -9.212169 -11.667397 0.000000 0.000000 -0.000000
0.000000 0.913432 0.000000 -0.000000 0.000000 -48.277845 -35.910876 -37.311779 35.790021 5.589946 8.340166 3.199634 44.056664 -5.044583 -46.235695 -18.855379 -32.167886 42.795827 62.968118 26.602687 -11.244240 -24.587346 -20.042388 -52.688383 -11.425037 17.301739 -3.917642 0.000000 0.000000 0.000000 0.000000 0.000000 0.000000 0.000000 0.000000 0.000000 25.479339 -10.655572 58.679128 -100.942937 -14.887980 -7.125249 0.000000 0.000000 0.000000 -15.026980 13.991327 55.251608 -27.582728 -6.325255 -10.915063 -0.000000 0.000000 -0.000000
0.000000 0.927315 0.000000 -0.000000 0.000000 -49.603292 -32.818017 -34.411088 39.182494 -0.066103 5.045333 2.149883 46.098158 -3.571820 -48.083129 -19.185523 -31.994882 44.055221 58.776603 24.665024 -8.894978 -20.823056 -18.572801 -53.045066 -11.781879 15.364434 -5.135073 -0.000000 0.000000 -0.000000 -0.000000 0.000000 -0.000000 -0.000000 0.000000 -0.000000 27.166472 -12.522113 61.121842 -102.125321 -15.571101 -4.563909 0.000000 0.000000 -0.000000 -16.374870 14.656950 58.195935 -27.464597 -3.206810 -10.545468 0.000000 0.000000 0.000000
0.000000 0.940535 0.000000 -0.000000 0.000000 -50.824391 -30.510245 -32.169826 41.831315 -2.655598 2.938264 1.247185 45.825962 -2.759069 -49.657993 -19.937836 -32.168504 45.021809 55.149564 22.168036 -6.770982 -17.065185 -16.663540 -53.341833 -11.918726 13.976247 -5.830790 0.000000 0.000000 0.000000 0.000000 0.000000 0.000000 0.000000 0.000000 0.000000 29.040115 -14.597396 63.223650 -102.555789 -16.512766 -2.008530 -0.000000 0.000000 -0.000000 -17.742184 15.085770 60.385495 -29.813821 -0.720803 -11.228379 0.000000 0.000000 -0.000000
0.000000 0.955112 0.000000 -0.000000 0.000000 -51.897972 -28.896475 -30.368034 43.898081 -2.220568 1.570807 0.600710 43.164698 -2.480804 -50.916507 -20.752974 -32.265448 45.834256 51.097560 19.217204 -4.768273 -12.855352 -14.404455 -53.529227 -11.865261 13.060734 -5.913211 -0.000000 0.000000 0.000000 -0.000000 0.000000 0.000000 -0.000000 0.000000 0.000000 30.522533 -16.181651 64.647906 -102.963934 -17.380941 -0.064511 -0.000000 0.000000 -0.000000 -19.148724 15.255358 61.663794 -31.752697 1.467552 -11.779066 -0.000000 0.000000 -0.000000
0.000000 0.969886 0.000000 -0.000000 0.000000 -52.607941 -28.200950 -29.518989 45.035577 1.433988 1.402456 0.511502 38.476620 -2.992565 -51.563367 -21.552432 -32.427744 46.272226 46.837369 16.227437 -3.165246 -8.295860 -11.962961 -53.478665 -11.683258 12.693925 -5.432983 0.000000 0.000000 -0.000000 0.000000 0.000000 -0.000000 0.000000 0.000000 -0.000000 31.573092 -17.264704 65.236375 -103.655355 -18.191349 1.092839 -0.000000 0.000000 0.000000 -20.680489 15.199545 61.870061 -35.036988 4.030483 -12.813241 0.000000 0.000000 -0.000000
0.000000 0.986679 0.000000 -0.000000 0.000000 -53.219982 -28.152091 -29.633387 45.630692 8.918214 2.123470 0.748796 31.025593 -4.063482 -52.091665 -21.780973 -32.560754 46.787911 41.241871 13.373352 -1.877204 -2.656734 -9.332952 -53.436879 -11.498531 12.702137 -4.606207 -0.000000 0.000000 0.000000 -0.000000 0.000000 0.000000 -0.000000 0.000000 0.000000 32.252306 -17.783530 65.374604 -104.770956 -18.612107 1.903852 -0.000000 0.000000 0.000000 -21.718703 14.666261 61.412472 -39.162695 7.192587 -13.752712 0.000000 0.000000 0.000000
0.000000 1.004271 0.000000 -0.000000 0.000000 -53.872743 -28.348020 -29.923011 46.150620 17.637085 2.632461 0.891690 22.596305 -4.967425 -52.879722 -21.166770 -31.890731 47.761175 34.758049 10.708595 -0.899707 2.863937 -6.991582 -53.697752 -11.355373 12.697471 -3.740029 0.000000 0.000000 -0.000000 0.000000 0.000000 -0.000000 0.000000 0.000000 -0.000000 32.451117 -17.281981 65.215854 -106.417961 -18.733829 2.086290 -0.000000 0.000000 0.000000 -22.556036 13.792388 60.840167 -44.008482 10.349420 -14.579906 0.000000 0.000000 0.000000
0.000000 1.020762 0.000000 -0.000000 0.000000 -54.735861 -28.239923 -29.530377 47.149577 25.007108 2.015030 0.949581 14.813100 -5.147883 -54.066226 -19.626253 -29.990886 49.430474 27.811273 8.188975 -0.209348 7.457508 -5.166205 -54.398946 -11.325225 12.464610 -2.770812 0.000000 0.000000 0.000000 0.000000 0.000000 0.000000 0.000000 0.000000 0.000000 32.512795 -16.098573 64.924404 -108.027747 -18.813954 1.872888 0.000000 0.000000 -0.000000 -23.431525 12.661781 60.325815 -48.839769 12.278493 -15.484347 0.000000 0.000000 -0.000000
0.000000 1.035223 0.000000 -0.000000 0.000000 -56.057756 -27.704460 -28.796870 48.813038 30.296760 0.710505 1.154320 8.563941 -4.833508 -55.695639 -17.812776 -27.660849 51.639014 21.440169 5.830703 0.178255 11.027212 -3.784025 -55.692358 -11.394481 11.949578 -1.574049 -0.000000 0.000000 0.000000 -0.000000 0.000000 0.000000 -0.000000 0.000000 0.000000 32.657724 -14.400353 64.694587 -109.769519 -19.048059 1.398467 0.000000 0.000000 0.000000 -24.443239 11.358952 60.014610 -53.188157 13.087170 -16.513274 0.000000 0.000000 0.000000
0.000000 1.043418 0.000000 -0.000000 0.000000 -57.630855 -26.835736 -27.886143 50.851657 34.348834 -0.561830 1.535407 3.187893 -4.494756 -57.505716 -16.701907 -26.922405 53.606145 19.508279 5.018622 0.255664 11.812178 -3.476085 -57.271154 -11.495006 11.186501 -0.108351 0.000000 0.000000 -0.000000 0.000000 0.000000 -0.000000 0.000000 0.000000 -0.000000 32.603197 -12.521205 64.284573 -111.693688 -19.558064 0.290604 -0.000000 0.000000 -0.000000 -25.464423 10.234178 59.755085 -57.090947 12.948649 -17.847355 0.000000 0.000000 -0.000000
0.000000 1.050762 0.000000 -0.000000 0.000000 -59.319449 -25.809957 -26.969085 53.029888 37.943999 -1.617472 2.034711 -1.852727 -4.192920 -59.387276 -15.844021 -26.899407 55.507418 20.424983 5.149828 0.244769 10.474094 -3.879361 -58.963735 -11.634684 10.455525 1.502608 0.000000 0.000000 -0.000000 0.000000 0.000000 -0.000000 0.000000 0.000000 -0.000000 32.341237 -10.454398 63.782810 -113.724275 -20.051098 -1.324277 -0.000000 0.000000 -0.000000 -26.562497 8.790087 59.340552 -59.760260 11.796722 -19.353398 0.000000 0.000000 0.000000
0.000000 1.052114 0.000000 -0.000000 0.000000 -61.164509 -24.652056 -25.936503 55.403148 41.404581 -2.521954 2.657664 -6.954196 -3.934242 -61.403652 -15.678588 -28.234915 57.198034 26.051468 6.268584 0.060036 5.927852 -5.118153 -60.899333 -11.742209 9.602154 3.422989 -0.000000 0.000000 -0.000000 -0.000000 0.000000 -0.000000 -0.000000 0.000000 -0.000000 32.148307 -8.280986 63.094214 -116.121851 -20.761625 -3.249301 -0.000000 0.000000 0.000000 -27.957509 7.388522 58.759383 -61.700769 9.635277 -21.477561 0.000000 0.000000 0.000000
0.000000 1.049071 0.000000 -0.000000 0.000000 -63.197324 -23.550207 -24.855072 57.936986 45.822099 -3.508893 3.545925 -13.049248 -3.489552 -63.596549 -15.865122 -30.808925 58.800025 35.510153 8.036730 -0.477741 -1.187422 -6.819895 -63.268079 -11.782772 8.673030 5.678987 0.000000 0.000000 0.000000 0.000000 0.000000 0.000000 0.000000 0.000000 0.000000 31.894102 -5.967090 62.207720 -118.949854 -21.609744 -5.640376 0.000000 0.000000 0.000000 -29.610971 5.594307 57.842463 -62.857783 6.879909 -23.825767 0.000000 0.000000 0.000000
0.000000 1.043212 0.000000 -0.000000 0.000000 -65.290468 -22.445531 -23.827508 60.496116 50.685720 -4.233296 4.574477 -19.562398 -3.018953 -65.811028 -15.823204 -33.245884 60.538936 43.571336 9.090665 -1.063506 -7.084967 -7.890638 -65.779723 -11.738116 7.549255 8.420362 -0.000000 0.000000 -0.000000 -0.000000 0.000000 -0.000000 -0.000000 0.000000 -0.000000 31.324527 -3.826922 60.834501 -121.904589 -22.496237 -8.647611 0.000000 0.000000 -0.000000 -31.268540 3.625812 56.407300 -63.721557 3.694913 -26.388142 -0.000000 0.000000 -0.000000
0.000000 1.036960 0.000000 -0.000000 0.000000 -67.297639 -21.476089 -22.178078 63.040441 55.705075 -5.062251 5.965981 -26.691718 -2.420550 -67.871960 -15.190442 -34.863650 62.502640 48.935542 9.899329 -1.543014 -11.206356 -8.732411 -68.155995 -11.604754 6.150981 11.615471 0.000000 0.000000 0.000000 0.000000 0.000000 0.000000 0.000000 0.000000 0.000000 30.605084 -1.418689 58.782987 -125.478464 -23.398708 -12.550812 -0.000000 0.000000 -0.000000 -33.046967 1.568131 54.392341 -64.015563 -0.413779 -29.480022 -0.000000 0.000000 -0.000000
0.000000 1.028678 0.000000 -0.000000 0.000000 -69.078789 -21.208536 -19.816968 65.332517 60.532514 -6.592717 8.148459 -33.858667 -1.346366 -69.488617 -14.189560 -36.308795 64.404677 52.492322 10.904701 -2.059091 -13.739854 -9.535224 -70.230220 -11.255032 4.475663 15.085199 0.000000 0.000000 0.000000 0.000000 0.000000 0.000000 0.000000 0.000000 0.000000 29.368242 1.113516 56.094952 -129.911196 -24.703629 -18.716270 0.000000 0.000000 -0.000000 -34.998095 -0.400313 51.930360 -63.421500 -4.726824 -32.435077 0.000000 0.000000 -0.000000
0.000000 1.013238 0.000000 -0.000000 0.000000 -70.032479 -21.851401 -16.705290 66.785604 65.219167 -8.080767 11.084202 -41.016865 -0.349495 -70.163208 -13.915205 -38.064832 65.211393 55.306230 11.711676 -2.493748 -14.969679 -10.085741 -71.360949 -10.612468 2.568976 18.966234 0.000000 0.000000 0.000000 0.000000 0.000000 0.000000 0.000000 0.000000 0.000000 28.537225 3.669847 52.144257 -135.122218 -26.559317 -26.653835 0.000000 0.000000 -0.000000 -37.460567 -0.910699 48.867062 -62.334286 -8.767700 -35.533512 0.000000 0.000000 0.000000
0.000000 0.990052 0.000000 -0.000000 0.000000 -70.361537 -22.147781 -13.053276 67.796084 69.392000 -7.849236 13.464520 -48.457117 -0.403411 -70.543079 -14.243505 -41.007126 65.011388 58.016782 12.426857 -3.022522 -14.777579 -10.163679 -71.682955 -9.905743 0.960641 22.753939 0.000000 0.000000 0.000000 0.000000 0.000000 0.000000 0.000000 0.000000 0.000000 28.713337 6.048443 47.811744 -139.549948 -28.302712 -33.714075 0.000000 0.000000 0.000000 -39.851759 -0.742239 45.596228 -60.806263 -12.184161 -38.005440 0.000000 0.000000 0.000000
0.000000 0.975228 0.000000 -0.000000 0.000000 -70.024233 -21.828467 -9.278318 68.231346 70.788863 -6.785723 14.459362 -53.603814 -1.202426 -70.631689 -14.964148 -43.411093 64.038954 59.238374 12.643532 -3.351209 -13.522233 -9.718259 -71.179108 -9.499715 0.078043 25.419693 0.000000 0.000000 -0.000000 0.000000 0.000000 -0.000000 0.000000 0.000000 -0.000000 29.143579 8.048221 44.205552 -142.539441 -29.806214 -39.876316 0.000000 0.000000 0.000000 -41.288680 -0.852148 42.604263 -59.118406 -14.787224 -39.233020 0.000000 0.000000 0.000000
0.000000 0.968495 0.000000 -0.000000 0.000000 -69.433454 -21.361365 -5.797505 68.339127 70.846555 -5.601518 14.780104 -57.233960 -2.244455 -70.658143 -15.810921 -44.952861 62.857373 59.172604 12.518649 -3.438980 -11.798841 -9.073685 -70.372978 -9.269921 -0.582214 27.411745 0.000000 0.000000 -0.000000 0.000000 0.000000 -0.000000 0.000000 0.000000 -0.000000 29.840213 9.877023 41.089702 -144.800286 -31.077656 -45.054631 -0.000000 0.000000 -0.000000 -42.208990 -1.049853 39.982336 -57.490554 -16.920056 -39.909229 -0.000000 0.000000 -0.000000
0.000000 0.966606 0.000000 -0.000000 0.000000 -67.920442 -20.894370 -2.504471 67.458582 70.208857 -4.566132 14.752236 -59.707292 -3.261296 -69.792600 -17.610686 -45.773066 60.437841 57.599241 11.902615 -3.219796 -9.029181 -8.027504 -68.555309 -9.112292 -0.717292 28.349417 -0.000000 0.000000 -0.000000 -0.000000 0.000000 -0.000000 -0.000000 0.000000 -0.000000 30.529218 11.518260 38.238062 -146.701477 -32.566858 -50.321709 -0.000000 0.000000 0.000000 -42.926556 -1.331306 37.374406 -55.858364 -18.879984 -40.268928 -0.000000 0.000000 0.000000
0.000000 0.966039 0.000000 -0.000000 0.000000 -66.159022 -20.371674 0.613585 66.269268 69.103973 -3.388177 14.426027 -61.548575 -4.549136 -68.869004 -19.542715 -46.135993 57.769629 53.402976 10.743679 -2.657334 -4.050907 -6.353306 -66.383941 -8.951499 -0.445309 28.583454 0.000000 0.000000 0.000000 0.000000 0.000000 0.000000 0.000000 0.000000 0.000000 31.162865 12.813536 35.974130 -148.289656 -34.032359 -54.810196 0.000000 0.000000 0.000000 -43.494116 -1.825279 35.058673 -54.461488 -20.464386 -40.342890 -0.000000 0.000000 0.000000
0.000000 0.966331 0.000000 -0.000000 0.000000 -64.064963 -19.741635 3.290936 64.637749 67.631613 -2.544638 13.985413 -62.444314 -5.618427 -67.472301 -21.626691 -45.458297 54.915765 46.881122 8.437336 -1.822642 2.387468 -3.812096 -63.985499 -8.725539 -0.007402 28.676247 0.000000 0.000000 0.000000 0.000000 0.000000 0.000000 0.000000 0.000000 0.000000 31.919028 14.115249 33.506539 -150.273194 -36.281190 -60.668140 -0.000000 0.000000 0.000000 -44.223775 -2.285639 32.529311 -52.867536 -22.131494 -40.353847 0.000000 0.000000 -0.000000
0.000000 0.965857 0.000000 -0.000000 0.000000 -61.669822 -18.951389 5.894120 62.654433 65.932781 -2.159429 13.686976 -62.863252 -6.319077 -65.534246 -23.637556 -43.702961 52.076531 39.544293 5.352633 -1.138919 8.845581 -0.943142 -61.596872 -8.545583 0.499712 28.277651 -0.000000 0.000000 0.000000 -0.000000 0.000000 0.000000 -0.000000 0.000000 0.000000 32.349773 14.776461 31.397656 -151.844441 -38.325271 -65.869197 -0.000000 0.000000 -0.000000 -44.795010 -2.549925 30.284876 -51.454959 -23.513654 -40.268061 0.000000 0.000000 0.000000
0.000000 0.964189 0.000000 -0.000000 0.000000 -59.420573 -18.172788 7.805201 60.670747 64.621867 -1.909223 13.401314 -63.002906 -6.801749 -63.591986 -25.252770 -41.994963 49.592378 33.480176 2.757788 -0.884657 14.116422 1.407037 -59.594795 -8.368662 1.012078 27.794389 -0.000000 0.000000 0.000000 -0.000000 0.000000 0.000000 -0.000000 0.000000 0.000000 32.460920 14.941115 29.659381 -152.822783 -39.983740 -69.931760 -0.000000 0.000000 -0.000000 -45.328883 -2.666364 28.339630 -50.143900 -24.548319 -40.021516 0.000000 0.000000 -0.000000
