HIERARCHY
ROOT Hips
{
  OFFSET 0 0 0
  CHANNELS 6 Xposition Yposition Zposition Zrotation Xrotation Yrotation
  JOINT RightUpLeg
  {
    OFFSET -0.105 0 0
    CHANNELS 3 Zrotation Xrotation Yrotation
    JOINT RightLeg
    {
      OFFSET 0 -0.43 0
      CHANNELS 3 Zrotation Xrotation Yrotation
      JOINT RightFoot
      {
        OFFSET 0 -0.43 0
        CHANNELS 3 Zrotation Xrotation Yrotation
        End Site
        {
          OFFSET 0 -0.07 0.18
        }
      }
    }
  }
  JOINT LeftUpLeg
  {
    OFFSET 0.105 0 0
    CHANNELS 3 Zrotation Xrotation Yrotation
    JOINT LeftLeg
    {
      OFFSET 0 -0.43 0
      CHANNELS 3 Zrotation Xrotation Yrotation
      JOINT LeftFoot
      {
        OFFSET 0 -0.43 0
        CHANNELS 3 Zrotation Xrotation Yrotation
        End Site
        {
          OFFSET 0 -0.07 0.18
        }
      }
    }
  }
  JOINT Spine
  {
    OFFSET 0 0.19 0
    CHANNELS 3 Zrotation Xrotation Yrotation
    JOINT Chest
    {
      OFFSET 0 0.18 0
      CHANNELS 3 Zrotation Xrotation Yrotation
      JOINT Neck
      {
        OFFSET 0 0.17 0
        CHANNELS 3 Zrotation Xrotation Yrotation
        JOINT Head
        {
          OFFSET 0 0.15 0
          CHANNELS 3 Zrotation Xrotation Yrotation
          End Site
          {
            OFFSET 0 0.12 0
          }
        }
      }
      JOINT LeftArm
      {
        OFFSET 0.19 0.17 0.04
        CHANNELS 3 Zrotation Xrotation Yrotation
        JOINT LeftForeArm
        {
          OFFSET 0 -0.34 0
          CHANNELS 3 Zrotation Xrotation Yrotation
          JOINT LeftHand
          {
            OFFSET 0 -0.38 0
            CHANNELS 3 Zrotation Xrotation Yrotation
            End Site
            {
              OFFSET 0 -0.08 0
            }
          }
        }
      }
      JOINT RightArm
      {
        OFFSET -0.19 0.17 0.04
        CHANNELS 3 Zrotation Xrotation Yrotation
        JOINT RightForeArm
        {
          OFFSET 0 -0.34 0
          CHANNELS 3 Zrotation Xrotation Yrotation
          JOINT RightHand
          {
            OFFSET 0 -0.38 0
            CHANNELS 3 Zrotation Xrotation Yrotation
            End Site
            {
              OFFSET 0 -0.08 0
            }
          }
        }
      }
    }
  }
}
MOTION
Frames: 82
Frame Time: 0.04000000
0.000000 0.792271 0.000000 -0.000000 0.000000 9.896438 21.273299 -28.097894 -4.515052 -17.576493 45.031928 0.878410 -8.270723 -20.368045 8.408180 24.935490 2.737213 -10.501757 -42.741251 32.021211 2.853137 21.256971 -37.972977 17.285000 6.894809 11.436810 -11.883865 -0.000000 0.000000 0.000000 -0.000000 0.000000 0.000000 -0.000000 0.000000 0.000000 17.289992 5.973594 2.082433 27.793669 -49.227241 26.782486 -0.000000 0.000000 -0.000000 -26.619955 20.448816 2.405255 27.645428 -25.876631 8.805367 0.000000 0.000000 -0.000000
0.000000 0.804689 0.000000 -0.000000 0.000000 12.186562 20.666340 -30.244457 -6.544968 -17.766768 41.540272 1.168093 -8.594380 -15.608161 11.006483 25.914548 1.564320 -12.546506 -44.626976 31.433307 2.921478 22.251899 -37.274750 19.775973 6.924461 12.021725 -12.045899 -0.000000 0.000000 0.000000 -0.000000 0.000000 0.000000 -0.000000 0.000000 0.000000 17.516850 4.850951 0.246045 27.405868 -49.544012 26.431358 0.000000 0.000000 0.000000 -25.496777 19.628935 -0.119936 27.378985 -24.517208 8.335521 0.000000 0.000000 -0.000000
0.000000 0.818964 0.000000 -0.000000 0.000000 14.800378 19.575507 -32.544953 -9.034935 -17.503640 37.150327 1.360494 -9.152380 -9.862183 14.009068 27.126440 0.191633 -14.846609 -46.618782 30.367322 2.799387 23.059413 -36.165821 22.421791 7.099471 12.509034 -12.434378 0.000000 0.000000 -0.000000 0.000000 0.000000 -0.000000 0.000000 0.000000 -0.000000 17.931794 3.300311 -1.604417 26.585565 -49.647333 25.784761 0.000000 0.000000 -0.000000 -24.365426 18.711016 -2.750074 27.181743 -23.206074 7.903058 0.000000 0.000000 0.000000
0.000000 0.827263 0.000000 -0.000000 0.000000 17.659915 17.859604 -34.722202 -12.035236 -16.502099 32.933821 1.269642 -10.137457 -4.379242 17.271300 27.970017 -1.082822 -17.390231 -47.582372 28.437540 2.284992 23.155751 -34.428580 24.923673 7.437559 13.064153 -12.975572 -0.000000 0.000000 -0.000000 -0.000000 0.000000 -0.000000 -0.000000 0.000000 -0.000000 18.531349 1.306246 -3.431209 25.328044 -49.597849 24.917468 0.000000 0.000000 0.000000 -23.105386 17.499885 -5.561063 26.743938 -22.005773 7.387285 0.000000 0.000000 0.000000
0.000000 0.829320 0.000000 -0.000000 0.000000 20.960818 15.565607 -37.107104 -15.707768 -15.715808 29.874907 1.254170 -11.071550 0.108098 20.971295 28.918796 -2.582145 -20.294877 -48.859344 26.526544 1.737638 23.472037 -32.783047 27.954753 7.936254 13.627723 -13.801974 -0.000000 0.000000 0.000000 -0.000000 0.000000 0.000000 -0.000000 0.000000 0.000000 19.352077 -1.244225 -5.247937 23.896418 -49.364162 24.002576 0.000000 0.000000 -0.000000 -21.736101 16.033759 -8.569637 26.237805 -20.962035 6.862293 0.000000 0.000000 0.000000
0.000000 0.827588 0.000000 -0.000000 0.000000 24.880015 12.272119 -39.707909 -20.433935 -15.026194 27.558314 1.288503 -11.943539 4.103539 25.309452 29.671541 -3.878665 -23.852272 -49.991693 24.559040 0.972717 24.149174 -31.501072 31.785314 8.660887 14.138959 -15.191054 -0.000000 0.000000 0.000000 -0.000000 0.000000 0.000000 -0.000000 0.000000 0.000000 20.359565 -4.420974 -6.915861 22.314716 -48.978019 23.089283 -0.000000 0.000000 -0.000000 -20.502601 14.328383 -11.655693 26.152855 -20.609327 6.506260 -0.000000 0.000000 -0.000000
0.000000 0.815182 0.000000 -0.000000 0.000000 29.550892 7.589848 -42.904323 -26.564797 -15.087092 27.050258 1.562429 -12.404657 7.023416 30.315114 30.684553 -4.328772 -28.362717 -51.413798 22.726236 -0.331639 25.975043 -31.352539 36.957680 9.552120 14.432562 -17.214927 0.000000 0.000000 -0.000000 0.000000 0.000000 -0.000000 0.000000 0.000000 -0.000000 21.652526 -8.400160 -8.402782 21.100862 -48.872484 22.725216 0.000000 0.000000 0.000000 -19.682007 12.765647 -14.784021 27.173304 -21.185528 6.538696 -0.000000 0.000000 0.000000
0.000000 0.800077 0.000000 -0.000000 0.000000 34.333935 1.923475 -45.703361 -33.523276 -15.890107 28.149753 2.047768 -12.296750 8.379639 35.238210 31.893939 -3.909400 -33.216449 -51.935188 20.554189 -2.262346 27.710668 -31.651568 42.332497 10.466437 14.517957 -19.182383 0.000000 0.000000 0.000000 0.000000 0.000000 0.000000 0.000000 0.000000 0.000000 23.044986 -12.736533 -9.842732 20.331583 -49.367078 23.085226 0.000000 0.000000 -0.000000 -19.098478 11.363441 -17.998956 28.221640 -21.979750 6.546050 0.000000 0.000000 0.000000
0.000000 0.789713 0.000000 -0.000000 0.000000 38.844845 -3.522920 -47.553701 -40.397332 -17.604196 30.217019 2.815496 -11.652769 8.072483 39.669925 33.064877 -3.547547 -37.791522 -51.519439 18.305775 -4.175252 28.568401 -31.845359 47.153564 11.348101 14.431427 -20.720800 -0.000000 0.000000 -0.000000 -0.000000 0.000000 -0.000000 -0.000000 0.000000 -0.000000 24.371580 -17.191352 -11.289612 19.922567 -50.515050 24.161498 0.000000 0.000000 0.000000 -18.684087 9.502317 -21.366479 28.922394 -21.839008 6.273971 -0.000000 0.000000 -0.000000
0.000000 0.785016 0.000000 -0.000000 0.000000 43.044707 -8.548051 -48.703692 -46.919330 -20.145634 33.164260 3.918509 -10.567227 6.321845 43.629932 34.171549 -3.465279 -41.979296 -50.740986 16.734607 -5.725338 29.053715 -32.480334 51.677445 12.209321 14.130062 -21.778514 -0.000000 0.000000 0.000000 -0.000000 0.000000 0.000000 -0.000000 0.000000 0.000000 25.371884 -21.682569 -12.851138 19.969755 -52.375451 26.041283 -0.000000 0.000000 0.000000 -18.501779 7.259157 -24.879980 29.507191 -21.073784 5.834286 0.000000 0.000000 0.000000
0.000000 0.785327 0.000000 -0.000000 0.000000 46.763044 -12.541099 -48.972673 -52.492874 -23.011049 36.279702 5.185744 -9.260260 3.528365 47.048886 35.058124 -3.240769 -45.739180 -49.414141 15.803432 -6.910599 29.347033 -33.659909 55.820577 12.958486 13.547838 -22.256006 0.000000 0.000000 0.000000 0.000000 0.000000 0.000000 0.000000 0.000000 0.000000 25.974641 -25.949436 -14.578861 20.650988 -54.822679 28.867213 0.000000 0.000000 0.000000 -18.441804 4.845054 -28.387891 29.510373 -20.109718 5.179668 -0.000000 0.000000 -0.000000
0.000000 0.788774 0.000000 -0.000000 0.000000 50.107019 -15.351424 -48.688878 -57.086002 -26.384341 39.349938 6.727873 -7.697570 -0.027838 50.105146 35.781632 -2.731324 -49.225159 -47.464930 15.206417 -7.815730 29.427136 -35.229353 59.639055 13.587844 12.583303 -22.301250 0.000000 0.000000 -0.000000 0.000000 0.000000 -0.000000 0.000000 0.000000 -0.000000 26.203464 -29.998774 -16.453740 22.212017 -57.898852 33.052677 0.000000 0.000000 -0.000000 -18.659102 2.522125 -31.806663 29.158724 -18.881976 4.406140 -0.000000 0.000000 0.000000
0.000000 0.792967 0.000000 -0.000000 0.000000 52.832051 -16.834460 -48.323597 -60.427929 -30.425259 42.171752 8.657896 -5.873037 -3.926698 52.630545 36.469562 -1.503606 -52.336653 -44.830037 14.291040 -8.600451 29.234473 -36.765851 62.739046 13.924510 11.332774 -21.752852 0.000000 0.000000 0.000000 0.000000 0.000000 0.000000 0.000000 0.000000 0.000000 26.224172 -33.763694 -18.400493 24.340207 -61.188828 38.399146 0.000000 0.000000 -0.000000 -19.166287 0.530345 -35.027066 29.051532 -18.163596 3.741153 0.000000 0.000000 0.000000
0.000000 0.797781 0.000000 -0.000000 0.000000 55.263234 -17.526053 -47.927207 -63.102062 -35.043225 44.729566 10.940029 -3.830200 -8.041670 54.993901 37.023594 -0.505144 -55.094099 -42.522437 13.350662 -9.117267 29.075134 -37.884919 65.434955 14.073819 9.943684 -20.834677 -0.000000 0.000000 0.000000 -0.000000 0.000000 0.000000 -0.000000 0.000000 0.000000 26.235168 -37.990944 -20.213337 26.696886 -64.537884 45.009741 -0.000000 0.000000 -0.000000 -19.941275 -1.498813 -38.253982 29.208633 -17.887288 3.134907 0.000000 0.000000 -0.000000
0.000000 0.801868 0.000000 -0.000000 0.000000 57.327087 -17.302390 -47.454870 -64.979122 -39.183489 46.031136 12.869040 -1.947209 -11.341023 57.133724 37.271311 -0.264972 -57.237730 -41.304281 12.619298 -9.378866 29.174053 -38.258885 67.642798 14.041383 8.574664 -19.605088 0.000000 0.000000 -0.000000 0.000000 0.000000 -0.000000 0.000000 0.000000 -0.000000 26.291828 -42.246889 -21.887893 29.381922 -67.120018 52.252001 -0.000000 0.000000 0.000000 -21.078626 -3.329688 -41.408178 29.627705 -18.102409 2.586559 -0.000000 0.000000 -0.000000
0.000000 0.806347 0.000000 -0.000000 0.000000 59.055531 -15.942006 -46.891636 -66.005811 -42.984740 46.322067 14.351081 -0.024246 -14.238390 59.052502 37.220532 -0.709101 -58.816747 -41.042507 12.225583 -9.471155 29.478919 -38.124622 69.444073 13.845206 7.054881 -18.251358 0.000000 0.000000 -0.000000 0.000000 0.000000 -0.000000 0.000000 0.000000 -0.000000 26.006917 -46.145118 -23.619141 32.828461 -68.753819 59.888924 0.000000 0.000000 -0.000000 -22.203184 -5.154207 -44.268891 29.802014 -18.514311 2.070115 0.000000 0.000000 0.000000
0.000000 0.809217 0.000000 -0.000000 0.000000 60.542156 -13.479102 -46.126212 -66.302982 -46.559742 45.889119 15.362880 2.148681 -17.090089 60.865042 36.611072 -2.186507 -59.818725 -42.084430 11.880844 -9.401086 29.897335 -36.864422 70.711982 13.517648 5.415996 -17.004334 0.000000 0.000000 0.000000 0.000000 0.000000 0.000000 0.000000 0.000000 0.000000 25.586324 -49.440134 -25.300540 37.819771 -69.569268 68.478441 0.000000 0.000000 0.000000 -23.171066 -7.473742 -46.763341 29.790523 -19.429188 1.694396 -0.000000 0.000000 -0.000000
0.000000 0.812535 0.000000 -0.000000 0.000000 61.899976 -10.681874 -45.124008 -66.348765 -49.077510 44.511124 15.517798 4.234870 -19.098583 62.612711 35.214312 -4.600769 -60.439188 -44.130965 12.344602 -8.874881 30.612334 -35.235154 71.834204 13.120629 3.828607 -16.248524 -0.000000 0.000000 0.000000 -0.000000 0.000000 0.000000 -0.000000 0.000000 0.000000 25.591984 -52.182671 -26.361720 42.971172 -69.506699 76.611213 -0.000000 0.000000 0.000000 -24.277225 -10.308690 -48.768202 29.576908 -20.581148 1.375526 0.000000 0.000000 -0.000000
0.000000 0.817383 0.000000 -0.000000 0.000000 63.223697 -7.557133 -43.502781 -66.242580 -50.637641 42.671378 14.956176 6.441171 -20.924483 64.414319 32.532664 -7.644074 -60.990257 -46.444606 12.761057 -7.685651 30.963674 -32.483671 72.450148 12.565559 2.266595 -15.727985 -0.000000 0.000000 -0.000000 -0.000000 0.000000 -0.000000 -0.000000 0.000000 -0.000000 25.856737 -54.501233 -27.234774 47.027059 -68.964469 83.380666 0.000000 0.000000 0.000000 -26.041651 -13.606684 -50.731835 29.663880 -21.488496 0.870502 -0.000000 0.000000 0.000000
0.000000 0.820038 0.000000 -0.000000 0.000000 64.506723 -4.998939 -42.123865 -66.432879 -52.223779 41.174843 14.472050 8.631957 -22.592404 66.234101 29.222920 -10.694261 -61.711225 -48.205820 12.869635 -6.138864 30.668108 -29.268487 72.697599 12.002430 0.964225 -15.405805 0.000000 0.000000 -0.000000 0.000000 0.000000 -0.000000 0.000000 0.000000 -0.000000 26.846440 -57.005025 -27.375535 48.889913 -68.150736 88.160548 0.000000 0.000000 -0.000000 -28.744908 -17.724747 -52.947397 30.024099 -22.094267 0.043864 -0.000000 0.000000 0.000000
0.000000 0.819506 0.000000 -0.000000 0.000000 65.681772 -2.827893 -41.150384 -66.743495 -53.651309 39.832546 13.920551 10.515589 -23.887753 67.912149 25.124357 -13.398789 -62.683076 -48.631389 12.867304 -4.199652 29.425211 -25.851237 72.579003 11.432337 -0.189910 -14.885244 -0.000000 0.000000 0.000000 -0.000000 0.000000 0.000000 -0.000000 0.000000 0.000000 27.839728 -59.772961 -27.457142 48.891164 -67.153136 91.080215 0.000000 0.000000 -0.000000 -32.605501 -22.747830 -55.913932 29.685034 -21.986425 -1.280575 -0.000000 0.000000 -0.000000
0.000000 0.815193 0.000000 -0.000000 0.000000 66.428358 -1.506842 -41.318800 -66.996555 -55.493083 39.081028 13.868228 11.804759 -24.590010 69.009837 20.626810 -15.512555 -63.588710 -47.479419 12.373431 -2.261928 27.086355 -21.950650 71.777487 10.981003 -1.062350 -13.836063 0.000000 0.000000 0.000000 0.000000 0.000000 0.000000 0.000000 0.000000 0.000000 28.825653 -62.870334 -27.385694 47.891745 -66.143212 93.157648 0.000000 0.000000 0.000000 -37.652632 -28.408954 -59.880291 28.627626 -21.157622 -2.922406 -0.000000 0.000000 -0.000000
0.000000 0.817254 0.000000 -0.000000 0.000000 66.530864 -0.330739 -42.166482 -66.658375 -57.912405 38.484080 14.254712 13.034873 -24.818905 69.410850 16.486335 -16.838955 -64.074047 -45.397342 11.977593 -0.613477 24.554222 -18.400224 70.568164 10.604723 -1.740516 -12.195812 0.000000 0.000000 -0.000000 0.000000 0.000000 -0.000000 0.000000 0.000000 -0.000000 30.027894 -65.732421 -27.119329 47.031905 -65.534990 95.911527 0.000000 0.000000 0.000000 -43.731837 -34.113666 -64.759552 26.426104 -19.408992 -4.609383 0.000000 0.000000 -0.000000
0.000000 0.845489 0.000000 -0.000000 0.000000 66.403278 0.905874 -42.686193 -66.049301 -59.638828 37.735188 14.379902 14.059105 -24.809919 69.510497 12.881623 -17.681353 -64.391457 -42.858356 11.251079 0.560613 22.051778 -14.849591 69.312391 10.185313 -2.400466 -10.266985 0.000000 0.000000 0.000000 0.000000 0.000000 0.000000 0.000000 0.000000 0.000000 31.543688 -68.469111 -26.702275 47.056072 -65.054489 100.032394 -0.000000 0.000000 -0.000000 -52.156246 -39.444160 -71.258285 23.482717 -16.420609 -6.593860 -0.000000 0.000000 0.000000
0.000000 0.867975 0.000000 -0.000000 0.000000 66.204003 1.812465 -43.096418 -65.488241 -60.673852 36.934774 14.347365 14.648098 -24.436820 69.392528 9.960684 -18.192265 -64.605325 -40.353918 10.463791 1.330020 19.882432 -11.692377 68.260239 9.720616 -2.998123 -8.463325 -0.000000 0.000000 -0.000000 -0.000000 0.000000 -0.000000 -0.000000 0.000000 -0.000000 34.475206 -71.198574 -24.956876 47.742707 -64.550003 105.413003 -0.000000 0.000000 -0.000000 -61.422276 -44.096217 -78.811642 19.871502 -13.533795 -7.622416 -0.000000 0.000000 -0.000000
0.000000 0.888360 0.000000 -0.000000 0.000000 66.034954 2.114263 -43.670643 -65.187716 -61.366904 36.160918 14.391816 14.836612 -23.635227 69.155935 7.652519 -18.365782 -64.796067 -38.010552 9.837261 1.816192 18.120982 -9.196049 67.504495 9.223112 -3.537024 -6.998540 0.000000 0.000000 -0.000000 0.000000 0.000000 -0.000000 0.000000 0.000000 -0.000000 40.037622 -73.544605 -20.862796 49.552306 -63.958135 112.517493 0.000000 0.000000 0.000000 -71.645887 -47.845340 -87.364463 16.160731 -11.161783 -7.690755 0.000000 0.000000 0.000000
0.000000 0.907386 0.000000 -0.000000 0.000000 66.016607 1.631467 -44.538345 -65.348481 -61.809846 35.361172 14.568583 14.612946 -22.297047 68.911503 5.867227 -18.144624 -65.078939 -35.768756 9.194154 2.044311 16.715438 -7.222812 67.079110 8.722843 -4.029236 -5.890998 0.000000 0.000000 -0.000000 0.000000 0.000000 -0.000000 0.000000 0.000000 -0.000000 47.719369 -75.459190 -14.731542 51.317242 -63.301763 119.690839 -0.000000 0.000000 0.000000 -82.136754 -50.337678 -96.334661 12.967484 -9.585159 -7.064707 0.000000 0.000000 0.000000
0.000000 0.926426 0.000000 -0.000000 0.000000 66.194327 0.296983 -45.685882 -66.069225 -61.605042 34.166969 14.643680 13.747379 -20.002184 68.629962 4.537987 -17.520174 -65.494689 -33.683508 8.883154 2.126298 15.691726 -6.116261 67.037925 8.244865 -4.491566 -4.991968 0.000000 0.000000 0.000000 0.000000 0.000000 0.000000 0.000000 0.000000 0.000000 57.728198 -76.868996 -6.486461 53.466033 -62.319213 127.227772 -0.000000 0.000000 -0.000000 -91.770932 -51.601156 -104.837204 10.367558 -8.690743 -5.940467 0.000000 0.000000 -0.000000
0.000000 0.941875 0.000000 -0.000000 0.000000 66.593875 -2.246517 -47.158501 -67.574487 -60.344378 32.461181 14.534140 11.932916 -16.365086 68.315823 3.634479 -16.442486 -66.068590 -31.728986 8.769016 2.074546 15.055104 -5.757243 67.355277 7.801515 -4.889486 -4.103790 0.000000 0.000000 0.000000 0.000000 0.000000 0.000000 0.000000 0.000000 0.000000 69.411590 -77.791104 3.180651 56.273032 -60.597399 135.030717 0.000000 0.000000 -0.000000 -100.537940 -51.739750 -112.689387 8.244260 -9.097623 -4.085140 0.000000 0.000000 -0.000000
0.000000 0.956453 0.000000 -0.000000 0.000000 67.214064 -6.202221 -48.797733 -70.029552 -57.828208 30.345276 14.222496 9.153109 -11.378017 68.127817 3.256609 -14.709455 -66.793610 -29.715683 8.830064 1.867103 14.772349 -6.279118 68.028840 7.398166 -5.209209 -3.242451 -0.000000 0.000000 -0.000000 -0.000000 0.000000 -0.000000 -0.000000 0.000000 -0.000000 81.419717 -78.036337 12.847435 59.441340 -58.106368 142.620373 -0.000000 0.000000 -0.000000 -107.190900 -51.185444 -118.911590 6.478057 -10.050333 -1.679592 -0.000000 0.000000 0.000000
0.000000 0.963126 0.000000 -0.000000 0.000000 68.159279 -11.508075 -50.326478 -73.579754 -55.194330 28.972685 14.186242 6.251546 -6.565291 68.518196 3.610593 -12.640752 -67.759235 -27.944027 8.542865 1.458691 14.809913 -7.233694 69.100637 7.028637 -5.410994 -2.514147 -0.000000 0.000000 0.000000 -0.000000 0.000000 0.000000 -0.000000 0.000000 0.000000 91.711950 -77.815392 20.628784 62.619526 -54.885369 149.320929 0.000000 0.000000 -0.000000 -113.223043 -50.179205 -124.698194 4.558501 -11.071952 1.520916 -0.000000 0.000000 0.000000
0.000000 0.959774 0.000000 -0.000000 0.000000 69.282748 -17.735641 -51.192473 -77.831413 -51.666602 27.744930 13.908565 3.067873 -1.458591 69.321809 5.052903 -9.963033 -68.842035 -25.880879 7.540551 0.720754 14.836959 -8.616438 70.406737 6.735625 -5.500324 -1.978305 -0.000000 0.000000 0.000000 -0.000000 0.000000 0.000000 -0.000000 0.000000 0.000000 99.288846 -77.218561 25.663964 64.898556 -51.645997 153.931264 0.000000 0.000000 -0.000000 -117.888827 -48.838119 -129.101303 2.794469 -12.455960 5.294695 -0.000000 0.000000 0.000000
0.000000 0.954000 0.000000 -0.000000 0.000000 70.410919 -23.603658 -51.401250 -81.895735 -48.337794 26.858730 13.560636 0.323196 2.975179 70.402526 6.983490 -7.450299 -69.955677 -23.838872 6.321479 -0.036827 14.662776 -10.129674 71.717549 6.499427 -5.553713 -1.163827 0.000000 0.000000 0.000000 0.000000 0.000000 0.000000 0.000000 0.000000 0.000000 102.728266 -76.488773 26.125003 67.564231 -47.937852 157.734104 0.000000 0.000000 -0.000000 -121.059706 -46.866254 -131.575778 1.606346 -14.180988 8.948586 -0.000000 0.000000 -0.000000
0.000000 0.946816 0.000000 -0.000000 0.000000 71.590963 -28.732172 -50.804257 -85.460494 -44.784929 26.456717 12.910333 -2.261351 6.481561 71.719024 8.908147 -5.305661 -71.177384 -21.937458 5.234239 -0.649146 14.380775 -11.639731 73.064409 6.374512 -5.650960 -0.080609 -0.000000 0.000000 -0.000000 -0.000000 0.000000 -0.000000 -0.000000 0.000000 -0.000000 99.028927 -76.105061 19.256402 69.578662 -45.504438 157.288273 -0.000000 0.000000 0.000000 -122.923477 -44.395238 -132.149771 0.725831 -14.714971 11.163406 0.000000 0.000000 -0.000000
0.000000 0.941333 0.000000 -0.000000 0.000000 72.839569 -33.419748 -49.705907 -88.671978 -40.713711 26.061438 11.865589 -5.086476 9.847409 73.278040 11.065378 -3.029787 -72.546022 -19.918583 5.117593 -1.074002 14.216698 -14.352848 74.638706 6.331430 -5.728783 1.126703 -0.000000 0.000000 -0.000000 -0.000000 0.000000 -0.000000 -0.000000 0.000000 -0.000000 90.233080 -75.275387 6.711700 73.371786 -41.413202 156.811002 -0.000000 0.000000 -0.000000 -124.077662 -41.700911 -131.676216 0.007697 -14.744915 12.606716 0.000000 0.000000 0.000000
0.000000 0.934328 0.000000 -0.000000 0.000000 74.026185 -36.537463 -48.023323 -90.757677 -35.977523 25.345029 10.222965 -8.078489 12.729719 74.928793 13.164514 -0.991601 -73.911761 -18.147216 5.924492 -1.276044 14.274028 -17.812576 76.274396 6.339548 -5.782550 2.766907 0.000000 0.000000 -0.000000 0.000000 0.000000 -0.000000 0.000000 0.000000 -0.000000 75.576359 -73.269698 -12.441199 78.099848 -37.760646 153.980603 0.000000 0.000000 0.000000 -124.141052 -38.738749 -129.931491 -0.312575 -14.515993 12.983261 -0.000000 0.000000 0.000000
0.000000 0.922862 0.000000 -0.000000 0.000000 75.124017 -38.590738 -46.259578 -92.134813 -31.235497 24.267422 8.395559 -11.094694 15.299362 76.618747 15.376335 0.684319 -75.216398 -16.899157 7.223862 -1.386651 14.663013 -21.699871 77.949250 6.428622 -5.857251 4.564254 -0.000000 0.000000 0.000000 -0.000000 0.000000 0.000000 -0.000000 0.000000 0.000000 66.992440 -70.231838 -26.023647 81.946187 -31.593948 149.830363 -0.000000 0.000000 -0.000000 -123.587862 -36.003765 -127.834844 -0.223776 -14.644971 13.006006 -0.000000 0.000000 -0.000000
0.000000 0.900232 0.000000 -0.000000 0.000000 76.117333 -39.719851 -44.534109 -92.943222 -26.762918 22.794039 6.603479 -13.975406 17.572915 78.287973 17.694022 1.726131 -76.386023 -16.739991 9.167661 -1.476466 15.753746 -26.068336 79.786165 6.627196 -5.899946 6.418660 -0.000000 0.000000 -0.000000 -0.000000 0.000000 -0.000000 -0.000000 0.000000 -0.000000 63.477062 -66.104155 -35.594669 84.256568 -22.908217 141.880153 -0.000000 0.000000 0.000000 -122.902403 -33.256294 -125.462774 0.193737 -14.817215 12.430444 -0.000000 0.000000 -0.000000
0.000000 0.868841 0.000000 -0.000000 0.000000 76.955457 -40.096703 -42.888396 -93.269641 -22.589152 21.025893 4.942836 -16.693515 19.554835 79.852059 20.202882 2.192516 -77.346106 -17.491339 10.995926 -1.694775 17.390207 -30.265576 81.692112 6.928646 -5.778224 8.045931 -0.000000 0.000000 0.000000 -0.000000 0.000000 0.000000 -0.000000 0.000000 0.000000 62.793720 -60.342921 -43.546302 84.934164 -11.831036 127.046087 -0.000000 0.000000 -0.000000 -122.297204 -30.643617 -123.124041 0.729668 -15.156189 11.670048 -0.000000 0.000000 -0.000000
0.000000 0.838876 0.000000 -0.000000 0.000000 77.601808 -39.678958 -41.289314 -93.084153 -18.860945 19.259544 3.489151 -19.011190 20.917340 81.142570 22.602479 2.552480 -78.111983 -18.284528 12.262740 -1.993774 19.079540 -33.728412 83.434602 7.398631 -5.446978 9.211315 0.000000 0.000000 -0.000000 0.000000 0.000000 -0.000000 0.000000 0.000000 -0.000000 64.018513 -52.909310 -50.554346 82.880496 1.726768 101.026396 -0.000000 0.000000 -0.000000 -122.127106 -28.498246 -121.345971 1.179649 -15.373468 10.856646 -0.000000 0.000000 -0.000000
0.000000 0.810393 0.000000 -0.000000 0.000000 78.074076 -38.687682 -39.755986 -92.541521 -15.313202 17.169795 2.209629 -21.199594 22.134339 82.266749 24.948653 3.024593 -78.743339 -19.060506 13.048769 -2.366927 20.960347 -36.626039 85.081004 7.979199 -4.974851 10.019645 -0.000000 0.000000 0.000000 -0.000000 0.000000 0.000000 -0.000000 0.000000 0.000000 64.580639 -44.758895 -57.824176 77.901520 15.929560 64.537036 -0.000000 0.000000 -0.000000 -122.304902 -26.707028 -119.950056 1.522930 -15.428714 10.007270 -0.000000 0.000000 0.000000
0.000000 0.784652 0.000000 -0.000000 0.000000 78.391897 -36.881969 -38.300669 -91.602274 -12.193950 14.592857 1.255980 -23.028162 23.159639 83.172235 27.062300 3.485139 -79.230853 -19.943077 13.654329 -2.765609 23.046279 -39.051416 86.662265 8.637539 -4.463413 10.568296 -0.000000 0.000000 -0.000000 -0.000000 0.000000 -0.000000 -0.000000 0.000000 -0.000000 63.993046 -36.671059 -64.983103 67.025874 29.214478 23.514541 0.000000 0.000000 0.000000 -122.607774 -25.273020 -118.798172 1.995563 -15.695264 9.140436 -0.000000 0.000000 0.000000
0.000000 0.780804 0.000000 -0.000000 0.000000 78.380871 -34.972304 -37.510704 -90.592537 -10.454350 12.546007 0.850951 -24.004010 23.656583 83.479417 29.038529 3.763016 -79.355730 -21.403081 14.296741 -3.274402 25.633858 -41.193105 88.154446 9.400318 -3.750750 11.044867 0.000000 0.000000 0.000000 0.000000 0.000000 0.000000 0.000000 0.000000 0.000000 63.146736 -28.652844 -71.415745 50.050863 36.842658 2.990517 -0.000000 0.000000 -0.000000 -123.328535 -23.876828 -117.748509 2.354308 -15.623166 8.029101 -0.000000 0.000000 0.000000
0.000000 0.780895 0.000000 -0.000000 0.000000 78.136316 -33.310934 -37.218291 -89.640786 -9.903484 11.446984 0.779424 -24.121436 23.530931 83.232557 30.701207 3.648236 -79.138138 -23.704029 15.618060 -3.808331 29.020023 -43.398095 89.896143 10.126765 -2.965654 11.520018 0.000000 0.000000 -0.000000 0.000000 0.000000 -0.000000 0.000000 0.000000 -0.000000 61.844069 -21.705241 -76.704527 31.556409 37.105830 -1.464722 -0.000000 0.000000 0.000000 -123.492048 -22.517481 -116.377346 2.787060 -15.223244 6.334221 -0.000000 0.000000 0.000000
0.000000 0.776062 0.000000 -0.000000 0.000000 77.721678 -33.053952 -37.750012 -89.307049 -10.797737 12.633098 0.870468 -23.426986 22.379596 82.419041 32.049063 3.124989 -78.619406 -26.497620 17.060610 -4.394893 32.593680 -45.153979 91.583443 10.812375 -2.114165 11.896588 -0.000000 0.000000 0.000000 -0.000000 0.000000 0.000000 -0.000000 0.000000 0.000000 60.514798 -15.889702 -80.686208 17.437666 32.188645 -1.035120 0.000000 0.000000 -0.000000 -123.551555 -21.193723 -114.926113 3.402035 -14.810092 4.312014 -0.000000 0.000000 -0.000000
0.000000 0.757628 0.000000 -0.000000 0.000000 77.110077 -35.563065 -39.937926 -90.403698 -14.430712 18.053313 1.428092 -21.513508 19.289497 80.808383 32.881154 2.036991 -77.711221 -30.190853 19.343792 -4.847599 36.851837 -46.811431 93.522166 11.463871 -1.166842 12.277283 0.000000 0.000000 -0.000000 0.000000 0.000000 -0.000000 0.000000 0.000000 -0.000000 58.839544 -10.887159 -83.770392 7.846434 25.468320 -0.918216 -0.000000 0.000000 -0.000000 -123.581501 -19.842958 -113.431776 4.058784 -14.225668 2.119433 0.000000 0.000000 0.000000
0.000000 0.727558 0.000000 -0.000000 0.000000 76.487112 -40.158086 -43.053773 -92.896473 -20.591034 26.529701 3.073802 -18.604856 14.424865 78.862121 32.916300 0.071178 -76.508139 -35.200421 22.946487 -4.833796 42.154932 -48.385379 96.134261 11.987502 -0.328819 12.491866 0.000000 0.000000 -0.000000 0.000000 0.000000 -0.000000 0.000000 0.000000 -0.000000 56.808935 -6.537621 -86.160338 2.725846 19.253252 -0.924419 -0.000000 0.000000 -0.000000 -122.884769 -18.861392 -112.015192 4.675982 -13.385687 0.041036 0.000000 0.000000 0.000000
0.000000 0.698321 0.000000 -0.000000 0.000000 76.150376 -44.991011 -45.476890 -95.842434 -27.135039 34.671646 5.668623 -15.848551 9.425230 77.465214 31.514061 -3.080314 -75.281037 -41.756424 27.554525 -3.738899 47.851836 -49.129747 99.079005 12.587790 0.530928 12.349547 0.000000 0.000000 -0.000000 0.000000 0.000000 -0.000000 0.000000 0.000000 -0.000000 53.921946 -2.766854 -87.929235 0.498962 13.990386 -0.697672 0.000000 0.000000 -0.000000 -121.319002 -18.227584 -110.795757 5.336866 -12.704002 -1.653756 0.000000 0.000000 -0.000000
0.000000 0.672852 0.000000 -0.000000 0.000000 75.755500 -49.529435 -47.659561 -98.788464 -34.291488 41.545664 9.357005 -13.375849 4.951114 76.336421 29.259562 -6.937477 -73.942508 -49.354068 31.833119 -1.570995 52.684584 -48.796743 101.071854 13.318052 1.480404 12.356936 -0.000000 0.000000 -0.000000 -0.000000 0.000000 -0.000000 -0.000000 0.000000 -0.000000 50.316422 0.141746 -89.087288 -0.265289 9.543382 -0.414906 0.000000 0.000000 0.000000 -118.640545 -18.104035 -109.964816 5.856262 -12.709130 -2.316366 -0.000000 0.000000 -0.000000
0.000000 0.652496 0.000000 -0.000000 0.000000 75.318534 -53.535698 -49.538400 -101.523333 -41.555820 46.988547 13.724540 -11.362183 1.107763 75.428737 26.577359 -11.354041 -72.628605 -57.604800 35.559004 1.687430 56.298142 -47.955803 102.090273 14.121283 2.481550 12.480601 0.000000 0.000000 -0.000000 0.000000 0.000000 -0.000000 0.000000 0.000000 -0.000000 46.404316 1.871713 -89.512078 -0.669383 5.825097 -0.381826 0.000000 0.000000 -0.000000 -115.264753 -18.352941 -109.411336 6.253938 -12.793708 -2.477950 0.000000 0.000000 -0.000000
0.000000 0.635322 0.000000 -0.000000 0.000000 74.826625 -57.287144 -51.146423 -104.123505 -48.477519 51.126114 18.354727 -9.897220 -1.859292 74.665625 23.705305 -16.593246 -71.320747 -66.796178 38.290020 5.839519 58.580852 -46.499340 101.926536 15.017126 3.604781 12.744607 -0.000000 0.000000 0.000000 -0.000000 0.000000 0.000000 -0.000000 0.000000 0.000000 42.529869 2.727099 -89.507659 -0.820564 2.966755 -0.400527 0.000000 0.000000 0.000000 -111.647552 -18.744613 -109.038431 6.597953 -13.141132 -2.307486 -0.000000 0.000000 0.000000
0.000000 0.620812 0.000000 -0.000000 0.000000 74.208462 -60.826350 -52.641993 -106.593362 -55.731731 54.651906 23.575703 -8.650722 -4.641049 73.857243 20.502634 -22.507761 -70.086472 -76.942025 39.785422 10.959805 59.832275 -44.355516 100.609345 15.945417 4.835133 13.144339 -0.000000 0.000000 -0.000000 -0.000000 0.000000 -0.000000 -0.000000 0.000000 -0.000000 38.806141 2.943721 -89.219753 -0.783335 0.440742 -0.400320 -0.000000 0.000000 -0.000000 -107.697892 -19.118542 -108.547425 7.067477 -13.212029 -2.328310 0.000000 0.000000 0.000000
0.000000 0.608901 0.000000 -0.000000 0.000000 73.449812 -64.155914 -54.009950 -108.878873 -62.556102 57.262299 28.801878 -7.733947 -6.726157 72.994643 17.535734 -28.568834 -68.952218 -86.527631 40.546595 16.408249 60.105092 -42.568165 98.853257 16.879294 6.196866 13.740700 -0.000000 0.000000 -0.000000 -0.000000 0.000000 -0.000000 -0.000000 0.000000 -0.000000 35.517841 2.571151 -88.782504 -0.597392 -1.928004 -0.357699 0.000000 0.000000 0.000000 -103.747253 -19.308234 -107.962276 7.670108 -13.342897 -2.412593 0.000000 0.000000 -0.000000
0.000000 0.600995 0.000000 -0.000000 0.000000 72.625675 -66.785508 -55.098022 -110.579124 -67.555890 58.848577 32.856847 -7.217597 -7.852727 72.129639 14.843897 -34.546160 -67.986510 -94.902326 40.179330 21.320405 59.325667 -40.611577 96.426564 17.833536 7.661583 14.289144 -0.000000 0.000000 -0.000000 -0.000000 0.000000 -0.000000 -0.000000 0.000000 -0.000000 32.688767 2.151656 -88.302552 0.169373 -4.377184 -0.038293 -0.000000 0.000000 -0.000000 -99.777227 -19.428459 -107.274569 8.555221 -13.879997 -2.528524 -0.000000 0.000000 0.000000
0.000000 0.595983 0.000000 -0.000000 0.000000 71.995912 -68.767892 -55.864381 -111.878678 -71.178466 59.797019 35.870753 -6.889784 -8.507766 71.482828 12.636787 -40.711044 -67.291044 -101.694626 39.208104 25.157134 57.333279 -38.717171 93.742805 18.653309 8.941495 14.614201 -0.000000 0.000000 0.000000 -0.000000 0.000000 0.000000 -0.000000 0.000000 0.000000 30.609240 1.714639 -87.845111 1.343268 -6.964424 0.488945 0.000000 0.000000 0.000000 -95.805934 -19.381461 -106.371885 9.533808 -14.190689 -2.751066 0.000000 0.000000 -0.000000
0.000000 0.593223 0.000000 -0.000000 0.000000 71.701646 -70.234142 -56.192078 -112.858113 -73.348135 60.235432 37.746635 -6.691184 -8.681391 71.193179 11.316764 -45.688339 -66.921463 -106.223422 38.133613 27.354293 55.309484 -37.185023 91.695399 19.424424 9.991067 14.542145 -0.000000 0.000000 -0.000000 -0.000000 0.000000 -0.000000 -0.000000 0.000000 -0.000000 29.089981 1.494744 -87.447856 2.993816 -9.493325 1.280281 0.000000 0.000000 0.000000 -91.844658 -19.182301 -105.267591 10.363549 -13.889343 -3.028555 0.000000 0.000000 0.000000
0.000000 0.591050 0.000000 -0.000000 0.000000 71.580933 -71.417597 -56.426804 -113.757881 -74.385237 60.135186 38.598228 -6.603630 -8.336512 71.099141 10.661027 -49.988761 -66.599639 -109.843728 37.277711 28.812439 53.594384 -36.093155 90.270930 19.982614 10.748005 14.263590 -0.000000 0.000000 -0.000000 -0.000000 0.000000 -0.000000 -0.000000 0.000000 -0.000000 28.130176 1.367795 -87.038970 4.805739 -11.723399 2.206125 -0.000000 0.000000 -0.000000 -87.547233 -18.730331 -103.818327 11.211889 -13.477778 -3.303854 0.000000 0.000000 -0.000000
0.000000 0.590036 0.000000 -0.000000 0.000000 71.697972 -72.242599 -56.551008 -114.562437 -74.368984 59.439980 38.445703 -6.539296 -7.512410 71.268188 10.847091 -53.490458 -66.219514 -112.597689 36.696117 29.392361 52.295814 -35.453492 89.535235 20.266778 11.156409 13.740965 0.000000 0.000000 -0.000000 0.000000 0.000000 -0.000000 0.000000 0.000000 -0.000000 27.693540 1.249305 -86.567934 6.598949 -13.352707 3.186240 0.000000 0.000000 -0.000000 -82.936133 -18.023116 -102.096464 11.928550 -12.686460 -3.566589 0.000000 0.000000 0.000000
0.000000 0.590157 0.000000 -0.000000 0.000000 71.910479 -72.820772 -56.708104 -115.317983 -73.768857 58.249212 37.697024 -6.446103 -6.326005 71.553886 11.758965 -56.669929 -65.553847 -115.055914 36.388585 29.541735 51.217312 -35.187147 89.194459 20.342049 11.336895 13.034497 0.000000 0.000000 0.000000 0.000000 0.000000 0.000000 0.000000 0.000000 0.000000 27.575762 1.155201 -85.965375 8.547697 -14.643115 4.308095 -0.000000 0.000000 0.000000 -77.422321 -16.904555 -99.886961 12.691152 -11.385577 -3.860859 0.000000 0.000000 0.000000
0.000000 0.591409 0.000000 -0.000000 0.000000 72.307735 -73.117572 -56.782930 -115.990733 -72.549480 56.514975 36.369361 -6.319319 -4.725674 72.046718 13.414691 -59.655018 -64.592863 -117.306657 36.286998 29.212101 50.312852 -35.203271 89.256280 20.193129 11.236750 12.122587 0.000000 0.000000 -0.000000 0.000000 0.000000 -0.000000 0.000000 0.000000 -0.000000 27.774822 1.037043 -85.271453 10.762151 -15.649313 5.638494 -0.000000 0.000000 0.000000 -71.302638 -15.222294 -97.326898 14.146637 -10.001392 -4.307410 -0.000000 0.000000 0.000000
0.000000 0.594342 0.000000 -0.000000 0.000000 72.730903 -73.033549 -56.930711 -116.475177 -70.748574 54.246462 34.524084 -6.228659 -2.715150 72.583147 15.878196 -62.014159 -63.148499 -118.549192 36.216705 28.077099 49.273651 -35.216115 89.293595 19.774304 10.906642 11.114556 0.000000 0.000000 0.000000 0.000000 0.000000 0.000000 0.000000 0.000000 0.000000 28.309081 0.798109 -84.394995 13.267372 -16.538553 7.221975 0.000000 0.000000 -0.000000 -64.757498 -13.064345 -94.568007 16.071136 -8.050682 -4.802795 0.000000 0.000000 0.000000
0.000000 0.599300 0.000000 -0.000000 0.000000 73.263598 -72.446930 -56.984990 -116.629218 -68.543031 51.522747 32.392976 -6.121140 -0.422608 73.241001 19.230072 -63.416834 -61.313671 -118.424421 36.037039 25.783944 48.216826 -35.114101 89.380979 19.032505 10.309897 9.839272 -0.000000 0.000000 -0.000000 -0.000000 0.000000 -0.000000 -0.000000 0.000000 -0.000000 29.095177 0.431780 -83.240975 16.405948 -17.340830 9.257615 -0.000000 0.000000 0.000000 -57.654101 -10.704574 -91.691839 17.820105 -5.328687 -5.054871 0.000000 0.000000 0.000000
0.000000 0.605518 0.000000 -0.000000 0.000000 73.844318 -71.487960 -57.024958 -116.554179 -66.144230 48.320985 30.162979 -6.018590 2.186745 73.959291 23.278207 -63.967784 -59.184762 -116.938249 35.645248 22.437675 46.933960 -34.843251 89.359303 18.083888 9.469328 8.354029 0.000000 0.000000 0.000000 0.000000 0.000000 0.000000 0.000000 0.000000 0.000000 29.978532 -0.267551 -81.767374 20.005595 -18.302712 11.713192 0.000000 0.000000 0.000000 -50.001889 -8.176356 -88.734508 18.765767 -2.557297 -4.751297 -0.000000 0.000000 -0.000000
0.000000 0.612049 0.000000 -0.000000 0.000000 74.321838 -70.286233 -57.296248 -116.391935 -63.868314 44.563440 28.037693 -5.913989 5.137086 74.587372 26.943318 -63.793483 -57.362150 -114.789151 35.236316 19.088978 45.694356 -34.656554 89.299928 16.954469 8.451304 6.942363 -0.000000 0.000000 0.000000 -0.000000 0.000000 0.000000 -0.000000 0.000000 0.000000 30.841711 -1.443665 -80.103160 23.945560 -19.747804 14.602661 0.000000 0.000000 0.000000 -41.948962 -4.937708 -85.790867 19.589630 -0.640495 -4.040948 -0.000000 0.000000 -0.000000
0.000000 0.620262 0.000000 -0.000000 0.000000 74.644415 -68.513493 -57.645655 -115.732673 -61.152810 40.207705 25.760260 -5.963665 8.627417 75.094665 29.202073 -62.693172 -56.611755 -111.662679 34.870717 16.063333 44.376827 -34.594017 89.121156 15.674028 7.278677 5.612319 0.000000 0.000000 -0.000000 0.000000 0.000000 -0.000000 0.000000 0.000000 -0.000000 31.367774 -3.426868 -78.120677 27.527224 -21.841269 17.609540 -0.000000 0.000000 -0.000000 -33.551740 -0.664046 -82.968334 20.257636 -0.180933 -2.897499 0.000000 0.000000 0.000000
0.000000 0.634304 0.000000 -0.000000 0.000000 74.851474 -63.872538 -57.391425 -112.530672 -55.851841 34.567876 22.110385 -6.602031 13.099278 75.610304 29.334889 -60.504603 -57.492501 -107.249086 34.127266 13.370009 42.907074 -34.221084 88.647007 14.515664 6.065143 3.969625 -0.000000 0.000000 -0.000000 -0.000000 0.000000 -0.000000 -0.000000 0.000000 -0.000000 31.229123 -5.919134 -75.646176 30.434793 -24.317174 20.484215 0.000000 0.000000 -0.000000 -25.209191 4.278957 -80.284375 20.476541 -2.430960 -1.325262 -0.000000 0.000000 0.000000
0.000000 0.653993 0.000000 -0.000000 0.000000 74.488287 -56.515772 -56.448612 -106.673658 -48.723013 28.117925 17.868232 -7.923062 17.929623 75.740135 27.659506 -57.527131 -59.096575 -102.186597 33.382199 11.878915 41.198512 -33.686847 87.471799 13.333951 4.783469 2.080100 0.000000 0.000000 0.000000 0.000000 0.000000 0.000000 0.000000 0.000000 0.000000 30.402004 -8.340359 -72.586282 32.670508 -26.759250 22.987198 0.000000 0.000000 0.000000 -17.372545 9.105379 -77.456509 19.402315 -4.617874 0.077015 0.000000 0.000000 0.000000
0.000000 0.672762 0.000000 -0.000000 0.000000 73.306231 -47.998915 -54.893410 -99.346610 -40.957703 21.272579 13.901495 -9.893253 22.784207 75.304407 26.111804 -54.396016 -59.714656 -97.093649 32.286920 10.983116 39.075676 -32.577968 85.146467 12.230777 3.515091 -0.141094 -0.000000 0.000000 -0.000000 -0.000000 0.000000 -0.000000 -0.000000 0.000000 -0.000000 29.318587 -10.338123 -68.682220 34.786256 -28.812651 25.356211 0.000000 0.000000 -0.000000 -11.492349 13.364514 -73.979295 18.358470 -6.463054 0.987675 0.000000 0.000000 -0.000000
0.000000 0.691634 0.000000 -0.000000 0.000000 71.356319 -39.212097 -52.485309 -91.275858 -32.718402 14.529748 10.305480 -12.677799 27.132714 74.427330 25.420744 -50.834152 -59.120947 -91.469296 30.689241 9.839493 36.564517 -30.944915 81.806657 11.207480 2.276118 -2.931177 0.000000 0.000000 -0.000000 0.000000 0.000000 -0.000000 0.000000 0.000000 -0.000000 28.377496 -11.785391 -63.690119 36.833440 -30.269881 27.476094 -0.000000 0.000000 -0.000000 -8.161609 16.936237 -69.286145 18.361556 -6.749534 1.602628 -0.000000 0.000000 -0.000000
0.000000 0.709206 0.000000 -0.000000 0.000000 68.658649 -31.621257 -49.488942 -83.530039 -24.430161 8.746435 7.271344 -16.231739 30.546683 73.118665 25.611879 -46.961252 -57.380099 -85.629251 28.680099 8.443115 33.882265 -28.962809 77.655198 10.203832 1.176771 -6.285813 -0.000000 0.000000 0.000000 -0.000000 0.000000 0.000000 -0.000000 0.000000 0.000000 27.983056 -12.947321 -57.434646 38.808262 -31.582990 29.545144 -0.000000 0.000000 -0.000000 -7.129757 20.424793 -63.141835 19.775091 -5.515587 2.239142 0.000000 0.000000 0.000000
0.000000 0.725857 0.000000 -0.000000 0.000000 65.455097 -25.729727 -46.337091 -76.619548 -16.713952 4.409585 4.842389 -19.978752 32.687835 71.368759 25.154071 -42.866811 -55.444226 -79.484860 26.834413 7.549881 31.067530 -26.862561 73.050499 9.538464 0.389106 -10.316537 0.000000 0.000000 -0.000000 0.000000 0.000000 -0.000000 0.000000 0.000000 -0.000000 27.829525 -13.747096 -50.015576 41.243479 -33.260415 32.034350 -0.000000 0.000000 -0.000000 -8.142002 24.058398 -55.570870 20.047396 -2.686712 2.717237 -0.000000 0.000000 0.000000
0.000000 0.740544 0.000000 -0.000000 0.000000 62.135734 -21.243833 -43.710359 -70.739175 -10.730151 1.404914 3.186145 -22.931224 33.694178 69.165017 24.441185 -39.232241 -53.307834 -73.539596 25.089323 6.902674 28.116090 -24.608526 68.388111 9.211640 -0.015655 -14.543929 -0.000000 0.000000 0.000000 -0.000000 0.000000 0.000000 -0.000000 0.000000 0.000000 28.213600 -14.801693 -42.019563 43.483241 -35.645411 35.025416 0.000000 0.000000 0.000000 -10.685858 27.205887 -47.376390 20.051153 -0.785070 3.222450 -0.000000 0.000000 -0.000000
0.000000 0.751652 0.000000 -0.000000 0.000000 58.682762 -17.813347 -42.587929 -65.673520 -7.814983 0.706770 2.312999 -23.970548 33.293517 65.946656 23.344790 -36.348495 -50.923082 -68.022917 23.520371 6.674492 25.101269 -22.024440 63.644066 9.271611 0.122030 -17.539525 -0.000000 0.000000 0.000000 -0.000000 0.000000 0.000000 -0.000000 0.000000 0.000000 28.800009 -16.157922 -34.880477 46.049787 -39.015844 39.196046 -0.000000 0.000000 0.000000 -14.182280 29.910066 -40.068047 21.597816 -0.507164 4.000436 0.000000 0.000000 0.000000
0.000000 0.762228 0.000000 -0.000000 0.000000 55.166614 -14.951050 -43.013829 -61.086461 -7.870501 2.138701 2.045930 -23.051975 31.863510 61.829662 21.699738 -34.516739 -48.351483 -62.844207 22.457554 6.971483 21.894367 -19.139816 58.902202 9.595182 0.988494 -18.708156 0.000000 0.000000 -0.000000 0.000000 0.000000 -0.000000 0.000000 0.000000 -0.000000 29.470615 -18.055286 -29.202433 47.948953 -41.931359 42.847906 0.000000 0.000000 -0.000000 -16.545992 31.825529 -34.884489 21.809154 -0.478149 4.634639 0.000000 0.000000 -0.000000
0.000000 0.775399 0.000000 -0.000000 0.000000 51.358114 -11.430722 -44.872949 -56.091057 -11.101568 5.309256 2.572228 -20.083160 29.373920 56.672698 19.826263 -33.841968 -45.271319 -58.056768 22.518268 7.788649 18.497078 -16.421905 54.050123 10.023431 2.576787 -18.619008 -0.000000 0.000000 0.000000 -0.000000 0.000000 0.000000 -0.000000 0.000000 0.000000 30.169466 -20.377540 -24.244957 49.323234 -44.439962 45.854248 0.000000 0.000000 0.000000 -19.812764 35.075197 -30.372154 25.587581 -2.961420 6.206745 -0.000000 0.000000 -0.000000
0.000000 0.794783 0.000000 -0.000000 0.000000 47.314972 -6.542327 -46.594310 -50.134654 -15.846802 8.980637 3.653647 -16.066991 25.918274 51.035374 17.289747 -34.629406 -41.887732 -53.091858 24.375182 9.125340 14.474140 -13.982915 49.099338 10.502112 5.123235 -18.091689 -0.000000 0.000000 -0.000000 -0.000000 0.000000 -0.000000 -0.000000 0.000000 -0.000000 30.973583 -22.653310 -19.358097 50.213794 -46.704984 48.151873 -0.000000 0.000000 -0.000000 -22.465704 36.407696 -26.574187 28.482056 -5.229728 7.672590 -0.000000 0.000000 -0.000000
0.000000 0.820138 0.000000 -0.000000 0.000000 43.507293 -1.397434 -47.172217 -44.117438 -20.466492 13.071444 4.776473 -12.054176 21.330380 45.785479 15.338660 -35.431450 -38.581025 -47.581756 25.346346 9.405770 10.387494 -10.837142 44.495280 10.809901 7.943640 -17.819217 0.000000 0.000000 0.000000 0.000000 0.000000 0.000000 0.000000 0.000000 0.000000 31.855119 -24.207266 -14.674833 50.715556 -48.858446 49.928239 0.000000 0.000000 0.000000 -24.656822 36.642630 -23.099274 31.022102 -7.750103 9.090125 0.000000 0.000000 -0.000000
0.000000 0.841875 0.000000 -0.000000 0.000000 40.323394 2.925653 -46.275766 -39.072988 -23.354011 16.031584 5.440692 -9.222592 17.115225 41.714138 14.364226 -35.281657 -35.733904 -42.163251 24.564385 8.573829 7.032876 -7.428566 40.780522 10.776857 9.906716 -17.538520 -0.000000 0.000000 0.000000 -0.000000 0.000000 0.000000 -0.000000 0.000000 0.000000 32.431968 -24.886352 -11.168236 51.240430 -50.517670 51.263876 -0.000000 0.000000 -0.000000 -26.175699 36.464838 -20.260977 32.232550 -9.355225 9.978881 0.000000 0.000000 -0.000000
0.000000 0.863422 0.000000 -0.000000 0.000000 37.413232 6.400344 -44.135970 -34.816230 -24.578551 17.742506 5.562052 -7.313538 13.548263 38.283135 13.331450 -33.568778 -33.375625 -35.405194 22.320387 6.796936 3.672160 -3.911648 37.538675 10.674067 11.430010 -17.384819 -0.000000 0.000000 -0.000000 -0.000000 0.000000 -0.000000 -0.000000 0.000000 -0.000000 32.563290 -25.149049 -8.160621 51.525912 -51.940401 52.011942 -0.000000 0.000000 0.000000 -27.301606 36.021818 -17.634039 33.164992 -11.046306 10.740081 -0.000000 0.000000 0.000000
0.000000 0.879216 0.000000 -0.000000 0.000000 34.766145 9.122156 -41.974934 -31.260450 -25.682918 19.611426 5.681613 -5.603635 9.963027 35.254964 12.500494 -31.375647 -31.242399 -29.071482 19.308927 5.033678 0.689126 -0.566177 34.769550 10.509969 12.674773 -16.985329 0.000000 0.000000 0.000000 0.000000 0.000000 0.000000 0.000000 0.000000 0.000000 32.550626 -25.222483 -5.805381 52.052570 -53.140166 52.848140 -0.000000 0.000000 -0.000000 -28.011006 35.285151 -15.629020 33.764222 -12.345129 11.276805 -0.000000 0.000000 0.000000
0.000000 0.893054 0.000000 -0.000000 0.000000 32.460444 11.036937 -39.689254 -28.466444 -25.968835 20.784658 5.561683 -4.478805 7.147240 32.740299 11.902821 -29.398338 -29.327485 -23.965384 16.257357 3.709338 -1.742764 2.395959 32.496891 10.292584 13.703873 -16.673716 -0.000000 0.000000 -0.000000 -0.000000 0.000000 -0.000000 -0.000000 0.000000 -0.000000 32.569975 -25.141922 -3.769043 52.450154 -54.252569 53.617377 -0.000000 0.000000 -0.000000 -28.473977 34.459678 -13.892860 34.105901 -13.472232 11.664274 -0.000000 0.000000 -0.000000
0.000000 0.904530 0.000000 -0.000000 0.000000 30.567529 12.190085 -37.672245 -26.395195 -25.764164 21.726269 5.338809 -3.773074 4.890896 30.728724 11.598971 -28.046724 -27.661246 -20.625485 13.966553 2.947679 -3.348224 4.576997 30.701373 10.048741 14.477848 -16.295263 -0.000000 0.000000 0.000000 -0.000000 0.000000 0.000000 -0.000000 0.000000 0.000000 32.693182 -25.112851 -2.172074 52.932784 -55.240027 54.561263 -0.000000 0.000000 0.000000 -28.802480 33.747605 -12.581846 34.223700 -14.164021 11.888574 -0.000000 0.000000 0.000000
