HIERARCHY
ROOT Hips
{
  OFFSET 0 0 0
  CHANNELS 6 Xposition Yposition Zposition Zrotation Xrotation Yrotation
  JOINT RightUpLeg
  {
    OFFSET -0.105 0 0
    CHANNELS 3 Zrotation Xrotation Yrotation
    JOINT RightLeg
    {
      OFFSET 0 -0.43 0
      CHANNELS 3 Zrotation Xrotation Yrotation
      JOINT RightFoot
      {
        OFFSET 0 -0.43 0
        CHANNELS 3 Zrotation Xrotation Yrotation
        End Site
        {
          OFFSET 0 -0.07 0.18
        }
      }
    }
  }
  JOINT LeftUpLeg
  {
    OFFSET 0.105 0 0
    CHANNELS 3 Zrotation Xrotation Yrotation
    JOINT LeftLeg
    {
      OFFSET 0 -0.43 0
      CHANNELS 3 Zrotation Xrotation Yrotation
      JOINT LeftFoot
      {
        OFFSET 0 -0.43 0
        CHANNELS 3 Zrotation Xrotation Yrotation
        End Site
        {
          OFFSET 0 -0.07 0.18
        }
      }
    }
  }
  JOINT Spine
  {
    OFFSET 0 0.19 0
    CHANNELS 3 Zrotation Xrotation Yrotation
    JOINT Chest
    {
      OFFSET 0 0.18 0
      CHANNELS 3 Zrotation Xrotation Yrotation
      JOINT Neck
      {
        OFFSET 0 0.17 0
        CHANNELS 3 Zrotation Xrotation Yrotation
        JOINT Head
        {
          OFFSET 0 0.15 0
          CHANNELS 3 Zrotation Xrotation Yrotation
          End Site
          {
            OFFSET 0 0.12 0
          }
        }
      }
      JOINT LeftArm
      {
        OFFSET 0.19 0.17 0.04
        CHANNELS 3 Zrotation Xrotation Yrotation
        JOINT LeftForeArm
        {
          OFFSET 0 -0.34 0
          CHANNELS 3 Zrotation Xrotation Yrotation
          JOINT LeftHand
          {
            OFFSET 0 -0.38 0
            CHANNELS 3 Zrotation Xrotation Yrotation
            End Site
            {
              OFFSET 0 -0.08 0
            }
          }
        }
      }
      JOINT RightArm
      {
        OFFSET -0.19 0.17 0.04
        CHANNELS 3 Zrotation Xrotation Yrotation
        JOINT RightForeArm
        {
          OFFSET 0 -0.34 0
          CHANNELS 3 Zrotation Xrotation Yrotation
          JOINT RightHand
          {
            OFFSET 0 -0.38 0
            CHANNELS 3 Zrotation Xrotation Yrotation
            End Site
            {
              OFFSET 0 -0.08 0
            }
          }
        }
      }
    }
  }
}
MOTION
Frames: 13
Frame Time: 0.04000000
0.000000 0.796145 0.000000 -0.000000 0.000000 -13.039269 -23.970096 -27.592179 7.071408 23.280094 49.466676 -2.112469 7.437678 -27.242119 -11.234625 16.613557 24.174561 9.457516 -4.508636 21.339679 -4.068093 -17.895045 -41.441215 -19.856116 -9.720102 18.040013 13.102144 -0.000000 0.000000 0.000000 -0.000000 0.000000 0.000000 -0.000000 0.000000 0.000000 33.723789 -1.845683 7.849522 -66.667078 -51.895033 -25.632009 -0.000000 0.000000 -0.000000 -28.659599 1.486005 -3.200981 -0.528778 -23.103509 -7.248093 0.000000 0.000000 -0.000000
0.000000 0.809090 0.000000 -0.000000 0.000000 -12.374785 -21.536478 -23.552831 7.833588 24.516748 47.191797 -3.521194 3.425269 -28.472819 -11.505500 15.445445 25.425982 8.870161 -3.460592 19.416218 -3.616498 -18.010685 -41.171593 -19.187682 -9.133574 16.834762 12.400529 0.000000 0.000000 -0.000000 0.000000 0.000000 -0.000000 0.000000 0.000000 -0.000000 33.365452 -4.662325 7.889754 -83.000607 -54.371877 -35.742001 -0.000000 0.000000 -0.000000 -29.192602 1.602690 -3.047086 0.335822 -21.916137 -6.655567 -0.000000 0.000000 0.000000
0.000000 0.821670 0.000000 -0.000000 0.000000 -11.771121 -18.867016 -18.966970 8.591481 24.980624 44.050791 -4.325864 -0.626784 -29.317653 -11.935075 14.094559 26.225675 8.472139 -4.759030 17.834051 -3.246790 -14.872399 -40.897776 -17.343518 -8.695907 15.478674 11.393088 0.000000 0.000000 -0.000000 0.000000 0.000000 -0.000000 0.000000 0.000000 -0.000000 33.097435 -7.254520 8.225890 -99.625621 -54.462519 -45.562319 -0.000000 0.000000 0.000000 -29.575492 1.847081 -2.387631 1.002781 -21.050493 -6.242669 0.000000 0.000000 -0.000000
0.000000 0.834825 0.000000 -0.000000 0.000000 -11.164456 -15.699954 -14.541452 9.148978 23.664643 40.954277 -4.318136 -3.756183 -29.853503 -12.166111 11.796393 26.434219 8.384638 -7.353812 16.321374 -2.908413 -8.951644 -40.229431 -14.448686 -8.296713 14.148377 9.961205 -0.000000 0.000000 -0.000000 -0.000000 0.000000 -0.000000 -0.000000 0.000000 -0.000000 32.548956 -10.091113 8.975107 -114.575320 -53.279590 -53.710440 0.000000 0.000000 -0.000000 -29.837064 2.160368 -1.234809 1.001710 -20.822860 -6.232087 -0.000000 0.000000 -0.000000
0.000000 0.851493 0.000000 -0.000000 0.000000 -10.363522 -12.117004 -10.090789 9.289773 21.190926 37.430652 -3.913270 -6.306948 -29.829356 -12.044978 9.085709 25.954039 8.265594 -11.121124 15.641811 -2.730831 -0.943265 -39.609350 -10.703211 -8.097416 12.933483 8.242318 -0.000000 0.000000 0.000000 -0.000000 0.000000 0.000000 -0.000000 0.000000 0.000000 31.965779 -13.635368 9.995248 -125.012420 -51.268542 -57.293295 -0.000000 0.000000 -0.000000 -29.827816 2.447059 0.055854 0.541858 -20.669133 -6.377208 -0.000000 0.000000 0.000000
0.000000 0.870036 0.000000 -0.000000 0.000000 -9.638153 -8.376040 -5.980192 9.199857 18.531066 33.638529 -3.502783 -8.644872 -29.250066 -11.898004 6.012950 24.869274 8.311150 -17.193126 16.601825 -2.590675 10.372221 -39.538256 -5.901347 -8.113948 11.879847 6.595955 -0.000000 0.000000 0.000000 -0.000000 0.000000 0.000000 -0.000000 0.000000 0.000000 31.463187 -17.552862 11.150653 -130.062665 -49.626073 -56.047528 -0.000000 0.000000 -0.000000 -29.662179 2.679135 1.340059 -0.228622 -20.552611 -6.626477 0.000000 0.000000 0.000000
0.000000 0.887130 0.000000 -0.000000 0.000000 -9.351252 -4.995092 -2.676212 9.234500 16.429135 30.135579 -3.237366 -10.826414 -28.354871 -12.093863 2.302235 23.306498 8.876380 -21.651813 18.765264 -1.807424 20.256943 -39.959040 -1.919279 -8.315617 11.091761 5.461236 -0.000000 0.000000 0.000000 -0.000000 0.000000 0.000000 -0.000000 0.000000 0.000000 30.622422 -22.034552 12.319758 -131.141835 -47.943137 -50.576351 -0.000000 0.000000 0.000000 -29.557669 2.836924 2.468042 -1.381549 -20.482183 -7.034039 -0.000000 0.000000 0.000000
0.000000 0.901639 0.000000 -0.000000 0.000000 -9.479978 -2.027801 -0.015784 9.479698 14.849842 26.985590 -3.055498 -12.886248 -27.294706 -12.621234 -1.757109 21.033074 9.806188 -25.607316 22.135051 -0.100448 29.834945 -40.817002 1.841414 -8.692992 10.446726 4.799561 0.000000 0.000000 -0.000000 0.000000 0.000000 -0.000000 0.000000 0.000000 -0.000000 29.216630 -26.977244 13.311594 -129.666133 -46.672385 -43.083782 0.000000 0.000000 -0.000000 -29.201568 3.085453 3.558715 -3.497717 -20.530957 -7.779069 0.000000 0.000000 -0.000000
0.000000 0.910620 0.000000 -0.000000 0.000000 -9.801474 -0.139939 1.806776 9.803680 14.624281 24.522282 -3.011129 -15.013096 -26.266506 -13.323388 -5.546916 18.176255 10.689443 -28.236539 26.010283 2.487418 37.386453 -41.923193 4.969538 -9.099727 9.873842 4.347660 0.000000 0.000000 0.000000 0.000000 0.000000 0.000000 0.000000 0.000000 0.000000 27.237314 -31.879290 13.960327 -126.227621 -45.667581 -34.626254 0.000000 0.000000 0.000000 -28.920710 3.419608 4.631392 -6.532570 -20.684373 -8.922875 0.000000 0.000000 -0.000000
0.000000 0.912751 0.000000 -0.000000 0.000000 -10.265311 0.380508 2.812782 10.255969 15.837050 22.842014 -3.038115 -17.055176 -25.431594 -14.140995 -9.430322 15.316724 11.536181 -28.931962 28.667756 5.077870 42.317720 -42.357805 6.791998 -9.510083 9.292089 4.075427 -0.000000 0.000000 -0.000000 -0.000000 0.000000 -0.000000 -0.000000 0.000000 -0.000000 24.369961 -37.201518 14.094729 -122.244954 -45.318482 -26.893480 -0.000000 0.000000 -0.000000 -28.801508 3.696391 5.627592 -10.385189 -20.818996 -10.434105 -0.000000 0.000000 0.000000
0.000000 0.906978 0.000000 -0.000000 0.000000 -10.703668 -0.275119 3.215871 10.711391 17.990493 22.082344 -3.112654 -18.760291 -25.129693 -14.920863 -13.226902 12.982209 12.215235 -26.455199 29.491059 6.577434 43.176355 -42.064169 6.598198 -9.887111 8.626870 3.962548 0.000000 0.000000 0.000000 0.000000 0.000000 0.000000 0.000000 0.000000 0.000000 21.346014 -42.723214 13.721752 -118.372477 -45.433564 -19.264165 -0.000000 0.000000 0.000000 -28.910167 3.961593 6.424865 -14.907831 -21.094947 -12.369544 -0.000000 0.000000 -0.000000
0.000000 0.895196 0.000000 -0.000000 0.000000 -11.135596 -1.767769 3.121686 11.183769 20.931528 22.265509 -3.326444 -20.332123 -25.451732 -15.773549 -16.316252 11.513130 12.791536 -22.482049 29.224605 6.970598 41.598540 -41.568032 5.272032 -10.172769 7.900474 4.136714 -0.000000 0.000000 0.000000 -0.000000 0.000000 0.000000 -0.000000 0.000000 0.000000 18.769720 -49.008739 13.088774 -113.334795 -46.005582 -9.705005 -0.000000 0.000000 0.000000 -29.584969 4.037226 6.825443 -19.859374 -21.496739 -14.722575 0.000000 0.000000 -0.000000
0.000000 0.879635 0.000000 -0.000000 0.000000 -11.463977 -4.160225 2.449457 11.552956 24.702314 23.196398 -3.700402 -21.698504 -26.163996 -16.563961 -18.560405 10.795754 13.233116 -18.109692 28.482035 6.724741 38.763572 -41.139382 3.577410 -10.388888 7.164504 4.636173 0.000000 0.000000 -0.000000 0.000000 0.000000 -0.000000 0.000000 0.000000 -0.000000 17.825704 -56.195618 12.789179 -107.128727 -47.654873 1.016636 -0.000000 0.000000 -0.000000 -31.168320 3.794064 6.628906 -24.962791 -22.020478 -17.503615 -0.000000 0.000000 0.000000
