HIERARCHY
ROOT Hips
{
  OFFSET 0 0 0
  CHANNELS 6 Xposition Yposition Zposition Zrotation Xrotation Yrotation
  JOINT RightUpLeg
  {
    OFFSET -0.105 0 0
    CHANNELS 3 Zrotation Xrotation Yrotation
    JOINT RightLeg
    {
      OFFSET 0 -0.43 0
      CHANNELS 3 Zrotation Xrotation Yrotation
      JOINT RightFoot
      {
        OFFSET 0 -0.43 0
        CHANNELS 3 Zrotation Xrotation Yrotation
        End Site
        {
          OFFSET 0 -0.07 0.18
        }
      }
    }
  }
  JOINT LeftUpLeg
  {
    OFFSET 0.105 0 0
    CHANNELS 3 Zrotation Xrotation Yrotation
    JOINT LeftLeg
    {
      OFFSET 0 -0.43 0
      CHANNELS 3 Zrotation Xrotation Yrotation
      JOINT LeftFoot
      {
        OFFSET 0 -0.43 0
        CHANNELS 3 Zrotation Xrotation Yrotation
        End Site
        {
          OFFSET 0 -0.07 0.18
        }
      }
    }
  }
  JOINT Spine
  {
    OFFSET 0 0.19 0
    CHANNELS 3 Zrotation Xrotation Yrotation
    JOINT Chest
    {
      OFFSET 0 0.18 0
      CHANNELS 3 Zrotation Xrotation Yrotation
      JOINT Neck
      {
        OFFSET 0 0.17 0
        CHANNELS 3 Zrotation Xrotation Yrotation
        JOINT Head
        {
          OFFSET 0 0.15 0
          CHANNELS 3 Zrotation Xrotation Yrotation
          End Site
          {
            OFFSET 0 0.12 0
          }
        }
      }
      JOINT LeftArm
      {
        OFFSET 0.19 0.17 0.04
        CHANNELS 3 Zrotation Xrotation Yrotation
        JOINT LeftForeArm
        {
          OFFSET 0 -0.34 0
          CHANNELS 3 Zrotation Xrotation Yrotation
          JOINT LeftHand
          {
            OFFSET 0 -0.38 0
            CHANNELS 3 Zrotation Xrotation Yrotation
            End Site
            {
              OFFSET 0 -0.08 0
            }
          }
        }
      }
      JOINT RightArm
      {
        OFFSET -0.19 0.17 0.04
        CHANNELS 3 Zrotation Xrotation Yrotation
        JOINT RightForeArm
        {
          OFFSET 0 -0.34 0
          CHANNELS 3 Zrotation Xrotation Yrotation
          JOINT RightHand
          {
            OFFSET 0 -0.38 0
            CHANNELS 3 Zrotation Xrotation Yrotation
            End Site
            {
              OFFSET 0 -0.08 0
            }
          }
        }
      }
    }
  }
}
MOTION
Frames: 102
Frame Time: 0.04000000
0.000000 1.193203 0.000000 -0.000000 0.000000 -4.342835 -23.855611 2.395390 4.848908 3.756165 21.385680 3.951657 20.102454 -25.576940 0.264982 13.170901 14.375027 2.674644 -10.308435 8.467800 -1.502044 -3.490575 -21.893179 -5.018159 -7.059910 11.557022 6.384602 -0.000000 0.000000 0.000000 -0.000000 0.000000 0.000000 -0.000000 0.000000 0.000000 39.329415 30.781924 -6.669668 -20.649013 -43.366368 -2.952400 -0.000000 0.000000 0.000000 -25.227349 11.781876 -0.816153 15.667650 -44.381273 -3.296181 0.000000 0.000000 0.000000
0.000000 1.170446 0.000000 -0.000000 0.000000 -5.650669 -26.109459 -0.181283 5.608634 5.588863 27.580361 5.204882 20.585080 -29.923757 -0.094002 13.586527 14.591867 3.903113 -9.406144 10.576445 -1.608879 -5.182396 -23.877870 -6.747164 -7.419460 11.541619 6.384494 -0.000000 0.000000 -0.000000 -0.000000 0.000000 -0.000000 -0.000000 0.000000 -0.000000 42.696827 32.386746 -6.449030 -24.354802 -43.324114 -4.354810 -0.000000 0.000000 0.000000 -25.909837 11.244828 0.400721 12.958762 -43.606709 -4.880498 -0.000000 0.000000 -0.000000
0.000000 1.145196 0.000000 -0.000000 0.000000 -7.019200 -28.593495 -3.204411 6.202401 8.510257 34.580467 6.378181 20.258855 -34.751922 -0.619572 13.932402 14.401815 5.250320 -7.853444 13.657340 -1.802958 -7.506210 -26.386149 -8.781191 -7.778692 11.547997 6.523561 -0.000000 0.000000 0.000000 -0.000000 0.000000 0.000000 -0.000000 0.000000 0.000000 46.079102 33.392121 -6.178922 -28.202983 -42.793005 -5.787031 -0.000000 0.000000 0.000000 -26.442221 10.673766 1.509577 9.721963 -42.960910 -6.712054 -0.000000 0.000000 -0.000000
0.000000 1.118687 0.000000 -0.000000 0.000000 -8.512237 -31.499653 -6.509506 6.674568 14.010174 41.360636 6.546227 17.958527 -39.258514 -2.061025 13.903588 13.867928 6.813133 -5.997061 17.191017 -2.110113 -9.776033 -28.979404 -11.044351 -8.151948 11.546985 6.788186 0.000000 0.000000 0.000000 0.000000 0.000000 0.000000 0.000000 0.000000 0.000000 49.026623 33.780133 -5.612250 -31.858479 -41.717638 -7.091183 0.000000 0.000000 -0.000000 -26.792812 10.081240 2.602168 5.934145 -42.330154 -8.773433 0.000000 0.000000 0.000000
0.000000 1.091870 0.000000 -0.000000 0.000000 -10.015665 -34.756876 -9.974930 6.886703 22.204659 47.226656 4.999884 13.841941 -42.843996 -4.562488 13.427910 13.036775 8.474415 -3.509957 20.874724 -2.555872 -12.212107 -31.472761 -13.468743 -8.471566 11.503581 6.994230 -0.000000 0.000000 -0.000000 -0.000000 0.000000 -0.000000 -0.000000 0.000000 -0.000000 51.452836 33.600841 -4.663443 -35.230604 -39.864448 -8.187904 -0.000000 0.000000 -0.000000 -26.946540 9.433360 3.745412 1.799101 -41.577177 -10.901373 0.000000 0.000000 0.000000
0.000000 1.069120 0.000000 -0.000000 0.000000 -11.377658 -37.905464 -13.247919 6.810298 31.523756 51.262424 1.917568 9.189763 -44.879874 -7.575653 12.584856 11.849657 10.066408 0.090400 24.730852 -3.277035 -15.335846 -33.885665 -16.075030 -8.727816 11.423065 7.100956 0.000000 0.000000 0.000000 0.000000 0.000000 0.000000 0.000000 0.000000 0.000000 53.255455 32.636737 -3.280043 -38.081630 -37.113052 -8.902110 0.000000 0.000000 -0.000000 -26.787712 8.831675 4.867572 -2.240011 -40.555625 -12.759174 -0.000000 0.000000 -0.000000
0.000000 1.049730 0.000000 -0.000000 0.000000 -12.669267 -40.931634 -16.343697 6.533891 40.546320 53.613311 -1.756006 5.215032 -45.568177 -10.477527 11.541971 10.589015 11.596066 4.982363 28.159148 -4.401036 -19.520447 -35.860719 -19.040864 -8.897593 11.367638 7.111171 -0.000000 0.000000 0.000000 -0.000000 0.000000 0.000000 -0.000000 0.000000 0.000000 54.317664 31.345013 -1.552830 -40.126542 -33.914550 -9.159121 0.000000 0.000000 0.000000 -26.229342 8.398568 6.069576 -6.487141 -39.574138 -14.542521 0.000000 0.000000 -0.000000
0.000000 1.030197 0.000000 -0.000000 0.000000 -13.884276 -43.917454 -19.190387 6.085840 47.673773 54.478238 -4.721829 2.986459 -45.094069 -12.644138 10.615590 9.341773 13.014473 10.401736 31.091717 -5.933607 -24.217807 -37.377522 -22.185886 -8.915065 11.407557 7.098525 -0.000000 0.000000 -0.000000 -0.000000 0.000000 -0.000000 -0.000000 0.000000 -0.000000 54.754004 29.675107 0.429028 -41.974203 -30.597128 -9.252862 0.000000 0.000000 0.000000 -25.801924 7.882823 7.153682 -9.570516 -38.500787 -15.623049 -0.000000 0.000000 0.000000
0.000000 1.012182 0.000000 -0.000000 0.000000 -14.975071 -47.045307 -21.589424 5.486524 52.306932 53.945092 -6.202241 2.642582 -43.576714 -13.918579 10.051144 8.304261 14.243536 15.089308 33.242911 -7.539237 -28.358402 -38.329720 -25.011529 -8.762704 11.578288 7.001065 0.000000 0.000000 -0.000000 0.000000 0.000000 -0.000000 0.000000 0.000000 -0.000000 54.369894 27.980562 2.529657 -43.934664 -27.945737 -9.423548 -0.000000 0.000000 -0.000000 -25.635087 7.309830 8.132104 -11.689108 -37.686605 -16.279208 -0.000000 0.000000 -0.000000
0.000000 0.998027 0.000000 -0.000000 0.000000 -15.971774 -50.158680 -23.488981 4.857449 54.457976 52.224647 -6.164677 3.822476 -41.172067 -14.535605 9.834077 7.543236 15.321899 18.805782 34.606804 -8.983960 -31.758192 -38.757579 -27.399418 -8.428850 11.883601 6.739866 -0.000000 0.000000 -0.000000 -0.000000 0.000000 -0.000000 -0.000000 0.000000 -0.000000 53.324876 26.395350 4.726477 -46.337929 -26.040197 -9.774693 0.000000 0.000000 0.000000 -25.633389 6.633136 9.103725 -13.260931 -37.156991 -16.721584 0.000000 0.000000 -0.000000
0.000000 0.985014 0.000000 -0.000000 0.000000 -16.980573 -53.295909 -24.964647 4.303011 54.800698 49.613448 -5.035859 6.104530 -38.193842 -14.865296 10.006083 7.183101 16.350930 21.052391 35.358592 -10.038783 -34.083994 -38.897131 -29.335773 -7.921958 12.269026 6.365287 -0.000000 0.000000 -0.000000 -0.000000 0.000000 -0.000000 -0.000000 0.000000 -0.000000 51.674613 25.029779 6.963797 -49.806195 -25.386050 -10.561304 -0.000000 0.000000 0.000000 -25.880338 5.764897 10.097767 -14.417588 -36.816308 -17.020973 -0.000000 0.000000 -0.000000
0.000000 0.977774 0.000000 -0.000000 0.000000 -17.948183 -56.139031 -26.048283 3.884241 54.756010 46.407147 -3.867145 8.258293 -34.952586 -15.344047 10.467811 7.206162 17.287207 22.005240 35.436572 -10.591902 -35.483762 -38.661894 -30.756068 -7.271141 12.794066 5.919165 -0.000000 0.000000 -0.000000 -0.000000 0.000000 -0.000000 -0.000000 0.000000 -0.000000 49.686501 23.758328 9.193969 -53.125974 -25.364767 -11.307593 -0.000000 0.000000 0.000000 -26.429635 4.595408 10.967388 -15.488138 -36.718539 -17.421723 0.000000 0.000000 0.000000
0.000000 0.976975 0.000000 -0.000000 0.000000 -18.948081 -58.863381 -26.763837 3.658610 55.830447 42.601964 -3.295143 9.223465 -31.629137 -16.330369 11.282323 7.715794 18.184801 22.469339 34.664611 -10.806320 -36.945857 -37.874921 -32.025700 -6.527698 13.352259 5.506152 0.000000 0.000000 0.000000 0.000000 0.000000 0.000000 0.000000 0.000000 0.000000 47.464382 22.763839 11.252499 -56.395330 -26.101460 -12.215939 -0.000000 0.000000 -0.000000 -27.395258 3.150595 11.686193 -16.822982 -36.945601 -18.216475 0.000000 0.000000 -0.000000
0.000000 0.972069 0.000000 -0.000000 0.000000 -20.040913 -61.725521 -27.288119 3.533128 58.125659 38.378848 -3.167230 9.159142 -28.302552 -17.726964 12.175715 8.406285 19.142749 21.044557 34.261077 -10.593317 -36.638362 -37.594160 -32.900364 -5.688110 14.015641 5.214048 -0.000000 0.000000 -0.000000 -0.000000 0.000000 -0.000000 -0.000000 0.000000 -0.000000 44.782992 21.737538 13.284674 -60.128278 -27.724768 -13.590790 -0.000000 0.000000 -0.000000 -28.814885 1.394513 12.171974 -18.209168 -37.482578 -19.301985 -0.000000 0.000000 -0.000000
0.000000 0.980286 0.000000 -0.000000 0.000000 -21.044773 -64.069785 -27.508324 3.629265 61.214755 34.310827 -3.370784 7.881196 -25.402891 -19.265797 13.170358 9.326445 19.965760 20.649442 32.609646 -10.274957 -37.576774 -36.175727 -33.725628 -4.757332 14.784496 5.071449 0.000000 0.000000 -0.000000 0.000000 0.000000 -0.000000 0.000000 0.000000 -0.000000 42.060626 20.375154 15.134816 -63.355050 -29.414948 -14.899572 -0.000000 0.000000 -0.000000 -30.835169 -0.399727 12.241003 -19.325514 -38.134980 -20.517779 0.000000 0.000000 0.000000
0.000000 0.991447 0.000000 -0.000000 0.000000 -22.119567 -65.687316 -27.560094 4.126742 64.978067 30.718451 -3.722096 5.324954 -23.220639 -21.024756 14.534153 10.672665 20.754715 18.647139 30.567734 -9.489511 -37.397102 -34.599853 -34.154894 -3.915991 15.555499 5.217478 -0.000000 0.000000 0.000000 -0.000000 0.000000 0.000000 -0.000000 0.000000 0.000000 39.396824 18.521375 16.859170 -65.729957 -30.832955 -15.855087 0.000000 0.000000 0.000000 -33.360337 -2.079605 11.975511 -20.853074 -38.904506 -22.302116 -0.000000 0.000000 0.000000
0.000000 1.007618 0.000000 -0.000000 0.000000 -23.186963 -66.024242 -27.525231 5.103152 68.794125 27.810806 -4.167912 1.616254 -21.681956 -22.877428 16.264541 12.529822 21.389482 14.225464 27.495762 -7.946681 -35.236364 -32.351461 -33.712994 -3.181126 16.457069 5.611139 -0.000000 0.000000 0.000000 -0.000000 0.000000 0.000000 -0.000000 0.000000 0.000000 36.493700 15.998735 18.498578 -68.464913 -32.058944 -17.077701 0.000000 0.000000 0.000000 -36.509401 -3.699807 11.231531 -22.168625 -39.677834 -24.329405 0.000000 0.000000 0.000000
0.000000 1.029249 0.000000 -0.000000 0.000000 -24.264785 -65.004456 -27.548442 6.510293 71.276815 25.516800 -4.442065 -1.938156 -20.440972 -24.614262 18.078915 14.900935 21.881079 8.774054 23.574307 -6.212896 -32.271095 -29.670221 -33.028581 -2.443375 17.525049 5.929375 -0.000000 0.000000 -0.000000 -0.000000 0.000000 -0.000000 -0.000000 0.000000 -0.000000 33.739785 13.212241 20.192089 -71.472392 -32.668306 -18.258451 0.000000 0.000000 -0.000000 -39.760971 -5.007813 10.480528 -23.580962 -40.490471 -26.564477 -0.000000 0.000000 -0.000000
0.000000 1.041155 0.000000 -0.000000 0.000000 -25.680795 -62.311868 -27.733569 8.703969 72.067648 23.818865 -4.552717 -5.200882 -19.567020 -26.578200 19.991286 18.178140 22.450632 1.385468 18.439538 -4.389953 -27.724164 -26.450895 -32.319174 -1.952603 18.606125 6.339305 0.000000 0.000000 0.000000 0.000000 0.000000 0.000000 0.000000 0.000000 0.000000 31.519505 10.549580 22.030605 -76.175529 -32.585748 -19.835946 0.000000 0.000000 0.000000 -42.598393 -5.872121 10.121770 -25.482283 -41.249887 -29.078587 -0.000000 0.000000 -0.000000
0.000000 1.064354 0.000000 -0.000000 0.000000 -27.019538 -59.173847 -27.949142 10.934785 72.388631 22.409110 -4.753194 -8.284817 -18.670097 -28.383747 21.272230 20.808677 23.069761 -2.802486 14.309835 -3.470547 -25.684615 -23.751253 -32.508828 -1.464345 19.700095 6.290533 -0.000000 0.000000 0.000000 -0.000000 0.000000 0.000000 -0.000000 0.000000 0.000000 30.169762 8.238494 24.127744 -82.374218 -31.611778 -21.305459 -0.000000 0.000000 -0.000000 -45.358265 -6.468338 10.150017 -28.056260 -41.847433 -32.085533 -0.000000 0.000000 -0.000000
0.000000 1.057825 0.000000 -0.000000 0.000000 -28.321038 -55.353707 -28.106587 13.361874 72.141248 21.494878 -5.089903 -11.288671 -18.014861 -30.116153 21.294815 22.286753 24.079393 -5.002751 12.184369 -3.054974 -24.199862 -22.411599 -33.184929 -1.008861 20.758083 5.754990 0.000000 0.000000 0.000000 0.000000 0.000000 0.000000 0.000000 0.000000 0.000000 29.192332 5.970675 26.648908 -87.919975 -30.391977 -21.934767 -0.000000 0.000000 0.000000 -47.670815 -6.655367 10.818276 -32.443303 -41.868730 -36.075759 0.000000 0.000000 0.000000
0.000000 1.038611 0.000000 -0.000000 0.000000 -29.414537 -51.490908 -27.919940 15.742618 71.800610 20.684460 -5.412683 -14.290371 -17.434338 -31.616812 20.081801 22.535162 25.373820 -3.775100 11.830098 -2.926054 -24.750674 -22.229050 -34.350938 -0.592484 21.518310 4.517271 0.000000 0.000000 0.000000 0.000000 0.000000 0.000000 0.000000 0.000000 0.000000 28.349520 3.724482 29.564429 -93.373742 -29.738812 -22.423119 -0.000000 0.000000 -0.000000 -49.860471 -6.717947 12.093597 -37.553902 -40.583874 -40.138912 0.000000 0.000000 0.000000
0.000000 1.024245 0.000000 -0.000000 0.000000 -30.496550 -47.796242 -27.532251 18.105242 71.300393 19.746913 -5.587788 -17.055025 -16.757678 -33.026883 17.950705 21.856189 27.003111 0.439515 12.815511 -3.017762 -27.282984 -22.899066 -36.124619 -0.278785 21.961363 2.723849 0.000000 0.000000 0.000000 0.000000 0.000000 0.000000 0.000000 0.000000 0.000000 27.751112 1.412985 32.975160 -98.965209 -30.192300 -23.183719 -0.000000 0.000000 0.000000 -51.454578 -6.436038 14.312217 -43.435930 -38.083349 -44.165081 0.000000 0.000000 0.000000
0.000000 0.997202 0.000000 -0.000000 0.000000 -31.755275 -44.571148 -27.058690 20.491259 70.778223 18.612596 -5.489567 -19.467320 -16.022961 -34.521335 15.009688 20.887551 28.973241 4.757158 14.854957 -3.337632 -29.214228 -24.749457 -38.300380 -0.130183 22.118701 0.369405 -0.000000 0.000000 0.000000 -0.000000 0.000000 0.000000 -0.000000 0.000000 0.000000 27.352901 -0.759562 37.034784 -105.286245 -31.772776 -24.926663 0.000000 0.000000 0.000000 -52.331253 -6.199637 17.573789 -49.778020 -34.387611 -47.853520 0.000000 0.000000 -0.000000
0.000000 0.951994 0.000000 -0.000000 0.000000 -33.540789 -41.288272 -26.547456 23.382737 69.814195 17.137638 -5.052536 -21.531607 -15.106681 -36.429344 11.251150 19.981166 31.552620 7.836541 19.203855 -4.140193 -29.556301 -29.382398 -41.453825 -0.372183 21.927205 -2.385116 -0.000000 0.000000 -0.000000 -0.000000 0.000000 -0.000000 -0.000000 0.000000 -0.000000 27.286588 -2.592340 41.929542 -112.408433 -33.715284 -27.592485 0.000000 0.000000 -0.000000 -52.310397 -6.536144 21.972758 -56.419915 -30.073277 -51.335434 0.000000 0.000000 -0.000000
0.000000 0.925622 0.000000 -0.000000 0.000000 -36.438532 -37.692804 -26.131936 27.379885 68.038172 15.306176 -4.172561 -23.011527 -14.078122 -39.318132 5.736178 19.512792 35.451417 14.837732 20.669326 -4.198965 -33.467430 -32.001613 -46.293819 -1.325141 21.280470 -5.095160 -0.000000 0.000000 -0.000000 -0.000000 0.000000 -0.000000 -0.000000 0.000000 -0.000000 28.639115 -4.821336 48.213683 -118.180627 -34.771376 -27.776033 0.000000 0.000000 0.000000 -51.389946 -7.712554 27.642243 -63.327123 -25.491411 -54.795921 0.000000 0.000000 0.000000
0.000000 0.898113 0.000000 -0.000000 0.000000 -40.055519 -34.041119 -25.620348 32.092032 65.558547 13.316099 -3.038687 -23.843333 -13.048046 -42.821758 0.206823 18.743529 40.021384 20.479109 22.264255 -4.085199 -36.450643 -34.760907 -51.824296 -2.689358 20.390390 -7.596273 0.000000 0.000000 -0.000000 0.000000 0.000000 -0.000000 0.000000 0.000000 -0.000000 29.606836 -4.940740 54.372138 -124.068935 -35.706633 -29.807016 0.000000 0.000000 0.000000 -49.797351 -8.902085 34.212442 -70.610976 -20.435105 -58.237426 0.000000 0.000000 -0.000000
0.000000 0.910041 0.000000 -0.000000 0.000000 -44.470536 -30.077676 -24.792891 37.711211 62.074338 11.054370 -1.722146 -24.030891 -11.917904 -47.015890 -5.933996 17.007813 45.358567 25.171914 25.594188 -4.155178 -38.525289 -39.378781 -58.726544 -4.368393 19.244926 -9.622360 0.000000 0.000000 -0.000000 0.000000 0.000000 -0.000000 0.000000 0.000000 -0.000000 31.424609 -4.180571 60.747962 -126.150536 -36.007334 -28.563310 -0.000000 0.000000 0.000000 -47.998118 -10.255546 41.239940 -77.032632 -15.146722 -60.650162 0.000000 0.000000 -0.000000
0.000000 0.932347 0.000000 -0.000000 0.000000 -50.127588 -25.764396 -23.667897 44.640545 57.507455 8.321768 -0.291654 -23.509094 -10.519821 -52.322487 -11.890504 13.961487 51.588671 29.112611 28.792076 -3.984998 -39.986052 -43.650846 -66.708025 -6.470214 17.667679 -10.750764 0.000000 0.000000 0.000000 0.000000 0.000000 0.000000 0.000000 0.000000 0.000000 34.182041 -5.007865 67.780216 -123.618204 -36.514200 -24.141964 -0.000000 0.000000 0.000000 -46.225579 -11.525105 48.806332 -83.213416 -9.027397 -62.336633 -0.000000 0.000000 -0.000000
0.000000 0.955690 0.000000 -0.000000 0.000000 -57.257985 -21.640099 -23.057596 52.792958 53.075271 5.170609 0.982113 -22.489596 -8.631199 -58.977146 -17.281242 9.720135 58.738538 31.243175 30.511865 -3.039655 -39.499875 -46.705821 -74.881499 -8.758082 15.706006 -11.043613 0.000000 0.000000 -0.000000 0.000000 0.000000 -0.000000 0.000000 0.000000 -0.000000 38.197526 -6.283636 75.529502 -117.418018 -36.638532 -16.928372 -0.000000 0.000000 -0.000000 -44.100667 -13.280114 56.884403 -87.531974 -3.132181 -61.512566 -0.000000 0.000000 -0.000000
0.000000 0.971388 0.000000 -0.000000 0.000000 -65.815629 -17.850155 -23.049805 62.147419 49.007590 1.902581 2.073652 -20.964256 -6.602665 -67.038537 -21.513799 3.882339 66.553470 32.050930 30.279269 -1.368736 -36.673798 -47.920750 -82.573207 -11.010452 13.309729 -11.358161 -0.000000 0.000000 -0.000000 -0.000000 0.000000 -0.000000 -0.000000 0.000000 -0.000000 43.521835 -5.619010 84.049050 -110.074781 -36.633084 -9.041753 0.000000 0.000000 0.000000 -42.593706 -15.495330 65.965221 -92.007454 4.822154 -59.664475 -0.000000 0.000000 0.000000
0.000000 0.964849 0.000000 -0.000000 0.000000 -73.454763 -15.346649 -23.374702 70.261867 46.724663 -0.603800 2.958520 -20.063144 -5.309797 -74.394692 -24.252584 -2.491682 72.919316 31.513791 28.004803 0.774924 -31.182201 -47.327486 -87.397618 -12.607380 10.747183 -12.131169 0.000000 0.000000 0.000000 0.000000 0.000000 0.000000 0.000000 0.000000 0.000000 48.705275 -3.894315 91.262383 -102.749105 -35.506191 -1.111452 0.000000 0.000000 0.000000 -41.617142 -17.357184 74.519380 -93.258455 11.905704 -55.096131 -0.000000 0.000000 -0.000000
0.000000 0.953859 0.000000 -0.000000 0.000000 -79.814526 -13.735449 -24.518884 76.816205 46.497808 -2.318967 3.701244 -19.909138 -4.568517 -80.616756 -25.053464 -7.545018 78.135836 31.847138 25.641935 2.106016 -28.012436 -45.773953 -91.836958 -13.627863 8.216511 -13.893845 0.000000 0.000000 0.000000 0.000000 0.000000 0.000000 0.000000 0.000000 0.000000 54.264645 -1.954821 97.574656 -94.855350 -33.931699 6.285777 -0.000000 0.000000 0.000000 -40.436935 -18.655604 83.105940 -91.915698 18.565573 -47.557871 0.000000 0.000000 0.000000
0.000000 0.930020 0.000000 -0.000000 0.000000 -84.687978 -12.980604 -26.868950 81.574743 49.274912 -3.260828 4.571961 -21.183504 -4.386307 -85.508587 -24.994941 -11.395118 82.154324 32.206645 22.761537 3.134918 -25.473990 -43.369817 -94.960164 -14.101101 5.972000 -15.978328 0.000000 0.000000 0.000000 0.000000 0.000000 0.000000 0.000000 0.000000 0.000000 59.311544 -0.224638 102.420792 -87.277358 -31.868568 12.249112 -0.000000 0.000000 0.000000 -39.343520 -19.243787 90.796140 -88.024526 24.110601 -38.758107 -0.000000 0.000000 -0.000000
0.000000 0.902776 0.000000 -0.000000 0.000000 -88.571673 -12.572015 -29.495673 85.249834 52.830937 -4.419021 5.675834 -22.725992 -3.942808 -89.364333 -24.536762 -14.150735 85.479506 32.050575 19.762388 3.888558 -23.118613 -40.759643 -97.261895 -14.218497 4.031143 -17.938093 -0.000000 0.000000 0.000000 -0.000000 0.000000 0.000000 -0.000000 0.000000 0.000000 64.261605 0.656928 106.343885 -79.553223 -29.434885 16.831272 -0.000000 0.000000 -0.000000 -38.950584 -19.293349 97.398115 -83.364393 28.376378 -31.946122 0.000000 0.000000 -0.000000
0.000000 0.878463 0.000000 -0.000000 0.000000 -90.763056 -12.695162 -31.902691 87.120750 55.696835 -5.422199 6.661858 -23.475536 -3.546387 -91.500141 -23.998626 -15.254728 87.502346 32.678327 17.644807 4.258046 -23.032111 -38.557874 -98.915767 -14.041230 2.508344 -20.397804 0.000000 0.000000 -0.000000 0.000000 0.000000 -0.000000 0.000000 0.000000 -0.000000 68.470902 1.001467 109.319394 -72.601035 -26.873027 19.749161 0.000000 0.000000 -0.000000 -39.429840 -18.604535 102.977569 -79.175606 31.397757 -27.871457 -0.000000 0.000000 -0.000000
0.000000 0.857659 0.000000 -0.000000 0.000000 -91.832740 -13.181302 -34.353890 87.741930 57.224283 -6.037165 7.287642 -22.670882 -3.534719 -92.541537 -23.697262 -15.032242 88.661618 33.607010 16.123061 4.455614 -24.457951 -36.812249 -100.083319 -13.767927 1.347669 -23.025094 -0.000000 0.000000 0.000000 -0.000000 0.000000 0.000000 -0.000000 0.000000 0.000000 72.317421 1.180083 111.530393 -66.655650 -24.309442 22.001486 -0.000000 0.000000 -0.000000 -40.338309 -17.279695 107.812745 -76.500227 33.732512 -25.640943 -0.000000 0.000000 0.000000
0.000000 0.851424 0.000000 -0.000000 0.000000 -91.368181 -14.421340 -37.046565 86.513585 59.080490 -5.992900 7.658509 -21.677589 -3.925044 -92.119961 -23.998481 -13.184169 88.554117 34.352135 14.574608 4.646298 -26.867269 -35.184332 -100.030011 -13.453693 0.636824 -26.344682 0.000000 0.000000 0.000000 0.000000 0.000000 0.000000 0.000000 0.000000 0.000000 75.803427 0.932347 113.312324 -61.685909 -22.087973 23.455098 -0.000000 0.000000 0.000000 -41.702965 -15.440055 111.990298 -76.202377 36.033925 -24.734389 0.000000 0.000000 -0.000000
0.000000 0.848454 0.000000 -0.000000 0.000000 -90.255073 -16.349103 -39.951867 84.277037 61.025393 -5.939380 8.004022 -20.347775 -4.301430 -91.027350 -24.635122 -10.913427 87.865173 35.276167 12.385390 5.129911 -29.504724 -33.050512 -99.189487 -13.147325 0.159371 -29.555286 -0.000000 0.000000 0.000000 -0.000000 0.000000 0.000000 -0.000000 0.000000 0.000000 79.795364 0.480665 114.590993 -56.677395 -19.141875 25.748720 -0.000000 0.000000 -0.000000 -43.512394 -13.151132 115.572121 -77.532591 39.098658 -23.993728 -0.000000 0.000000 0.000000
0.000000 0.842999 0.000000 -0.000000 0.000000 -88.846034 -18.647372 -43.178234 81.411731 63.163879 -5.362335 8.144538 -18.807188 -5.000679 -89.674725 -25.300224 -8.686542 86.892829 36.248644 9.966911 5.823417 -31.869873 -30.706977 -97.811119 -12.944439 0.004936 -32.223973 0.000000 0.000000 -0.000000 0.000000 0.000000 -0.000000 0.000000 0.000000 -0.000000 83.772198 -0.048572 115.390478 -52.571358 -16.269702 28.268758 0.000000 0.000000 0.000000 -45.410494 -10.572601 118.393064 -79.782698 42.889137 -22.917334 -0.000000 0.000000 -0.000000
0.000000 0.841482 0.000000 -0.000000 0.000000 -88.353891 -21.130791 -46.436137 79.204665 63.925043 -5.613123 8.474740 -15.912846 -5.471720 -89.119218 -25.900005 -6.259292 86.913214 36.308289 7.557461 6.504836 -33.856364 -28.623863 -97.233884 -12.853044 -0.074603 -33.722749 0.000000 0.000000 -0.000000 0.000000 0.000000 -0.000000 0.000000 0.000000 -0.000000 86.643763 -0.262532 116.013839 -49.758784 -13.861379 30.128287 0.000000 0.000000 -0.000000 -46.596047 -8.160776 120.842546 -82.068516 45.936458 -21.495656 0.000000 0.000000 0.000000
0.000000 0.839193 0.000000 -0.000000 0.000000 -87.998115 -23.980484 -49.221051 76.885422 63.483891 -6.058619 8.755496 -12.228508 -6.097238 -88.651866 -26.452535 -3.881067 87.085612 35.945277 5.618602 7.068533 -35.489619 -27.071543 -96.808523 -12.756095 -0.158960 -34.808119 -0.000000 0.000000 0.000000 -0.000000 0.000000 0.000000 -0.000000 0.000000 0.000000 88.826953 -0.305675 116.350478 -47.627659 -11.728258 31.719770 -0.000000 0.000000 -0.000000 -47.348925 -6.301794 122.707464 -83.820765 48.512271 -19.761835 -0.000000 0.000000 0.000000
0.000000 0.838733 0.000000 -0.000000 0.000000 -87.660737 -26.709559 -51.528784 74.587672 61.621614 -6.158371 8.667583 -7.642581 -7.139840 -88.138245 -26.847192 -1.224798 87.368405 34.519233 3.922763 7.337840 -36.316059 -25.884025 -96.281056 -12.560650 -0.360232 -35.683680 0.000000 0.000000 -0.000000 0.000000 0.000000 -0.000000 0.000000 0.000000 -0.000000 89.939980 -0.212598 116.467356 -46.090339 -9.874094 32.820895 -0.000000 0.000000 -0.000000 -47.951748 -5.074278 124.032509 -85.001922 50.572884 -18.096909 -0.000000 0.000000 -0.000000
0.000000 0.840340 0.000000 -0.000000 0.000000 -87.363003 -29.321887 -52.856309 72.546035 58.650905 -6.265900 8.479569 -2.916194 -8.392731 -87.577015 -27.079415 1.553072 87.737023 32.323816 2.602819 7.283190 -36.552299 -25.113975 -95.777299 -12.273263 -0.637918 -36.298448 0.000000 0.000000 0.000000 0.000000 0.000000 0.000000 0.000000 0.000000 0.000000 90.188338 -0.037828 116.410953 -44.724843 -8.153134 33.331508 -0.000000 0.000000 -0.000000 -48.507404 -4.267225 124.880085 -86.043644 52.120813 -16.710145 -0.000000 0.000000 -0.000000
0.000000 0.843655 0.000000 -0.000000 0.000000 -87.071815 -31.670428 -53.397659 70.835267 54.800822 -6.626847 8.149292 1.951255 -9.519334 -86.909331 -27.119373 4.346718 88.120633 29.669482 1.588206 6.962929 -36.373997 -24.581009 -95.259685 -11.895383 -1.007249 -36.750319 -0.000000 0.000000 0.000000 -0.000000 0.000000 0.000000 -0.000000 0.000000 0.000000 89.668764 0.457908 116.015705 -43.528958 -6.354135 33.601796 0.000000 0.000000 0.000000 -49.109848 -3.870347 125.335218 -86.944879 53.393351 -15.556465 0.000000 0.000000 -0.000000
0.000000 0.847314 0.000000 -0.000000 0.000000 -86.795049 -33.581803 -53.139545 69.632293 50.520998 -7.139878 7.716683 6.447821 -10.538797 -86.199753 -26.918528 7.006811 88.473940 26.900052 0.944915 6.432374 -35.992170 -24.219364 -94.768953 -11.413001 -1.526035 -37.033160 0.000000 0.000000 -0.000000 0.000000 0.000000 -0.000000 0.000000 0.000000 -0.000000 88.461251 1.021014 115.460743 -41.986415 -4.005293 33.465774 0.000000 0.000000 0.000000 -49.816803 -3.723668 125.506657 -88.047633 54.566471 -14.459226 -0.000000 0.000000 -0.000000
0.000000 0.849463 0.000000 -0.000000 0.000000 -86.657774 -34.867776 -52.455835 69.068498 46.581099 -7.665073 7.264149 10.060077 -11.396980 -85.651352 -26.584689 8.981501 88.783756 24.757818 0.605087 5.932171 -35.648913 -23.913676 -94.448451 -10.904743 -2.089068 -36.988642 -0.000000 0.000000 -0.000000 -0.000000 0.000000 -0.000000 -0.000000 0.000000 -0.000000 86.736336 1.696044 114.740378 -40.197513 -1.135553 33.032182 0.000000 0.000000 -0.000000 -50.629331 -3.716337 125.406376 -89.558818 55.883907 -13.326259 -0.000000 0.000000 0.000000
0.000000 0.849363 0.000000 -0.000000 0.000000 -86.622090 -35.505405 -51.450735 69.084048 43.242174 -8.051717 6.848511 12.593045 -12.140525 -85.277536 -26.236380 10.258453 89.018798 23.330394 0.506117 5.537441 -35.409928 -23.705611 -94.288156 -10.379521 -2.704389 -36.571506 -0.000000 0.000000 0.000000 -0.000000 0.000000 0.000000 -0.000000 0.000000 0.000000 84.375343 2.245188 113.980903 -38.329900 1.901599 32.151069 0.000000 0.000000 -0.000000 -51.534910 -3.842322 124.962824 -92.072244 57.246242 -12.148828 0.000000 0.000000 -0.000000
0.000000 0.847876 0.000000 -0.000000 0.000000 -86.794950 -35.442386 -50.121256 69.798460 40.173266 -8.421558 6.434253 14.315776 -12.731490 -85.189589 -25.903811 10.848924 89.297115 22.499624 0.594615 5.234936 -35.198881 -23.589000 -94.374013 -9.842122 -3.330604 -35.639277 0.000000 0.000000 -0.000000 0.000000 0.000000 -0.000000 0.000000 0.000000 -0.000000 81.040149 2.714473 113.198545 -36.635665 4.745935 30.720388 -0.000000 0.000000 -0.000000 -52.354535 -3.773870 124.301461 -96.009813 59.215380 -9.781766 0.000000 0.000000 0.000000
0.000000 0.846798 0.000000 -0.000000 0.000000 -87.067888 -35.034901 -48.630328 70.834916 37.404028 -8.658334 6.050296 15.450095 -13.310672 -85.254275 -25.534197 11.024087 89.573178 22.055782 0.671127 5.020425 -34.978329 -23.367859 -94.524136 -9.296719 -3.909470 -34.252150 0.000000 0.000000 -0.000000 0.000000 0.000000 -0.000000 0.000000 0.000000 -0.000000 76.636975 3.152041 112.340297 -35.293753 6.899151 28.711597 0.000000 0.000000 0.000000 -53.250728 -3.677032 123.282826 -101.886097 60.669532 -7.566714 0.000000 0.000000 0.000000
0.000000 0.845693 0.000000 -0.000000 0.000000 -87.264199 -34.669874 -47.221413 71.725544 35.222478 -8.639401 5.774576 16.086777 -13.975494 -85.279626 -25.071248 10.954580 89.706994 21.944414 0.768854 4.864324 -34.797193 -23.059292 -94.579109 -8.736494 -4.473658 -32.586131 0.000000 0.000000 0.000000 0.000000 0.000000 0.000000 0.000000 0.000000 0.000000 71.330993 3.580330 111.304803 -34.600994 7.987131 26.406754 -0.000000 0.000000 0.000000 -54.309400 -3.560680 121.930584 -109.990219 61.440076 -5.962705 -0.000000 0.000000 0.000000
0.000000 0.845205 0.000000 -0.000000 0.000000 -87.455420 -34.378245 -45.819744 72.558812 33.394958 -8.460216 5.595384 16.374212 -14.777734 -85.317693 -24.524778 10.524189 89.748975 22.274172 0.864064 4.793364 -34.674896 -22.629581 -94.603982 -8.130089 -5.045861 -30.551949 -0.000000 0.000000 -0.000000 -0.000000 0.000000 -0.000000 -0.000000 0.000000 -0.000000 65.200874 3.788034 110.169621 -33.944581 8.377743 23.624478 0.000000 0.000000 0.000000 -55.055001 -3.631436 120.084735 -119.253233 60.334777 -7.098179 0.000000 0.000000 -0.000000
0.000000 0.845160 0.000000 -0.000000 0.000000 -87.662107 -34.094815 -44.398214 73.397393 31.676298 -8.292201 5.425290 16.523682 -15.549314 -85.390620 -23.727282 9.755497 89.716193 23.019703 1.201237 4.688737 -34.639343 -22.175714 -94.656367 -7.514351 -5.549155 -28.143808 -0.000000 0.000000 -0.000000 -0.000000 0.000000 -0.000000 -0.000000 0.000000 -0.000000 58.826055 3.843559 108.810434 -33.847318 7.490359 20.723627 0.000000 0.000000 -0.000000 -55.800322 -3.983114 117.703951 -125.527638 57.318238 -14.358559 -0.000000 0.000000 0.000000
0.000000 0.844540 0.000000 -0.000000 0.000000 -87.770487 -34.029037 -43.115379 73.983765 30.378425 -7.968282 5.361631 16.455988 -16.451697 -85.375424 -22.736232 8.705487 89.524019 24.379682 1.507468 4.668159 -34.867995 -21.455370 -94.580002 -6.860499 -6.057713 -25.413622 -0.000000 0.000000 -0.000000 -0.000000 0.000000 -0.000000 -0.000000 0.000000 -0.000000 52.643810 3.811116 107.003856 -33.890508 6.510286 18.120118 0.000000 0.000000 0.000000 -56.584442 -4.693130 114.710488 -128.614106 52.784899 -27.418909 -0.000000 0.000000 -0.000000
0.000000 0.843423 0.000000 -0.000000 0.000000 -87.728541 -34.290370 -42.060557 74.199979 29.596749 -7.592569 5.419387 16.214671 -17.411575 -85.229363 -21.468037 7.297342 89.113681 26.455711 1.906655 4.667905 -35.381372 -20.513057 -94.334885 -6.248659 -6.490728 -22.430560 -0.000000 0.000000 0.000000 -0.000000 0.000000 0.000000 -0.000000 0.000000 0.000000 47.093068 3.778698 104.694528 -34.179662 5.728375 16.049541 0.000000 0.000000 0.000000 -57.303405 -5.758376 111.093272 -129.715541 47.351997 -43.858651 0.000000 0.000000 0.000000
0.000000 0.840761 0.000000 -0.000000 0.000000 -87.553571 -34.809063 -41.288358 74.082620 29.264875 -7.084802 5.585888 15.902350 -18.474618 -84.951041 -19.843143 5.609792 88.535574 29.217651 2.608953 4.545573 -36.275036 -19.482253 -93.990905 -5.699595 -6.871127 -19.146152 -0.000000 0.000000 0.000000 -0.000000 0.000000 0.000000 -0.000000 0.000000 0.000000 42.435598 3.799826 101.802700 -34.593173 4.872245 14.341703 -0.000000 0.000000 -0.000000 -58.042782 -7.446359 106.659077 -129.146624 41.739742 -61.345412 -0.000000 0.000000 -0.000000
0.000000 0.833987 0.000000 -0.000000 0.000000 -87.115830 -35.919406 -41.118164 73.252627 30.027068 -6.248152 6.058129 15.296418 -19.846059 -84.424329 -18.051168 3.255010 87.632999 33.281523 3.386346 4.442059 -37.731560 -18.224883 -93.390211 -5.198867 -7.075670 -15.653473 0.000000 0.000000 -0.000000 0.000000 0.000000 -0.000000 0.000000 0.000000 -0.000000 38.812508 3.863950 98.347638 -35.362772 4.064425 13.131912 0.000000 0.000000 -0.000000 -58.884904 -9.319044 101.540310 -127.377275 36.305487 -77.508181 0.000000 0.000000 -0.000000
0.000000 0.824198 0.000000 -0.000000 0.000000 -86.423877 -37.433321 -41.025702 71.975220 31.398457 -5.537756 6.685534 14.345407 -21.125981 -83.735227 -15.838778 0.729061 86.525295 37.698812 4.719503 3.863012 -39.366956 -17.153074 -92.600243 -4.827943 -7.168923 -12.068037 -0.000000 0.000000 0.000000 -0.000000 0.000000 0.000000 -0.000000 0.000000 0.000000 35.997361 3.985449 94.445716 -36.348048 3.112604 12.137790 -0.000000 0.000000 -0.000000 -59.751972 -11.932200 95.515975 -124.246690 28.092374 -95.033183 -0.000000 0.000000 -0.000000
0.000000 0.804372 0.000000 -0.000000 0.000000 -84.942873 -40.349523 -41.339777 69.158894 35.344617 -4.966008 8.013381 11.825273 -22.273798 -82.606961 -13.827563 -2.380085 84.654229 43.675784 5.767823 3.305310 -41.801976 -15.743442 -90.987522 -4.710246 -6.919979 -8.348417 -0.000000 0.000000 0.000000 -0.000000 0.000000 0.000000 -0.000000 0.000000 0.000000 34.249125 3.792648 89.680019 -37.994268 1.443895 11.322933 -0.000000 0.000000 -0.000000 -60.990132 -14.391444 88.332033 -120.668794 20.610698 -109.174076 -0.000000 0.000000 0.000000
0.000000 0.782133 0.000000 -0.000000 0.000000 -82.951772 -43.316146 -41.145131 65.997454 39.568126 -5.320599 9.267180 8.970598 -22.135815 -81.193572 -11.755732 -5.434207 82.391907 49.405776 7.099160 2.173865 -44.050289 -14.620258 -88.893177 -4.763924 -6.268192 -4.955425 0.000000 0.000000 0.000000 0.000000 0.000000 0.000000 0.000000 0.000000 0.000000 32.468873 3.828684 84.771843 -39.655357 -0.928123 10.073488 0.000000 0.000000 -0.000000 -62.558880 -16.870586 80.526323 -118.329088 13.340634 -123.104540 0.000000 0.000000 -0.000000
0.000000 0.756356 0.000000 -0.000000 0.000000 -80.603620 -46.444452 -40.479612 62.624038 44.284943 -5.055339 10.757326 5.422074 -22.404973 -79.529006 -10.206441 -8.552947 79.838395 55.525457 7.799778 1.079433 -46.608922 -13.197497 -86.309129 -4.858599 -5.217102 -1.640229 -0.000000 0.000000 0.000000 -0.000000 0.000000 0.000000 -0.000000 0.000000 0.000000 31.281418 3.791674 79.650573 -41.076658 -3.537078 8.785139 0.000000 0.000000 -0.000000 -64.260684 -19.399134 71.957939 -116.191113 5.357404 -135.446306 0.000000 0.000000 0.000000
0.000000 0.730266 0.000000 -0.000000 0.000000 -78.472312 -48.733429 -39.628947 59.935467 49.117317 -4.628333 12.178822 1.309355 -22.291847 -78.214326 -8.753183 -11.770722 77.568278 61.654732 8.648322 -0.472010 -49.257599 -12.098326 -84.035042 -5.123292 -3.887252 1.546746 0.000000 0.000000 0.000000 0.000000 0.000000 0.000000 0.000000 0.000000 0.000000 30.806134 4.005863 74.826559 -42.108409 -5.400959 7.777968 -0.000000 0.000000 0.000000 -65.340713 -21.603296 63.723449 -112.565843 -5.561059 -140.687231 -0.000000 0.000000 0.000000
0.000000 0.707945 0.000000 -0.000000 0.000000 -77.289811 -49.891762 -39.733079 58.207875 53.059215 -3.430460 13.080843 -1.896814 -22.426376 -77.665877 -7.523038 -14.845953 76.308284 67.120386 9.322489 -2.078818 -51.581549 -11.303475 -82.765492 -5.205721 -2.502989 4.013203 0.000000 0.000000 0.000000 0.000000 0.000000 0.000000 0.000000 0.000000 0.000000 30.690634 4.838306 71.500356 -42.382312 -5.664049 7.294031 -0.000000 0.000000 0.000000 -65.315256 -26.023405 55.845829 -107.712738 -18.255907 -141.385860 -0.000000 0.000000 0.000000
0.000000 0.688121 0.000000 -0.000000 0.000000 -76.616263 -50.386052 -40.270593 57.044488 56.481639 -2.028014 13.613422 -4.684717 -22.510707 -77.549065 -6.569636 -17.583590 75.599105 71.819666 9.473753 -3.380646 -53.530046 -10.438225 -81.891874 -5.268351 -1.184356 5.878418 0.000000 0.000000 0.000000 0.000000 0.000000 0.000000 0.000000 0.000000 0.000000 31.030698 5.808410 69.185218 -42.263252 -4.817408 7.215976 0.000000 0.000000 -0.000000 -64.008924 -31.019969 49.302104 -101.792197 -30.440391 -137.653914 0.000000 0.000000 0.000000
0.000000 0.668916 0.000000 -0.000000 0.000000 -75.967819 -50.714316 -40.576190 56.093538 59.492780 -0.690958 13.989327 -7.349455 -22.610933 -77.439052 -5.854650 -19.924851 74.938577 75.986413 9.300611 -4.457567 -55.353269 -9.550376 -80.985333 -5.377112 -0.047734 7.374700 -0.000000 0.000000 -0.000000 -0.000000 0.000000 -0.000000 -0.000000 0.000000 -0.000000 31.680724 6.611341 67.221833 -41.969122 -3.436876 7.296583 -0.000000 0.000000 0.000000 -61.526785 -35.334373 44.506567 -94.825217 -41.312973 -130.855362 -0.000000 0.000000 -0.000000
0.000000 0.651041 0.000000 -0.000000 0.000000 -75.195759 -50.860116 -40.323682 55.389705 61.768324 0.478825 14.225191 -9.777444 -22.790298 -77.170976 -5.389204 -21.650917 74.164499 79.569487 9.062747 -5.376165 -57.212105 -8.850341 -80.029086 -5.464905 0.796664 8.391194 0.000000 0.000000 0.000000 0.000000 0.000000 0.000000 0.000000 0.000000 0.000000 32.644688 7.503850 65.470597 -41.998028 -1.814984 7.529588 -0.000000 0.000000 -0.000000 -57.967140 -38.660138 41.721784 -85.776537 -50.207142 -120.554089 -0.000000 0.000000 0.000000
0.000000 0.633076 0.000000 -0.000000 0.000000 -74.535457 -50.870871 -40.127635 54.827334 63.820294 1.556185 14.348127 -12.004405 -22.897785 -76.975196 -4.981213 -23.140664 73.515033 83.126133 9.197620 -6.504504 -59.297127 -8.672784 -79.478392 -5.580037 1.561506 9.086445 0.000000 0.000000 0.000000 0.000000 0.000000 0.000000 0.000000 0.000000 0.000000 33.703196 8.266610 64.147889 -42.085688 -0.207267 7.770399 -0.000000 0.000000 0.000000 -53.650833 -41.040269 40.650058 -73.934681 -56.499679 -106.439218 -0.000000 0.000000 -0.000000
0.000000 0.617147 0.000000 -0.000000 0.000000 -73.728509 -50.625129 -39.692948 54.353155 65.092399 2.625361 14.204714 -13.657962 -23.087029 -76.530783 -4.636164 -24.348091 72.727812 86.356693 9.885910 -7.994026 -61.311833 -9.153619 -79.161503 -5.746388 2.287637 9.530965 0.000000 0.000000 -0.000000 0.000000 0.000000 -0.000000 0.000000 0.000000 -0.000000 34.631266 8.842874 62.974639 -42.372824 1.127337 7.917487 -0.000000 0.000000 0.000000 -48.970258 -42.176695 40.777716 -60.349812 -60.153968 -90.183089 0.000000 0.000000 -0.000000
0.000000 0.605796 0.000000 -0.000000 0.000000 -72.734300 -50.339745 -38.942103 53.868267 65.407109 3.509192 13.893758 -14.489998 -23.385978 -75.748576 -4.425256 -25.350105 71.738580 88.926388 11.127083 -9.782410 -62.809812 -10.258732 -79.007973 -5.969788 3.061764 9.760415 -0.000000 0.000000 0.000000 -0.000000 0.000000 0.000000 -0.000000 0.000000 0.000000 35.190335 9.058269 61.970849 -42.588176 2.228617 7.900681 -0.000000 0.000000 -0.000000 -44.607201 -42.233629 41.392925 -47.191761 -61.310540 -74.256841 -0.000000 0.000000 -0.000000
0.000000 0.598069 0.000000 -0.000000 0.000000 -71.511644 -49.971602 -37.868217 53.346787 64.975449 4.361226 13.439582 -14.758749 -23.834201 -74.642959 -4.255310 -26.279315 70.517865 90.998462 12.982794 -12.030013 -63.802303 -11.989227 -78.991325 -6.212655 3.974549 9.829880 -0.000000 0.000000 0.000000 -0.000000 0.000000 0.000000 -0.000000 0.000000 0.000000 35.412202 8.998785 61.044708 -42.851829 3.095493 7.750124 0.000000 0.000000 -0.000000 -40.626174 -41.454686 42.115456 -35.457348 -60.678741 -59.670220 0.000000 0.000000 -0.000000
0.000000 0.593193 0.000000 -0.000000 0.000000 -70.151197 -49.631274 -36.648119 52.738117 64.124112 5.132448 12.935906 -14.621219 -24.327274 -73.319112 -4.030229 -27.144670 69.177864 92.693178 15.424809 -14.776320 -64.379379 -14.297129 -79.179253 -6.476300 4.953833 9.781447 0.000000 0.000000 -0.000000 0.000000 0.000000 -0.000000 0.000000 0.000000 -0.000000 35.459284 8.716465 60.196682 -43.174610 3.742117 7.539043 0.000000 0.000000 0.000000 -37.298759 -40.076146 42.696616 -26.457533 -58.973909 -48.015754 -0.000000 0.000000 -0.000000
0.000000 0.591161 0.000000 -0.000000 0.000000 -68.499612 -49.265085 -34.894877 52.098802 62.364087 5.703211 12.393570 -13.855628 -24.933058 -71.577115 -3.872878 -28.012544 67.533199 94.126237 18.554081 -18.074462 -64.513046 -17.274227 -79.451457 -6.742429 6.054056 9.595099 -0.000000 0.000000 -0.000000 -0.000000 0.000000 -0.000000 -0.000000 0.000000 -0.000000 35.309213 8.248955 59.293994 -43.587706 4.098383 7.229201 -0.000000 0.000000 0.000000 -34.497624 -38.289531 42.954504 -19.912333 -56.446206 -38.770092 -0.000000 0.000000 0.000000
0.000000 0.591787 0.000000 -0.000000 0.000000 -66.558968 -48.755800 -32.928302 51.303374 59.786431 6.256916 11.667830 -12.298773 -25.572342 -69.360267 -3.671865 -29.108713 65.605337 95.586309 22.632785 -22.283472 -64.139148 -21.146124 -79.900127 -7.015697 7.385426 9.172693 0.000000 0.000000 -0.000000 0.000000 0.000000 -0.000000 0.000000 0.000000 -0.000000 34.899721 7.563942 58.473998 -43.902307 4.220650 6.783388 0.000000 0.000000 0.000000 -32.161340 -36.382283 42.889838 -15.704345 -53.599274 -31.863745 0.000000 0.000000 0.000000
0.000000 0.593925 0.000000 -0.000000 0.000000 -64.656107 -48.358720 -30.672625 50.616630 56.681403 6.403034 11.099572 -10.343004 -26.175710 -67.066884 -3.540101 -30.122301 63.703208 97.026003 26.898000 -26.646630 -63.557011 -25.223237 -80.438868 -7.255574 8.665613 8.796032 -0.000000 0.000000 -0.000000 -0.000000 0.000000 -0.000000 -0.000000 0.000000 -0.000000 34.516110 6.995911 57.584108 -44.309028 4.133951 6.303096 -0.000000 0.000000 0.000000 -30.139064 -34.376839 42.675086 -13.148935 -50.750159 -26.742959 0.000000 0.000000 0.000000
0.000000 0.597664 0.000000 -0.000000 0.000000 -62.739183 -47.977363 -28.357225 49.910259 53.386307 6.429883 10.557498 -8.176364 -26.733609 -64.685179 -3.420615 -31.183614 61.784395 98.482159 31.145591 -31.111721 -62.649854 -29.262527 -80.795084 -7.489983 9.996171 8.357939 0.000000 0.000000 -0.000000 0.000000 0.000000 -0.000000 0.000000 0.000000 -0.000000 34.181019 6.451867 56.745704 -44.686985 3.974643 5.799530 -0.000000 0.000000 0.000000 -28.415705 -32.471212 42.294984 -11.974320 -48.251743 -23.177917 0.000000 0.000000 -0.000000
0.000000 0.604486 0.000000 -0.000000 0.000000 -60.811645 -47.638438 -25.865872 49.234657 49.665639 6.206180 10.044408 -5.615234 -27.253019 -62.173890 -3.310402 -32.145025 59.857623 99.522780 35.102937 -35.252581 -61.209750 -32.918956 -80.637366 -7.690216 11.282923 7.919532 0.000000 0.000000 0.000000 0.000000 0.000000 0.000000 0.000000 0.000000 0.000000 33.815247 6.064126 55.828286 -45.061508 3.540290 5.205421 -0.000000 0.000000 -0.000000 -27.034307 -30.435892 41.780662 -11.797141 -46.373523 -20.820749 0.000000 0.000000 0.000000
0.000000 0.614055 0.000000 -0.000000 0.000000 -58.990897 -47.354098 -23.221888 48.694376 45.608974 5.598476 9.566731 -2.756331 -27.654162 -59.669421 -3.170018 -32.881268 58.055249 99.995697 38.572717 -38.759514 -59.358741 -35.972413 -79.956018 -7.875496 12.421706 7.586130 0.000000 0.000000 -0.000000 0.000000 0.000000 -0.000000 0.000000 0.000000 -0.000000 33.557347 5.895063 54.806925 -45.549686 2.981006 4.597200 -0.000000 0.000000 -0.000000 -25.974904 -28.186153 41.192239 -11.958432 -45.229651 -19.215627 0.000000 0.000000 -0.000000
0.000000 0.625094 0.000000 -0.000000 0.000000 -57.386623 -47.188940 -20.632851 48.295179 41.636145 4.742905 9.126447 0.093223 -27.978919 -57.363398 -3.012203 -33.289367 56.485899 99.834435 41.316837 -41.317229 -57.388848 -38.212828 -78.859217 -8.057112 13.254706 7.446991 0.000000 0.000000 0.000000 0.000000 0.000000 0.000000 0.000000 0.000000 0.000000 33.485197 6.096771 53.623813 -46.312155 2.315139 4.004629 0.000000 0.000000 0.000000 -25.259623 -25.633611 40.589996 -12.096895 -45.097181 -18.219537 -0.000000 0.000000 0.000000
0.000000 0.640362 0.000000 -0.000000 0.000000 -55.915206 -46.931028 -17.933904 48.078207 37.387190 3.810208 8.589138 3.076221 -28.350919 -55.138029 -2.960831 -33.329420 55.028722 98.336564 43.486535 -42.468718 -54.828436 -39.641156 -77.092692 -8.272597 13.856322 7.523077 -0.000000 0.000000 0.000000 -0.000000 0.000000 0.000000 -0.000000 0.000000 0.000000 33.481626 6.685365 52.200871 -47.418755 1.343340 3.307959 -0.000000 0.000000 0.000000 -24.732786 -22.641763 39.959926 -12.268938 -45.848175 -17.641414 -0.000000 0.000000 0.000000
0.000000 0.659199 0.000000 -0.000000 0.000000 -54.609318 -46.648652 -15.276885 47.990429 33.027556 2.804612 7.940756 6.173603 -28.692880 -53.028927 -3.071670 -32.944231 53.700875 95.327826 44.955679 -41.937319 -51.827336 -40.165528 -74.754875 -8.508711 14.158317 7.876091 0.000000 0.000000 -0.000000 0.000000 0.000000 -0.000000 0.000000 0.000000 -0.000000 33.575473 7.700076 50.475013 -49.010290 -0.064429 2.476441 0.000000 0.000000 -0.000000 -24.373974 -19.268503 39.282145 -12.555830 -47.375621 -17.459510 -0.000000 0.000000 -0.000000
0.000000 0.680616 0.000000 -0.000000 0.000000 -53.399135 -46.266203 -12.387773 48.089931 28.476432 1.707969 7.159966 9.207772 -29.065302 -51.007442 -3.445598 -32.015102 52.410361 90.869740 45.832046 -39.843001 -48.611414 -40.049309 -72.093574 -8.765838 14.146210 8.509391 0.000000 0.000000 -0.000000 0.000000 0.000000 -0.000000 0.000000 0.000000 -0.000000 33.744326 8.987839 48.398333 -50.945997 -1.958278 1.461950 -0.000000 0.000000 -0.000000 -24.011082 -15.476881 38.553141 -13.008320 -49.477265 -17.549566 -0.000000 0.000000 -0.000000
0.000000 0.700253 0.000000 -0.000000 0.000000 -52.226593 -45.919479 -9.646409 48.131995 24.222797 0.766079 6.310835 12.068990 -29.444053 -49.044434 -4.052068 -30.810648 51.109632 86.117035 46.199757 -37.105332 -45.750576 -39.653851 -69.525679 -9.014105 13.903508 9.559778 0.000000 0.000000 -0.000000 0.000000 0.000000 -0.000000 0.000000 0.000000 -0.000000 34.174072 10.286542 45.867110 -53.360283 -4.139174 0.320694 0.000000 0.000000 -0.000000 -23.805039 -11.369638 37.498309 -13.285971 -52.011387 -17.706108 -0.000000 0.000000 -0.000000
0.000000 0.717618 0.000000 -0.000000 0.000000 -51.000006 -45.606901 -6.954918 48.072975 20.189878 -0.169961 5.383348 14.814482 -29.706581 -47.050635 -4.923391 -29.289915 49.712694 81.223261 46.216808 -33.982451 -43.245333 -39.232555 -67.082328 -9.249292 13.439098 10.908756 -0.000000 0.000000 0.000000 -0.000000 0.000000 0.000000 -0.000000 0.000000 0.000000 34.723642 11.448005 42.926859 -55.814118 -6.600772 -1.005352 0.000000 0.000000 0.000000 -23.600003 -6.971222 36.176908 -13.767584 -54.784789 -18.086554 0.000000 0.000000 0.000000
0.000000 0.732351 0.000000 -0.000000 0.000000 -49.769049 -45.221870 -4.403773 47.934203 16.591520 -0.971820 4.453966 17.158716 -29.875634 -45.159304 -5.958437 -27.478138 48.310998 76.337967 46.045270 -30.729764 -41.039305 -38.986656 -64.863253 -9.458505 12.741379 12.615249 0.000000 0.000000 -0.000000 0.000000 0.000000 -0.000000 0.000000 0.000000 -0.000000 35.393547 12.365715 39.583751 -58.287890 -9.272105 -2.496197 -0.000000 0.000000 0.000000 -23.436383 -2.468686 34.518799 -14.613016 -57.613859 -18.873127 -0.000000 0.000000 -0.000000
0.000000 0.746246 0.000000 -0.000000 0.000000 -48.365055 -44.801570 -1.916068 47.575217 12.951297 -1.542913 3.439412 19.707999 -30.052443 -43.025725 -7.208856 -25.327513 46.743228 70.987046 45.525130 -27.043022 -38.722884 -38.722848 -62.443711 -9.623245 11.928435 14.711352 0.000000 0.000000 -0.000000 0.000000 0.000000 -0.000000 0.000000 0.000000 -0.000000 36.044527 12.984143 35.689999 -60.720537 -12.630840 -4.375631 -0.000000 0.000000 -0.000000 -23.175490 2.112929 32.316089 -15.852566 -60.288665 -20.060688 0.000000 0.000000 -0.000000
0.000000 0.758318 0.000000 -0.000000 0.000000 -46.828856 -44.154547 0.585945 47.066515 9.774967 -1.415842 2.601813 21.677874 -30.687730 -40.814161 -8.406036 -23.074646 45.109970 65.617963 45.118685 -23.576933 -36.246740 -38.805553 -59.980804 -9.758766 11.088850 16.888255 -0.000000 0.000000 -0.000000 -0.000000 0.000000 -0.000000 -0.000000 0.000000 -0.000000 36.677189 13.528319 31.575280 -63.166786 -16.481663 -6.665372 -0.000000 0.000000 -0.000000 -22.767008 6.331218 29.787355 -17.101912 -62.814599 -21.456011 0.000000 0.000000 -0.000000
0.000000 0.768975 0.000000 -0.000000 0.000000 -45.116085 -43.314615 2.935428 46.281915 7.799945 -1.434760 2.041962 22.356501 -30.917583 -38.859957 -9.536280 -20.634848 43.376168 59.970259 44.542495 -20.092211 -33.524112 -38.968204 -57.281601 -9.941373 10.219646 18.995727 0.000000 0.000000 0.000000 0.000000 0.000000 0.000000 0.000000 0.000000 0.000000 37.595334 14.100158 27.337345 -65.761523 -20.533691 -9.293635 0.000000 0.000000 -0.000000 -22.234937 10.215895 27.046323 -18.123958 -65.445729 -22.977059 0.000000 0.000000 -0.000000
0.000000 0.777914 0.000000 -0.000000 0.000000 -43.345798 -42.321590 5.016447 45.288657 6.985637 -1.307673 1.834043 21.843537 -31.092458 -37.200276 -10.589443 -18.142905 41.650349 54.297642 43.747304 -16.712114 -30.606587 -39.158780 -54.463368 -10.133121 9.410947 20.900016 -0.000000 0.000000 0.000000 -0.000000 0.000000 0.000000 -0.000000 0.000000 0.000000 38.876934 14.811960 23.206618 -68.461351 -24.672408 -12.173124 -0.000000 0.000000 -0.000000 -21.691935 13.560818 24.280777 -18.663603 -68.074109 -24.367564 -0.000000 0.000000 -0.000000
0.000000 0.785205 0.000000 -0.000000 0.000000 -41.528797 -41.254710 6.809102 44.094474 7.314191 -1.107023 1.967055 20.213559 -31.191182 -35.832188 -11.543360 -15.660293 39.936077 48.738407 42.715487 -13.539186 -27.531118 -39.315089 -51.531569 -10.318301 8.695895 22.504076 -0.000000 0.000000 0.000000 -0.000000 0.000000 0.000000 -0.000000 0.000000 0.000000 40.486508 15.667346 19.280766 -71.013708 -28.820697 -15.170412 0.000000 0.000000 0.000000 -21.308959 16.294494 21.594246 -18.522847 -70.711081 -25.481436 -0.000000 0.000000 0.000000
0.000000 0.792182 0.000000 -0.000000 0.000000 -39.651111 -40.037514 8.306418 42.682084 8.429228 -0.647326 2.343770 17.822018 -31.291132 -34.622425 -12.420280 -13.160915 38.212766 43.270266 41.265061 -10.531928 -24.273063 -39.255506 -48.422276 -10.521459 8.180488 23.731881 -0.000000 0.000000 0.000000 -0.000000 0.000000 0.000000 -0.000000 0.000000 0.000000 42.054814 16.392514 15.762234 -72.913535 -32.633034 -17.964241 0.000000 0.000000 0.000000 -21.034462 18.233627 19.010044 -17.032004 -72.895814 -25.506002 -0.000000 0.000000 0.000000
0.000000 0.799174 0.000000 -0.000000 0.000000 -37.566633 -38.534089 9.456872 40.878880 10.363479 0.316576 2.945346 14.612433 -31.413894 -33.436722 -13.308235 -10.634373 36.322489 37.913967 39.336361 -7.707871 -20.753123 -38.915013 -44.969292 -10.698760 7.920687 24.588514 0.000000 0.000000 -0.000000 0.000000 0.000000 -0.000000 0.000000 0.000000 -0.000000 43.410451 16.711637 12.621041 -73.679844 -35.998410 -20.154643 0.000000 0.000000 -0.000000 -20.928847 19.433303 16.388213 -13.467872 -74.547846 -23.733268 0.000000 0.000000 -0.000000
0.000000 0.805869 0.000000 -0.000000 0.000000 -35.160038 -36.826374 10.350235 38.614103 12.650886 1.769832 3.565684 11.147295 -31.584096 -31.998162 -14.208618 -8.098785 34.149005 32.792609 36.966031 -5.176769 -17.006996 -38.266082 -41.098608 -10.751337 7.979764 25.106981 -0.000000 0.000000 -0.000000 -0.000000 0.000000 -0.000000 -0.000000 0.000000 -0.000000 44.585826 16.334756 9.822086 -73.467118 -38.560926 -21.420697 0.000000 0.000000 0.000000 -21.081716 20.056722 13.605887 -7.354065 -75.520457 -19.657961 -0.000000 0.000000 0.000000
0.000000 0.812685 0.000000 -0.000000 0.000000 -32.406239 -34.811599 11.052620 35.880869 15.145976 3.660796 4.083139 7.412260 -31.747051 -30.295798 -14.942140 -5.537134 31.679550 27.674342 34.288125 -2.988812 -12.905308 -37.331453 -36.782239 -10.680957 8.312207 25.355847 -0.000000 0.000000 0.000000 -0.000000 0.000000 0.000000 -0.000000 0.000000 0.000000 45.449481 15.261739 7.288655 -72.080240 -40.345478 -21.679599 0.000000 0.000000 0.000000 -21.393851 20.266221 10.604944 0.248906 -75.712146 -14.186041 0.000000 0.000000 0.000000
0.000000 0.819371 0.000000 -0.000000 0.000000 -29.599098 -32.715668 11.540415 32.996902 17.389504 5.934150 4.371800 3.951641 -32.118745 -28.461137 -15.454892 -3.100458 29.178287 22.792048 31.443226 -1.248267 -8.695366 -36.143721 -32.441331 -10.467011 8.825411 25.526352 -0.000000 0.000000 -0.000000 -0.000000 0.000000 -0.000000 -0.000000 0.000000 -0.000000 45.912970 13.668931 5.031763 -69.763637 -41.443712 -21.095410 0.000000 0.000000 -0.000000 -21.814576 20.109236 7.491038 7.835133 -75.106012 -8.654150 -0.000000 0.000000 0.000000
0.000000 0.825557 0.000000 -0.000000 0.000000 -26.634301 -30.516405 11.825641 29.870799 19.472180 8.456943 4.421655 0.659660 -32.555622 -26.441678 -15.712680 -0.755653 26.530031 17.849002 28.406104 0.114402 -4.191001 -34.632278 -27.941474 -10.071206 9.540015 25.556676 -0.000000 0.000000 0.000000 -0.000000 0.000000 0.000000 -0.000000 0.000000 0.000000 45.987687 11.630340 2.970703 -66.811619 -41.994894 -19.905875 0.000000 0.000000 -0.000000 -22.432925 19.634401 4.229286 14.708079 -73.704830 -3.805208 0.000000 0.000000 -0.000000
0.000000 0.830647 0.000000 -0.000000 0.000000 -23.676084 -28.383277 12.018413 26.725817 21.260693 10.844998 4.255039 -2.292743 -32.950078 -24.354222 -15.639325 1.546739 23.888515 13.039728 25.266907 1.041105 0.191778 -32.913400 -23.619435 -9.529550 10.300422 25.410934 0.000000 0.000000 0.000000 0.000000 0.000000 0.000000 0.000000 0.000000 0.000000 45.873174 9.459607 1.125296 -63.614125 -42.163268 -18.365599 0.000000 0.000000 0.000000 -23.188905 19.033290 1.092764 20.103476 -71.885320 -0.294187 0.000000 0.000000 0.000000
0.000000 0.835880 0.000000 -0.000000 0.000000 -20.719940 -26.198524 12.051994 23.534184 22.623481 13.179092 3.873013 -4.819743 -33.298431 -22.162052 -15.120199 3.826697 21.228004 8.241401 22.046913 1.552098 4.385458 -30.985872 -19.503779 -8.907998 11.027066 25.121046 -0.000000 0.000000 0.000000 -0.000000 0.000000 0.000000 -0.000000 0.000000 0.000000 45.589151 7.269192 -0.602399 -60.409834 -41.982430 -16.728493 0.000000 0.000000 -0.000000 -23.987957 18.349940 -1.929396 24.010204 -69.611734 1.912023 -0.000000 0.000000 0.000000
0.000000 0.841842 0.000000 -0.000000 0.000000 -18.051768 -24.248451 11.929370 20.623346 23.836318 15.202137 3.401692 -7.069934 -33.529704 -20.184036 -14.377223 6.080366 18.819379 4.281290 18.752125 1.643646 7.595645 -29.010193 -16.083990 -8.223527 11.718252 24.827441 -0.000000 0.000000 -0.000000 -0.000000 0.000000 -0.000000 -0.000000 0.000000 -0.000000 45.180663 5.096065 -2.080320 -57.391127 -41.614664 -15.077481 -0.000000 0.000000 0.000000 -24.920272 17.653006 -4.676001 26.805046 -67.258211 3.180873 0.000000 0.000000 0.000000
0.000000 0.848730 0.000000 -0.000000 0.000000 -15.746024 -22.717279 11.628472 18.089726 24.897252 16.850990 2.916049 -8.845156 -33.602950 -18.421613 -13.681104 7.882499 16.693087 2.084497 16.140864 1.489377 9.156067 -27.450185 -13.505281 -7.525455 12.378101 24.579464 -0.000000 0.000000 -0.000000 -0.000000 0.000000 -0.000000 -0.000000 0.000000 -0.000000 44.715534 3.074397 -3.317911 -54.827933 -41.084510 -13.614768 0.000000 0.000000 0.000000 -25.881604 17.025671 -7.100956 28.620449 -65.018980 3.740860 0.000000 0.000000 0.000000
0.000000 0.858361 0.000000 -0.000000 0.000000 -13.694061 -21.445658 11.140659 15.810140 25.850956 18.321424 2.399004 -10.299759 -33.567772 -16.808207 -13.055971 9.514656 14.785303 1.104506 13.592744 1.238599 9.559854 -25.928913 -11.488393 -6.802258 13.038406 24.406771 -0.000000 0.000000 -0.000000 -0.000000 0.000000 -0.000000 -0.000000 0.000000 -0.000000 43.989397 1.104368 -4.435829 -52.250435 -40.478930 -12.198157 0.000000 0.000000 0.000000 -26.849788 16.394032 -9.371249 29.477983 -62.787153 3.646185 -0.000000 0.000000 0.000000
0.000000 0.869451 0.000000 -0.000000 0.000000 -11.972939 -20.439472 10.836429 13.932227 26.513490 19.130027 1.990290 -11.360835 -33.288896 -15.379518 -12.504465 10.978002 13.179307 0.766937 10.964256 0.972835 9.384489 -24.296590 -9.948485 -6.178788 13.522228 24.314138 -0.000000 0.000000 -0.000000 -0.000000 0.000000 -0.000000 -0.000000 0.000000 -0.000000 43.299341 -0.598251 -5.459677 -49.905302 -39.822919 -10.935408 -0.000000 0.000000 0.000000 -27.693132 15.952076 -11.304484 29.727164 -60.854152 3.213072 0.000000 0.000000 0.000000
0.000000 0.878879 0.000000 -0.000000 0.000000 -10.573073 -19.521319 10.698121 12.418601 26.763149 19.375561 1.689837 -12.035783 -32.787213 -14.125877 -11.921218 12.029941 11.833693 0.413012 8.899447 0.756681 9.266492 -22.907820 -8.691611 -5.697108 13.846268 24.152637 0.000000 0.000000 0.000000 0.000000 0.000000 0.000000 0.000000 0.000000 0.000000 42.690431 -1.819848 -6.307463 -47.870907 -39.180206 -9.917390 -0.000000 0.000000 0.000000 -28.388438 15.623777 -12.765500 29.963214 -59.466232 2.877830 -0.000000 0.000000 0.000000
