HIERARCHY
ROOT Hips
{
  OFFSET 0 0 0
  CHANNELS 6 Xposition Yposition Zposition Zrotation Xrotation Yrotation
  JOINT RightUpLeg
  {
    OFFSET -0.105 0 0
    CHANNELS 3 Zrotation Xrotation Yrotation
    JOINT RightLeg
    {
      OFFSET 0 -0.43 0
      CHANNELS 3 Zrotation Xrotation Yrotation
      JOINT RightFoot
      {
        OFFSET 0 -0.43 0
        CHANNELS 3 Zrotation Xrotation Yrotation
        End Site
        {
          OFFSET 0 -0.07 0.18
        }
      }
    }
  }
  JOINT LeftUpLeg
  {
    OFFSET 0.105 0 0
    CHANNELS 3 Zrotation Xrotation Yrotation
    JOINT LeftLeg
    {
      OFFSET 0 -0.43 0
      CHANNELS 3 Zrotation Xrotation Yrotation
      JOINT LeftFoot
      {
        OFFSET 0 -0.43 0
        CHANNELS 3 Zrotation Xrotation Yrotation
        End Site
        {
          OFFSET 0 -0.07 0.18
        }
      }
    }
  }
  JOINT Spine
  {
    OFFSET 0 0.19 0
    CHANNELS 3 Zrotation Xrotation Yrotation
    JOINT Chest
    {
      OFFSET 0 0.18 0
      CHANNELS 3 Zrotation Xrotation Yrotation
      JOINT Neck
      {
        OFFSET 0 0.17 0
        CHANNELS 3 Zrotation Xrotation Yrotation
        JOINT Head
        {
          OFFSET 0 0.15 0
          CHANNELS 3 Zrotation Xrotation Yrotation
          End Site
          {
            OFFSET 0 0.12 0
          }
        }
      }
      JOINT LeftArm
      {
        OFFSET 0.19 0.17 0.04
        CHANNELS 3 Zrotation Xrotation Yrotation
        JOINT LeftForeArm
        {
          OFFSET 0 -0.34 0
          CHANNELS 3 Zrotation Xrotation Yrotation
          JOINT LeftHand
          {
            OFFSET 0 -0.38 0
            CHANNELS 3 Zrotation Xrotation Yrotation
            End Site
            {
              OFFSET 0 -0.08 0
            }
          }
        }
      }
      JOINT RightArm
      {
        OFFSET -0.19 0.17 0.04
        CHANNELS 3 Zrotation Xrotation Yrotation
        JOINT RightForeArm
        {
          OFFSET 0 -0.34 0
          CHANNELS 3 Zrotation Xrotation Yrotation
          JOINT RightHand
          {
            OFFSET 0 -0.38 0
            CHANNELS 3 Zrotation Xrotation Yrotation
            End Site
            {
              OFFSET 0 -0.08 0
            }
          }
        }
      }
    }
  }
}
MOTION
Frames: 115
Frame Time: 0.04000000
0.000000 1.128130 0.000000 -0.000000 0.000000 9.347898 -10.920042 11.917849 -8.204644 4.344870 16.024297 1.566494 8.390497 -26.080104 11.294468 22.151735 -0.445561 -9.260676 -28.686741 23.565330 0.636695 7.200522 -26.541306 11.048249 1.332814 10.000114 -8.943610 0.000000 0.000000 -0.000000 0.000000 0.000000 -0.000000 0.000000 0.000000 -0.000000 27.107058 28.561036 -5.155161 -3.787334 -34.322083 5.061893 -0.000000 0.000000 0.000000 -20.386402 25.499438 2.435079 3.153211 -47.167757 -5.923116 -0.000000 0.000000 -0.000000
0.000000 1.142680 0.000000 -0.000000 0.000000 8.771982 -10.940292 11.620416 -7.655379 3.889143 15.662258 1.538935 8.745569 -25.542332 10.757958 22.514851 -0.153588 -8.741411 -28.671998 23.850749 0.546245 6.862608 -26.952682 10.418407 1.028096 10.016380 -8.640662 -0.000000 0.000000 -0.000000 -0.000000 0.000000 -0.000000 -0.000000 0.000000 -0.000000 26.837154 29.184517 -4.907154 -2.622271 -35.242591 5.819149 0.000000 0.000000 0.000000 -20.739534 25.721098 2.895725 4.408222 -47.179269 -5.216407 0.000000 0.000000 0.000000
0.000000 1.152352 0.000000 -0.000000 0.000000 8.133301 -10.992041 11.086020 -7.063307 3.798395 15.675243 1.512724 8.704009 -25.154110 10.078774 23.007761 -0.039956 -8.125169 -28.024999 24.610747 0.371126 5.691498 -27.666888 9.535874 0.564213 10.049909 -8.301696 -0.000000 0.000000 -0.000000 -0.000000 0.000000 -0.000000 -0.000000 0.000000 -0.000000 26.847153 29.586473 -4.566353 -1.398460 -36.251661 6.712296 -0.000000 0.000000 0.000000 -21.121391 25.767927 3.405319 4.943542 -47.190937 -5.059460 0.000000 0.000000 -0.000000
0.000000 1.156783 0.000000 -0.000000 0.000000 7.503430 -10.945940 10.414999 -6.502807 3.942967 16.005092 1.478044 8.309628 -24.956717 9.345409 23.398495 -0.116265 -7.479355 -26.512257 25.972683 0.090984 3.687132 -28.788944 8.450051 -0.029662 10.138556 -8.024058 -0.000000 0.000000 0.000000 -0.000000 0.000000 0.000000 -0.000000 0.000000 0.000000 27.087810 29.907647 -4.131243 -0.423246 -37.584828 7.578691 -0.000000 0.000000 0.000000 -21.582410 25.687245 3.992278 5.342992 -47.199933 -5.069664 -0.000000 0.000000 0.000000
0.000000 1.155513 0.000000 -0.000000 0.000000 6.852066 -10.966164 9.678562 -5.920816 4.560128 16.628420 1.432872 7.487697 -24.982615 8.513105 23.895852 -0.387487 -6.770071 -24.802285 27.960976 -0.269379 1.333649 -30.335089 7.213615 -0.745490 10.262530 -7.794911 0.000000 0.000000 0.000000 0.000000 0.000000 0.000000 0.000000 0.000000 0.000000 27.669766 30.248684 -3.640393 0.168125 -39.426166 8.406199 -0.000000 0.000000 0.000000 -22.074787 25.409681 4.647133 5.798493 -46.947786 -5.061588 -0.000000 0.000000 -0.000000
0.000000 1.149124 0.000000 -0.000000 0.000000 6.231308 -11.033061 8.823270 -5.377483 5.590370 17.613178 1.359422 6.289660 -25.236627 7.640670 24.461235 -0.854228 -6.046137 -22.726170 30.385564 -0.809250 -1.488732 -32.121251 5.802694 -1.571298 10.415739 -7.636769 0.000000 0.000000 -0.000000 0.000000 0.000000 -0.000000 0.000000 0.000000 -0.000000 28.691190 30.503952 -3.121808 0.167936 -41.767267 9.091558 -0.000000 0.000000 0.000000 -22.703667 24.930365 5.345122 6.610240 -46.415624 -4.878416 0.000000 0.000000 -0.000000
0.000000 1.139869 0.000000 -0.000000 0.000000 5.723978 -11.011168 7.799993 -4.971004 6.176664 19.099809 1.302187 5.490985 -25.805524 6.982773 25.076557 -1.537231 -5.382085 -19.617031 33.126604 -1.793092 -5.412213 -34.033167 4.066468 -2.504716 10.623896 -7.573010 0.000000 0.000000 0.000000 0.000000 0.000000 0.000000 0.000000 0.000000 0.000000 30.146320 30.467406 -2.572614 -0.527122 -44.463766 9.524882 -0.000000 0.000000 0.000000 -23.441301 24.129618 5.978073 7.972374 -45.511441 -4.405348 -0.000000 0.000000 -0.000000
0.000000 1.124961 0.000000 -0.000000 0.000000 5.519373 -11.006041 6.615483 -4.881321 6.075315 21.410578 1.344373 5.466750 -26.972550 6.831377 25.922894 -2.717063 -4.893904 -16.018636 36.697651 -3.290249 -10.046479 -36.393183 2.209355 -3.580768 10.819815 -7.707852 -0.000000 0.000000 0.000000 -0.000000 0.000000 0.000000 -0.000000 0.000000 0.000000 32.276753 30.139762 -2.126591 -1.930577 -47.850204 9.812054 -0.000000 0.000000 -0.000000 -24.300340 23.033888 6.480033 9.885397 -43.813960 -3.641500 0.000000 0.000000 0.000000
0.000000 1.104859 0.000000 -0.000000 0.000000 5.696642 -10.954252 5.319127 -5.186248 5.114101 24.273151 1.555774 6.312960 -28.506896 7.301853 27.168394 -4.316853 -4.653081 -12.798488 40.577843 -5.208176 -14.607127 -38.825846 0.524408 -4.768663 10.994137 -8.039077 0.000000 0.000000 0.000000 0.000000 0.000000 0.000000 0.000000 0.000000 0.000000 35.169288 29.002993 -1.742125 -5.052553 -51.447971 9.206621 -0.000000 0.000000 -0.000000 -25.205417 21.777241 6.772314 11.950279 -41.752821 -2.892529 0.000000 0.000000 -0.000000
0.000000 1.087343 0.000000 -0.000000 0.000000 5.881430 -11.248511 4.040868 -5.483329 3.961298 26.754979 1.928421 7.678813 -29.643313 7.916198 28.460780 -5.892669 -4.385796 -10.748345 44.072685 -6.997644 -17.914561 -40.909233 -0.847609 -6.035782 11.154444 -8.415156 0.000000 0.000000 -0.000000 0.000000 0.000000 -0.000000 0.000000 0.000000 -0.000000 37.956530 26.976189 -0.991802 -9.790494 -54.284129 7.345727 0.000000 0.000000 -0.000000 -26.201522 20.776452 7.184185 13.298476 -40.365702 -2.711886 0.000000 0.000000 -0.000000
0.000000 1.072425 0.000000 -0.000000 0.000000 5.637822 -11.970465 2.752227 -5.349214 2.903003 28.582937 2.415815 9.323297 -30.161340 8.155220 29.416523 -6.883631 -3.828848 -10.386789 46.714054 -7.955720 -19.142783 -42.490556 -1.863860 -7.386456 11.281574 -8.673735 -0.000000 0.000000 0.000000 -0.000000 0.000000 0.000000 -0.000000 0.000000 0.000000 39.791693 24.613379 0.358963 -15.833061 -57.274183 4.290105 -0.000000 0.000000 -0.000000 -27.385738 20.023750 8.004053 13.918056 -39.576559 -3.016127 -0.000000 0.000000 0.000000
0.000000 1.059831 0.000000 -0.000000 0.000000 4.995713 -13.089367 1.579012 -4.814549 2.385276 29.870222 2.898300 10.808808 -30.315263 7.931893 30.154120 -7.109581 -3.078172 -12.318322 48.390909 -7.589423 -17.983783 -43.646302 -2.255733 -8.738488 11.328838 -8.737893 0.000000 0.000000 0.000000 0.000000 0.000000 0.000000 0.000000 0.000000 0.000000 40.503805 22.157164 2.047792 -24.715097 -61.479918 -1.236054 0.000000 0.000000 -0.000000 -28.628838 19.645428 9.147014 13.796067 -39.270583 -3.719399 0.000000 0.000000 -0.000000
0.000000 1.051303 0.000000 -0.000000 0.000000 3.983349 -14.589398 0.548775 -3.913100 2.188531 30.531354 3.385072 12.379974 -30.074376 7.321222 30.535264 -6.351940 -2.247866 -16.670367 48.227032 -5.604433 -14.238383 -43.748857 -1.757857 -9.924121 11.235322 -8.787953 -0.000000 0.000000 0.000000 -0.000000 0.000000 0.000000 -0.000000 0.000000 0.000000 40.026403 19.692579 4.064878 -40.159844 -65.286696 -12.591748 -0.000000 0.000000 0.000000 -30.024450 19.561557 10.736366 12.722381 -39.447308 -4.937400 -0.000000 0.000000 0.000000
0.000000 1.046067 0.000000 -0.000000 0.000000 2.673758 -16.205143 -0.332663 -2.721118 2.035219 30.444947 3.835568 14.071191 -29.361855 6.377611 30.228393 -4.537712 -1.447589 -23.295158 45.528734 -2.272731 -7.501823 -42.256338 -0.228720 -10.906615 11.072342 -8.865815 -0.000000 0.000000 -0.000000 -0.000000 0.000000 -0.000000 -0.000000 0.000000 -0.000000 38.526609 17.229868 6.324609 -63.126210 -65.981524 -30.454119 -0.000000 0.000000 0.000000 -31.490646 19.817244 12.755779 10.215817 -40.275636 -7.023720 -0.000000 0.000000 0.000000
0.000000 1.045704 0.000000 -0.000000 0.000000 1.066437 -17.882039 -1.147893 -1.247040 1.996379 29.555632 4.168018 15.761002 -28.073141 5.030238 28.778751 -1.955138 -0.564784 -28.330303 40.843426 0.187792 -0.770251 -39.397993 0.790659 -11.597464 10.860769 -8.937317 -0.000000 0.000000 -0.000000 -0.000000 0.000000 -0.000000 -0.000000 0.000000 -0.000000 36.250225 14.612932 8.764319 -91.418248 -60.928449 -50.727168 -0.000000 0.000000 -0.000000 -33.277775 20.394985 15.182657 5.930422 -41.494899 -10.343828 -0.000000 0.000000 0.000000
0.000000 1.049733 0.000000 -0.000000 0.000000 -0.920547 -19.722217 -2.078891 0.559138 2.301148 28.026214 4.332160 17.325161 -26.247008 3.147988 25.956454 1.015115 0.686589 -29.816022 35.537658 1.073886 3.980443 -36.138708 0.378574 -11.972316 10.628168 -8.781690 0.000000 0.000000 0.000000 0.000000 0.000000 0.000000 0.000000 0.000000 0.000000 33.048044 11.384842 11.313262 -118.655153 -46.458797 -63.255991 0.000000 0.000000 0.000000 -35.651741 21.308287 17.914662 0.043734 -42.860283 -15.035278 0.000000 0.000000 -0.000000
0.000000 1.047299 0.000000 -0.000000 0.000000 -3.215913 -20.890715 -2.946643 2.672575 3.371383 25.585355 3.966427 17.535009 -23.772291 0.502639 22.508579 3.710506 2.477310 -29.122151 30.711873 1.147947 6.950587 -33.112058 -1.147347 -12.163779 10.411882 -8.501132 -0.000000 0.000000 0.000000 -0.000000 0.000000 0.000000 -0.000000 0.000000 0.000000 30.062099 7.383558 13.949699 -134.436249 -27.879663 -57.094235 -0.000000 0.000000 -0.000000 -38.423698 22.424149 20.982637 -7.320755 -44.170152 -21.193207 0.000000 0.000000 -0.000000
0.000000 1.047736 0.000000 -0.000000 0.000000 -5.765195 -21.497311 -3.534237 5.094079 3.537731 22.326489 3.564679 18.115677 -20.903218 -2.396326 18.763080 6.045810 4.765416 -27.383709 26.299435 0.913630 8.867342 -30.316177 -3.358502 -12.170045 10.151567 -8.135170 0.000000 0.000000 0.000000 0.000000 0.000000 0.000000 0.000000 0.000000 0.000000 27.661247 3.691819 16.497281 -141.667555 -15.707133 -42.812340 0.000000 0.000000 0.000000 -41.222312 23.391039 24.161382 -15.851548 -44.822481 -28.479894 0.000000 0.000000 0.000000
0.000000 1.045007 0.000000 -0.000000 0.000000 -8.810669 -21.110011 -4.059574 8.053934 4.120927 19.563814 2.976407 17.306234 -18.698824 -5.940075 14.420921 8.039083 7.791960 -24.459931 22.169509 0.544191 9.844674 -27.727859 -6.375306 -11.960083 9.724732 -7.401050 -0.000000 0.000000 0.000000 -0.000000 0.000000 0.000000 -0.000000 0.000000 0.000000 26.042237 0.407128 18.989765 -145.345986 -8.530616 -26.593758 0.000000 0.000000 -0.000000 -44.029946 24.284989 27.415749 -25.679237 -44.754586 -37.055118 0.000000 0.000000 -0.000000
0.000000 1.046348 0.000000 -0.000000 0.000000 -12.148793 -19.792009 -4.148703 11.424719 3.398200 16.825410 2.503883 16.807580 -16.845547 -9.642436 9.907154 9.409204 11.331452 -20.828834 18.664230 0.220404 10.001137 -25.573017 -9.873585 -11.582865 9.219274 -6.595622 -0.000000 0.000000 0.000000 -0.000000 0.000000 0.000000 -0.000000 0.000000 0.000000 25.299308 -2.192018 21.617410 -147.734724 -4.529750 -11.953259 -0.000000 0.000000 -0.000000 -46.391312 24.985727 30.707243 -36.488306 -43.394626 -46.309158 -0.000000 0.000000 0.000000
0.000000 1.047241 0.000000 -0.000000 0.000000 -16.240467 -17.871011 -3.943441 15.620198 3.071382 14.361704 1.956887 15.212636 -15.492384 -14.159134 5.176677 10.183224 15.778914 -16.682340 15.579948 0.002623 9.577625 -23.713706 -14.225189 -11.005581 8.637479 -5.454582 0.000000 0.000000 0.000000 0.000000 0.000000 0.000000 0.000000 0.000000 0.000000 25.926331 -4.420055 24.751472 -148.982812 -1.863480 3.021144 -0.000000 0.000000 -0.000000 -48.740627 25.478191 34.242991 -47.788287 -40.784949 -55.997853 0.000000 0.000000 -0.000000
0.000000 1.051706 0.000000 -0.000000 0.000000 -20.562074 -16.184261 -3.371501 20.082575 4.402686 12.421956 1.402281 11.975024 -14.886770 -18.991946 0.818905 10.694520 20.485424 -13.299864 12.051999 -0.206139 9.353846 -21.590294 -18.774726 -10.249263 8.066217 -4.169658 0.000000 0.000000 -0.000000 0.000000 0.000000 -0.000000 0.000000 0.000000 -0.000000 27.226160 -6.145198 28.046724 -149.911479 -0.282793 15.554227 0.000000 0.000000 0.000000 -50.943095 25.821632 37.701441 -57.792791 -37.518999 -64.608258 -0.000000 0.000000 0.000000
0.000000 1.075349 0.000000 -0.000000 0.000000 -25.073693 -15.068365 -2.377036 24.759263 6.508822 10.397954 0.985458 8.170737 -14.590035 -24.025972 -3.144919 11.094323 25.379203 -10.616043 8.219460 -0.433737 9.201590 -19.420418 -23.495856 -9.400312 7.582165 -2.689452 0.000000 0.000000 0.000000 0.000000 0.000000 0.000000 0.000000 0.000000 0.000000 28.312603 -6.853699 31.246234 -150.784037 0.755855 24.222309 0.000000 0.000000 -0.000000 -52.757261 26.012078 40.927097 -65.935746 -33.859352 -71.272167 -0.000000 0.000000 0.000000
0.000000 1.088705 0.000000 -0.000000 0.000000 -29.465019 -14.839196 -1.411934 29.281140 10.530886 9.181693 0.807525 3.015675 -15.209107 -29.062307 -6.615741 11.219158 30.115530 -8.322931 4.733111 -0.601966 8.863919 -17.590444 -28.090892 -8.559072 7.298260 -1.299529 -0.000000 0.000000 0.000000 -0.000000 0.000000 0.000000 -0.000000 0.000000 0.000000 28.966515 -6.894972 34.320917 -151.788645 1.530946 30.300274 -0.000000 0.000000 -0.000000 -54.415360 26.215414 44.072253 -72.767598 -30.010971 -76.647983 0.000000 0.000000 -0.000000
0.000000 1.093906 0.000000 -0.000000 0.000000 -33.647075 -15.207805 -0.687774 33.555257 15.948532 9.305743 0.858236 -3.188118 -17.026748 -34.124423 -9.350949 10.979329 34.547748 -6.169916 1.913501 -0.646833 8.038209 -16.102011 -32.508249 -7.794831 7.147669 -0.190073 -0.000000 0.000000 0.000000 -0.000000 0.000000 0.000000 -0.000000 0.000000 0.000000 29.457272 -6.585678 37.404157 -153.074708 1.908628 34.906016 0.000000 0.000000 0.000000 -55.994417 25.621935 46.774981 -77.611530 -26.247891 -80.110651 -0.000000 0.000000 -0.000000
0.000000 1.092401 0.000000 -0.000000 0.000000 -37.818787 -15.832184 -0.427014 37.759411 23.124858 10.955131 0.899329 -11.084818 -19.890121 -39.768279 -11.370395 10.360488 38.852989 -3.737383 -0.152417 -0.505282 6.415743 -14.920916 -36.977779 -7.056367 7.083289 0.904089 -0.000000 0.000000 0.000000 -0.000000 0.000000 0.000000 -0.000000 0.000000 0.000000 29.997394 -5.988092 40.453880 -154.662346 1.862363 38.432184 -0.000000 0.000000 -0.000000 -57.493759 24.443854 49.053922 -81.554201 -22.369131 -82.669328 -0.000000 0.000000 0.000000
0.000000 1.088712 0.000000 -0.000000 0.000000 -41.940308 -16.726744 -0.695351 41.838080 30.347609 12.656862 0.887809 -18.794970 -22.331223 -45.682388 -12.844773 9.195249 42.977557 -0.884473 -1.091805 -0.159337 4.259493 -14.298346 -41.405805 -6.380191 7.088361 1.852177 -0.000000 0.000000 0.000000 -0.000000 0.000000 0.000000 -0.000000 0.000000 0.000000 30.672826 -5.310078 43.594784 -156.568050 1.372274 41.622282 0.000000 0.000000 -0.000000 -58.859960 22.846444 51.119173 -84.840817 -18.306891 -84.443838 0.000000 0.000000 -0.000000
0.000000 1.082500 0.000000 -0.000000 0.000000 -46.070199 -17.830569 -1.152514 45.889400 38.913707 13.796451 0.970076 -27.912282 -23.826387 -52.072752 -13.866279 7.692048 47.006940 2.629911 -1.372988 0.336643 1.342687 -13.937556 -45.906073 -5.786338 7.153897 2.782895 0.000000 0.000000 0.000000 0.000000 0.000000 0.000000 0.000000 0.000000 0.000000 31.586407 -4.601445 46.779348 -158.593188 0.704732 45.103146 0.000000 0.000000 0.000000 -60.181013 21.238823 53.181877 -87.925948 -14.115732 -85.998505 0.000000 0.000000 0.000000
0.000000 1.073892 0.000000 -0.000000 0.000000 -50.485517 -19.120442 -1.791769 50.183718 46.351883 13.781677 1.540776 -35.781405 -24.023711 -58.343968 -14.605591 5.923258 51.245264 6.723636 -1.302913 0.908783 -2.183764 -13.685067 -50.747591 -5.222874 7.285439 3.733625 0.000000 0.000000 -0.000000 0.000000 0.000000 -0.000000 0.000000 0.000000 -0.000000 32.503494 -3.767206 50.198551 -160.723428 0.169124 49.463581 0.000000 0.000000 -0.000000 -61.090117 19.643506 55.413003 -91.431009 -9.685212 -87.375091 0.000000 0.000000 0.000000
0.000000 1.062143 0.000000 -0.000000 0.000000 -54.823321 -20.669091 -2.148482 54.431493 52.795868 12.449652 3.010473 -42.721421 -22.967029 -63.908993 -15.094427 3.959268 55.348094 12.121655 -1.137366 1.618983 -6.943100 -13.283019 -55.632741 -4.754862 7.480530 4.582124 -0.000000 0.000000 0.000000 -0.000000 0.000000 0.000000 -0.000000 0.000000 0.000000 33.502626 -2.787795 53.609424 -163.074185 -0.631451 53.743225 -0.000000 0.000000 0.000000 -61.577169 18.362072 57.820283 -95.186463 -5.097028 -88.375625 -0.000000 0.000000 0.000000
0.000000 1.050266 0.000000 -0.000000 0.000000 -59.452615 -22.692697 -2.176630 59.015800 57.558799 9.613281 5.790219 -47.995816 -20.783859 -68.787386 -15.401547 1.740302 59.687955 17.981492 -1.119730 2.344773 -12.009037 -12.551093 -60.778035 -4.336127 7.696837 5.504690 -0.000000 0.000000 -0.000000 -0.000000 0.000000 -0.000000 -0.000000 0.000000 -0.000000 34.759010 -1.471348 57.151086 -165.778469 -1.838461 58.054324 -0.000000 0.000000 0.000000 -61.855048 17.518005 60.717185 -99.426583 -0.081993 -89.005005 -0.000000 0.000000 0.000000
0.000000 1.038103 0.000000 -0.000000 0.000000 -64.108320 -25.124255 -1.871545 63.691244 61.597106 5.675243 9.839661 -52.531893 -17.582734 -72.837070 -15.511629 -0.571122 64.030535 24.761488 -1.580881 3.220530 -17.853097 -11.183621 -65.870398 -3.936522 7.927847 6.239379 -0.000000 0.000000 -0.000000 -0.000000 0.000000 -0.000000 -0.000000 0.000000 -0.000000 36.635869 -0.062783 60.888451 -168.801560 -4.046844 62.468096 -0.000000 0.000000 0.000000 -59.764641 18.478298 64.747497 -106.353030 4.714858 -88.066990 0.000000 0.000000 -0.000000
0.000000 1.028914 0.000000 -0.000000 0.000000 -69.352713 -28.545483 -1.712803 68.916962 64.321774 -0.034955 15.629265 -55.036294 -13.278967 -76.293285 -15.383511 -3.172542 68.924126 31.510080 -2.566750 4.195192 -23.403545 -9.189776 -71.260035 -3.503939 8.094490 7.329609 -0.000000 0.000000 0.000000 -0.000000 0.000000 0.000000 -0.000000 0.000000 0.000000 39.087726 2.046627 64.585066 -172.483253 -6.901147 67.351884 0.000000 0.000000 0.000000 -57.125889 20.690576 69.665842 -113.500267 9.786384 -83.941193 0.000000 0.000000 0.000000
0.000000 1.026738 0.000000 -0.000000 0.000000 -75.152686 -32.213708 -1.680627 74.667348 65.292807 -6.446681 21.867072 -55.673268 -8.924044 -79.871975 -14.600893 -6.058641 74.375796 36.378376 -3.420016 4.811926 -26.910273 -7.212725 -76.880487 -3.040539 8.288182 8.941944 -0.000000 0.000000 0.000000 -0.000000 0.000000 0.000000 -0.000000 0.000000 0.000000 41.609878 4.739802 67.991284 -176.586343 -10.151322 72.247338 -0.000000 0.000000 -0.000000 -53.898761 22.764830 74.267155 -120.127436 13.559450 -77.172334 -0.000000 0.000000 -0.000000
0.000000 1.029530 0.000000 -0.000000 0.000000 -81.284067 -36.058428 -1.519180 80.789573 63.474864 -13.574885 27.494153 -53.899800 -5.243235 -83.951236 -13.499553 -9.161509 80.197484 39.982935 -4.519751 5.317955 -28.817445 -5.234976 -82.629904 -2.519954 8.420998 11.142305 0.000000 0.000000 -0.000000 0.000000 0.000000 -0.000000 0.000000 0.000000 -0.000000 43.788536 7.588130 70.852836 179.034172 -13.715140 77.126789 0.000000 0.000000 -0.000000 -51.875199 23.170023 77.800444 -123.539929 15.174189 -70.470458 -0.000000 0.000000 -0.000000
0.000000 1.027433 0.000000 -0.000000 0.000000 -87.329805 -40.310581 -0.826192 87.026552 58.603287 -21.993654 31.850185 -49.775569 -2.220379 -88.359996 -12.621508 -12.931161 85.893708 43.139203 -6.347689 6.118090 -29.297897 -3.148818 -88.153077 -2.053001 8.755089 13.951025 -0.000000 0.000000 0.000000 -0.000000 0.000000 0.000000 -0.000000 0.000000 0.000000 45.308377 10.077395 73.065852 174.557590 -16.909879 82.214616 -0.000000 0.000000 0.000000 -51.260807 21.841748 79.887536 -123.158712 15.535364 -64.987368 -0.000000 0.000000 0.000000
0.000000 1.021141 0.000000 -0.000000 0.000000 -91.339695 -44.547406 1.193169 91.828425 52.470807 -30.545825 34.525790 -45.211091 0.305991 -91.212289 -11.744195 -17.010315 89.577397 46.289734 -7.683167 6.755723 -28.993644 -1.633112 -91.761977 -1.679593 9.020652 15.630334 -0.000000 0.000000 0.000000 -0.000000 0.000000 0.000000 -0.000000 0.000000 0.000000 46.499578 12.237864 74.395584 170.202440 -19.780325 86.231226 0.000000 0.000000 0.000000 -51.556903 19.798902 80.986919 -120.779762 15.362082 -61.526832 -0.000000 0.000000 0.000000
0.000000 1.013752 0.000000 -0.000000 0.000000 -93.434051 -48.323072 3.564508 95.033542 47.024830 -37.649489 35.876771 -41.483006 2.146284 -92.621179 -10.566544 -20.720953 91.496952 48.750261 -7.701552 6.723314 -28.089553 -1.139961 -93.719231 -1.355301 9.364198 16.348060 0.000000 0.000000 -0.000000 0.000000 0.000000 -0.000000 0.000000 0.000000 -0.000000 47.950044 13.640330 75.086685 165.983290 -22.784110 89.675018 0.000000 0.000000 0.000000 -52.242445 18.047372 81.333774 -117.962036 15.081389 -59.516702 0.000000 0.000000 0.000000
0.000000 1.012747 0.000000 -0.000000 0.000000 -94.382543 -50.293479 5.278809 96.861938 42.893815 -41.381439 35.526565 -39.269832 2.817113 -93.377302 -8.991300 -22.901464 92.557700 49.414143 -6.757537 5.979743 -26.778392 -1.256593 -94.681666 -1.115791 9.856074 16.636560 -0.000000 0.000000 -0.000000 -0.000000 0.000000 -0.000000 -0.000000 0.000000 -0.000000 49.695842 14.105824 75.552608 162.194964 -25.953345 92.998545 0.000000 0.000000 0.000000 -52.806035 16.993627 81.236988 -115.591639 14.681924 -58.258762 -0.000000 0.000000 -0.000000
0.000000 1.014759 0.000000 -0.000000 0.000000 -94.400841 -50.580021 6.807190 97.620075 39.546144 -43.242087 34.199159 -37.706238 3.364240 -93.251787 -7.454047 -24.064351 92.809916 48.857732 -5.472381 4.936701 -25.109857 -1.544752 -94.744878 -0.911037 10.341917 16.592880 -0.000000 0.000000 0.000000 -0.000000 0.000000 0.000000 -0.000000 0.000000 0.000000 52.316480 14.091079 75.642466 158.090307 -29.745589 96.335535 -0.000000 0.000000 0.000000 -53.747247 16.425459 80.812358 -113.786417 14.442678 -58.240545 -0.000000 0.000000 0.000000
0.000000 1.020067 0.000000 -0.000000 0.000000 -93.742099 -49.492612 7.974681 97.422533 36.321832 -43.918511 31.836303 -35.906560 3.806305 -92.508380 -6.171375 -24.286092 92.412995 46.679512 -3.999552 3.757342 -22.674205 -2.021971 -94.147531 -0.814114 10.777460 16.470041 0.000000 0.000000 -0.000000 0.000000 0.000000 -0.000000 0.000000 0.000000 -0.000000 55.884969 13.668339 75.370329 153.718529 -33.923463 99.385704 -0.000000 0.000000 0.000000 -55.205257 16.358267 80.099295 -112.273308 14.472304 -59.400426 0.000000 0.000000 -0.000000
0.000000 1.026976 0.000000 -0.000000 0.000000 -91.823874 -46.716052 9.605000 95.979896 32.472896 -43.101538 28.044900 -33.834700 3.986157 -90.611024 -5.399140 -23.110115 90.719219 42.288164 -2.330964 2.516689 -19.308020 -2.650263 -92.274781 -0.780112 11.070953 15.625357 -0.000000 0.000000 -0.000000 -0.000000 0.000000 -0.000000 -0.000000 0.000000 -0.000000 61.091080 12.994958 74.719851 148.517822 -39.158785 100.277020 0.000000 0.000000 -0.000000 -56.936476 16.737062 79.181576 -110.950551 14.879207 -61.382415 -0.000000 0.000000 -0.000000
0.000000 1.036211 0.000000 -0.000000 0.000000 -89.418886 -41.838090 10.702704 93.520114 29.615495 -39.062517 23.544392 -32.759996 3.175205 -88.485359 -4.721505 -20.350241 88.571005 35.511506 -0.616195 1.402002 -15.127032 -3.263336 -89.852309 -0.891844 11.297381 14.765575 0.000000 0.000000 -0.000000 0.000000 0.000000 -0.000000 0.000000 0.000000 -0.000000 68.138285 11.914301 73.994631 140.869808 -45.722905 99.662666 -0.000000 0.000000 0.000000 -58.985352 17.679922 78.196324 -109.760553 15.864843 -63.955972 0.000000 0.000000 0.000000
0.000000 1.042093 0.000000 -0.000000 0.000000 -87.209522 -34.993808 10.671768 90.582469 27.909954 -31.378987 18.418735 -32.616954 0.848729 -86.961196 -4.133309 -16.442776 86.612074 27.478918 0.577214 0.709407 -10.880080 -3.601491 -87.552614 -1.353912 11.309621 14.490513 -0.000000 0.000000 -0.000000 -0.000000 0.000000 -0.000000 -0.000000 0.000000 -0.000000 76.525549 10.478727 73.369428 129.467868 -52.609880 96.980012 -0.000000 0.000000 0.000000 -61.680278 18.871437 77.244709 -108.808367 17.520274 -67.929909 -0.000000 0.000000 -0.000000
0.000000 1.040532 0.000000 -0.000000 0.000000 -85.264334 -27.544333 9.928969 87.703749 26.329749 -21.786737 12.972990 -32.186387 -2.757188 -86.059941 -4.405707 -12.977637 84.762994 22.045952 0.523195 0.580699 -8.770286 -3.642484 -85.543751 -2.008389 11.111203 14.573119 -0.000000 0.000000 -0.000000 -0.000000 0.000000 -0.000000 -0.000000 0.000000 -0.000000 85.043363 8.923748 73.008663 114.262807 -57.391793 98.046438 0.000000 0.000000 -0.000000 -64.654742 20.153275 76.544779 -107.694860 19.939188 -72.241549 0.000000 0.000000 -0.000000
0.000000 1.022453 0.000000 -0.000000 0.000000 -83.443966 -20.635485 9.233586 85.128473 23.169078 -11.857030 7.560031 -29.906701 -7.317547 -85.400783 -6.237119 -10.393452 82.876147 22.119910 -0.102628 0.960924 -11.118770 -4.623062 -83.894195 -2.829405 10.595221 14.648745 -0.000000 0.000000 -0.000000 -0.000000 0.000000 -0.000000 -0.000000 0.000000 -0.000000 91.198860 7.645998 72.490237 101.310954 -58.039648 112.951736 0.000000 0.000000 0.000000 -67.376578 21.431242 76.323130 -105.767869 22.405312 -75.893191 0.000000 0.000000 0.000000
0.000000 0.998113 0.000000 -0.000000 0.000000 -81.379379 -15.554191 9.043363 82.617005 19.608149 -4.403760 3.935207 -26.767983 -10.882747 -83.976171 -8.812993 -8.726051 80.705656 25.413360 0.475613 1.563666 -15.603061 -7.336004 -82.385836 -3.744113 9.821142 14.347487 -0.000000 0.000000 0.000000 -0.000000 0.000000 0.000000 -0.000000 0.000000 0.000000 94.288625 6.079882 72.102117 93.825654 -57.213572 140.583952 -0.000000 0.000000 0.000000 -69.537192 22.709682 76.526573 -102.829663 24.090698 -78.419798 -0.000000 0.000000 0.000000
0.000000 0.961876 0.000000 -0.000000 0.000000 -78.712950 -11.956527 9.447449 79.704516 14.931316 0.158914 1.760723 -22.474564 -12.925878 -81.291596 -11.467711 -6.990058 78.010214 29.635014 3.028583 2.010665 -21.029228 -11.892178 -80.927854 -4.737339 8.673149 13.642967 0.000000 0.000000 0.000000 0.000000 0.000000 0.000000 0.000000 0.000000 0.000000 94.079296 3.054659 72.317370 91.988823 -56.619319 -167.535789 -0.000000 0.000000 -0.000000 -71.601644 23.540813 76.641541 -99.219285 24.851229 -81.103549 0.000000 0.000000 0.000000
0.000000 0.923223 0.000000 -0.000000 0.000000 -74.716026 -9.086345 10.391350 75.543978 10.693801 2.734217 0.638937 -18.839353 -13.770126 -77.011267 -13.532647 -4.889457 74.135560 33.016013 6.381422 2.032565 -25.841099 -16.590284 -78.547359 -5.467717 7.300290 12.326741 0.000000 0.000000 0.000000 0.000000 0.000000 0.000000 0.000000 0.000000 0.000000 92.002371 -2.257304 73.189683 94.133906 -56.778655 -113.412468 -0.000000 0.000000 0.000000 -75.141077 24.725033 77.032181 -95.081588 26.320974 -85.448732 -0.000000 0.000000 -0.000000
0.000000 0.898118 0.000000 -0.000000 0.000000 -69.625980 -6.384657 11.103052 70.247185 9.026306 4.586372 0.082858 -17.653244 -14.098892 -71.826157 -14.401531 -2.181952 69.350273 33.939845 9.657588 1.536981 -28.621169 -20.540324 -74.918765 -6.158759 5.985756 10.417893 0.000000 0.000000 -0.000000 0.000000 0.000000 -0.000000 0.000000 0.000000 -0.000000 88.375335 -8.655988 73.640917 104.097778 -54.183559 -106.472926 -0.000000 0.000000 0.000000 -79.397338 26.126059 77.727918 -91.181218 29.864240 -91.317165 0.000000 0.000000 0.000000
0.000000 0.894762 0.000000 -0.000000 0.000000 -63.771275 -3.611961 11.702505 64.141551 8.040725 6.117903 -0.321950 -17.317749 -14.276472 -65.956450 -14.019342 1.026884 63.897540 33.399016 13.034719 0.606249 -30.435838 -24.108858 -70.420641 -7.071879 4.838439 8.401944 -0.000000 0.000000 0.000000 -0.000000 0.000000 0.000000 -0.000000 0.000000 0.000000 81.721254 -15.235572 72.091727 120.583968 -43.882281 -118.818713 0.000000 0.000000 -0.000000 -83.747127 28.204724 78.996519 -87.934688 36.245542 -99.697916 0.000000 0.000000 -0.000000
0.000000 0.900465 0.000000 -0.000000 0.000000 -57.903041 -0.893033 11.894351 57.996072 6.739258 7.761320 -0.700720 -16.644459 -14.672966 -60.060962 -12.998642 4.432965 58.408309 32.159073 15.374144 -0.167457 -31.775586 -26.728932 -65.640086 -8.109204 4.134480 6.682478 0.000000 0.000000 0.000000 0.000000 0.000000 0.000000 0.000000 0.000000 0.000000 73.664573 -19.686234 67.806422 140.749782 -19.867442 -150.964665 -0.000000 0.000000 0.000000 -88.685587 30.502684 80.846423 -86.211150 45.571214 -116.807947 0.000000 0.000000 0.000000
0.000000 0.907923 0.000000 -0.000000 0.000000 -52.240563 1.508231 11.633449 52.086909 5.079380 9.150153 -0.961481 -15.423967 -14.996336 -54.282798 -11.324655 7.760179 53.011146 29.446499 16.619984 -0.691741 -31.622250 -28.421785 -60.444240 -9.238985 3.905830 5.372040 0.000000 0.000000 -0.000000 0.000000 0.000000 -0.000000 0.000000 0.000000 -0.000000 62.067462 -21.456190 60.618648 174.169691 25.869191 162.126799 -0.000000 0.000000 0.000000 -92.942552 32.866096 82.650108 -85.362063 54.966340 -145.853393 -0.000000 0.000000 -0.000000
0.000000 0.914879 0.000000 -0.000000 0.000000 -46.819834 3.323046 11.215116 46.493473 3.283924 9.889765 -1.044341 -13.893703 -15.109912 -48.671456 -9.347810 10.981187 47.720357 25.497373 16.438105 -0.763824 -30.037799 -29.091141 -54.784336 -10.305532 4.055344 4.572551 0.000000 0.000000 0.000000 0.000000 0.000000 0.000000 0.000000 0.000000 0.000000 50.178615 -20.670838 52.342915 -122.341152 50.457962 90.849333 -0.000000 0.000000 -0.000000 -97.248701 34.596718 83.708750 -84.726101 63.200377 162.605364 -0.000000 0.000000 -0.000000
0.000000 0.920860 0.000000 -0.000000 0.000000 -41.901018 4.525343 10.517619 41.484281 1.641236 10.259940 -1.016163 -12.139651 -15.066558 -43.512334 -7.107522 13.761287 42.759772 21.405649 15.554476 -0.690407 -28.033149 -29.124312 -49.321784 -11.237672 4.445132 4.469289 -0.000000 0.000000 0.000000 -0.000000 0.000000 0.000000 -0.000000 0.000000 0.000000 39.123424 -18.534600 44.331068 -87.461041 41.718944 50.296626 0.000000 0.000000 -0.000000 -102.744321 35.111402 83.955841 -81.370130 68.432961 98.525421 -0.000000 0.000000 -0.000000
0.000000 0.926960 0.000000 -0.000000 0.000000 -37.340848 5.163301 9.728315 36.901155 0.100004 10.176703 -0.899009 -10.171596 -14.795411 -38.664914 -4.614599 16.300408 38.002078 16.865076 13.636474 -0.460781 -25.414380 -28.283397 -43.844269 -12.075084 4.976211 4.988852 0.000000 0.000000 0.000000 0.000000 0.000000 0.000000 0.000000 0.000000 0.000000 29.348690 -14.730232 36.681661 -72.804145 28.251443 28.294365 0.000000 0.000000 0.000000 -108.203991 34.516484 82.408385 -78.194209 70.053688 54.577783 0.000000 0.000000 0.000000
0.000000 0.933584 0.000000 -0.000000 0.000000 -33.324199 5.101097 8.950051 32.924709 -1.116273 9.537605 -0.720243 -8.100195 -14.232578 -34.337131 -1.977997 18.385372 33.644336 12.470287 11.320369 -0.288772 -22.770599 -26.961717 -38.851601 -12.880222 5.589937 6.215207 -0.000000 0.000000 0.000000 -0.000000 0.000000 0.000000 -0.000000 0.000000 0.000000 21.552114 -10.116516 29.840840 -66.350885 16.463788 14.010558 -0.000000 0.000000 0.000000 -113.590683 33.032646 79.041128 -77.795943 68.126330 34.992186 -0.000000 0.000000 0.000000
0.000000 0.940274 0.000000 -0.000000 0.000000 -29.732515 4.475170 8.103273 29.415367 -1.847028 8.804356 -0.545318 -6.076015 -13.636212 -30.459655 0.604181 19.740162 29.627393 9.134938 9.577947 -0.283686 -20.906904 -25.843008 -34.580140 -13.651821 6.263604 7.499485 -0.000000 0.000000 -0.000000 -0.000000 0.000000 -0.000000 -0.000000 0.000000 -0.000000 15.616755 -5.806004 24.193190 -62.465870 8.409011 4.356235 0.000000 0.000000 -0.000000 -118.287857 30.871217 73.853662 -78.417638 62.688725 29.576590 0.000000 0.000000 -0.000000
0.000000 0.946760 0.000000 -0.000000 0.000000 -26.381253 3.455296 7.185223 26.164246 -2.275841 8.106668 -0.382505 -4.015741 -13.017195 -26.839584 3.137946 20.454927 25.814957 6.589687 8.378567 -0.372793 -19.619493 -24.912461 -30.755791 -14.393008 6.981800 9.047483 -0.000000 0.000000 0.000000 -0.000000 0.000000 0.000000 -0.000000 0.000000 0.000000 11.093661 -1.935506 19.051372 -60.508132 2.550773 -2.798141 0.000000 0.000000 -0.000000 -122.513375 28.496196 66.912237 -78.707980 54.381897 29.400800 -0.000000 0.000000 0.000000
0.000000 0.954615 0.000000 -0.000000 0.000000 -23.163878 2.176761 6.180653 23.046343 -2.525829 7.556958 -0.232804 -1.897462 -12.386506 -23.369801 5.710863 20.517888 22.129436 4.637858 7.864009 -0.552626 -18.823367 -24.228152 -27.239112 -15.226749 7.855317 10.254093 -0.000000 0.000000 0.000000 -0.000000 0.000000 0.000000 -0.000000 0.000000 0.000000 7.237637 1.593252 14.701430 -58.047305 -1.364656 -8.174573 -0.000000 0.000000 -0.000000 -126.670185 26.551263 60.559744 -77.156361 45.429391 30.726076 -0.000000 0.000000 0.000000
0.000000 0.961637 0.000000 -0.000000 0.000000 -20.240879 0.722434 5.151482 20.208380 -2.545485 7.270854 -0.096659 0.103746 -11.853501 -20.230109 8.149333 19.975714 18.803364 3.090828 8.168613 -0.823215 -18.315795 -23.950804 -24.157702 -16.082447 8.860335 11.252727 -0.000000 0.000000 -0.000000 -0.000000 0.000000 -0.000000 -0.000000 0.000000 -0.000000 4.360056 4.431353 11.070915 -55.292611 -3.867580 -11.786418 0.000000 0.000000 0.000000 -131.012404 25.111257 55.344987 -73.799946 36.598779 32.684884 0.000000 0.000000 0.000000
0.000000 0.966650 0.000000 -0.000000 0.000000 -17.598198 -0.916830 3.954821 17.629854 -2.421245 7.389397 0.050053 2.124505 -11.432861 -17.385505 10.303534 18.925591 15.876342 2.012509 9.135552 -1.136332 -18.101643 -23.995944 -21.475992 -16.920265 9.945071 12.318351 -0.000000 0.000000 -0.000000 -0.000000 0.000000 -0.000000 -0.000000 0.000000 -0.000000 2.487188 6.663601 7.763572 -53.186913 -5.720034 -14.427906 0.000000 0.000000 0.000000 -136.793603 23.348620 49.869872 -67.562095 26.042277 35.951524 0.000000 0.000000 -0.000000
0.000000 0.967401 0.000000 -0.000000 0.000000 -15.193101 -2.745229 2.664278 15.256952 -2.176089 7.976472 0.225659 4.156305 -11.262363 -14.783110 12.170543 17.143707 13.351824 1.534030 11.499602 -1.613798 -18.292873 -24.829153 -19.252788 -17.726259 11.015141 13.547874 0.000000 0.000000 -0.000000 0.000000 0.000000 -0.000000 0.000000 0.000000 -0.000000 1.629591 8.109057 4.533600 -52.271771 -6.407307 -16.050730 0.000000 0.000000 -0.000000 -144.887942 18.070648 26.914608 -61.467080 2.380607 46.562038 0.000000 0.000000 0.000000
0.000000 0.965498 0.000000 -0.000000 0.000000 -12.647445 -4.702585 1.555206 12.711307 -1.796377 8.575035 0.414198 6.073886 -11.117006 -12.055788 13.784701 15.027474 10.820626 1.350192 14.116598 -2.116353 -18.613909 -25.752823 -16.938352 -18.349239 12.339014 15.068627 -0.000000 0.000000 0.000000 -0.000000 0.000000 0.000000 -0.000000 0.000000 0.000000 1.760078 9.255667 0.912489 -52.678735 -6.986544 -17.823216 -0.000000 0.000000 0.000000 -151.286243 12.376209 -29.954740 -34.742182 -41.260279 99.362716 0.000000 0.000000 0.000000
0.000000 0.958872 0.000000 -0.000000 0.000000 -10.580346 -7.001566 0.359432 10.602335 -1.154493 9.459245 0.644776 7.994933 -11.092830 -9.802734 14.955643 12.576735 8.922995 1.582419 17.465045 -2.753269 -19.142105 -27.072687 -15.229599 -18.805033 13.521262 16.283479 0.000000 0.000000 -0.000000 0.000000 0.000000 -0.000000 0.000000 0.000000 -0.000000 2.305977 9.676400 -2.020751 -53.821784 -7.342967 -19.276155 0.000000 0.000000 -0.000000 -157.742803 3.943716 -126.178456 61.753555 -17.514433 -130.861128 -0.000000 0.000000 -0.000000
0.000000 0.946861 0.000000 -0.000000 0.000000 -8.122213 -9.589859 -0.674581 8.065626 -0.140055 10.740267 0.916420 9.740667 -11.420830 -7.145848 15.873853 10.188243 6.698103 1.936444 20.696109 -3.401788 -19.653351 -28.522647 -13.163971 -18.617039 14.906873 17.695875 0.000000 0.000000 -0.000000 0.000000 0.000000 -0.000000 0.000000 0.000000 -0.000000 3.249434 9.837782 -5.636918 -54.819007 -6.634588 -19.826314 0.000000 0.000000 0.000000 -159.909596 -5.105243 -157.033380 52.647922 8.667753 -103.930978 -0.000000 0.000000 0.000000
0.000000 0.929664 0.000000 -0.000000 0.000000 -6.092923 -12.698321 -2.072188 5.862327 1.268354 12.991391 1.313261 11.559978 -12.265638 -4.846639 16.079288 8.160802 4.938325 2.920562 23.966356 -4.102040 -20.369222 -30.336238 -11.669447 -17.930678 15.974515 18.816280 0.000000 0.000000 0.000000 0.000000 0.000000 0.000000 0.000000 0.000000 0.000000 4.167793 9.577241 -8.726437 -55.631061 -8.025881 -21.133893 0.000000 0.000000 -0.000000 -163.518567 -18.244176 -176.624030 85.936804 50.003185 -109.304071 -0.000000 0.000000 -0.000000
0.000000 0.909895 0.000000 -0.000000 0.000000 -4.124942 -15.854278 -3.568135 3.627942 2.509049 16.071514 1.861302 13.483616 -13.625096 -2.506755 15.801450 6.564753 3.212944 4.119053 26.660453 -4.712458 -20.970040 -32.011234 -10.202583 -17.070324 16.840650 20.022949 0.000000 0.000000 -0.000000 0.000000 0.000000 -0.000000 0.000000 0.000000 -0.000000 5.549558 8.927605 -11.879777 -56.575727 -12.199510 -23.804779 0.000000 0.000000 -0.000000 -162.252486 -36.115739 -177.734384 77.544238 50.325656 -95.763232 0.000000 0.000000 -0.000000
0.000000 0.891919 0.000000 -0.000000 0.000000 -2.120131 -18.491819 -4.897887 1.322345 3.412991 19.371031 2.467041 15.078536 -15.114088 -0.108310 15.486694 5.376352 1.388550 4.713054 28.070341 -4.989984 -20.988397 -32.801196 -8.361429 -16.451356 17.865998 20.944241 -0.000000 0.000000 -0.000000 -0.000000 0.000000 -0.000000 -0.000000 0.000000 -0.000000 7.490583 8.379592 -14.581904 -54.443390 -21.683692 -27.801170 -0.000000 0.000000 0.000000 -158.937536 -54.802222 -177.132344 69.163348 52.196133 -80.952071 -0.000000 0.000000 0.000000
0.000000 0.871657 0.000000 -0.000000 0.000000 0.141969 -20.719361 -6.169521 -1.270855 3.739409 23.288167 3.261726 16.642843 -17.005660 2.647343 15.340529 4.384988 -0.732809 4.110558 28.280976 -4.822030 -19.965226 -32.645360 -5.759518 -16.022379 19.174465 21.792800 0.000000 0.000000 -0.000000 0.000000 0.000000 -0.000000 0.000000 0.000000 -0.000000 9.071541 7.018489 -17.358719 -52.101694 -31.909170 -31.158603 0.000000 0.000000 -0.000000 -143.684773 -74.910238 -164.794514 53.937334 48.056185 -57.986383 -0.000000 0.000000 -0.000000
0.000000 0.851654 0.000000 -0.000000 0.000000 2.827147 -22.387376 -7.612685 -4.335760 2.895678 28.358380 4.522942 18.455049 -19.596247 6.041266 15.218981 3.087197 -3.239685 1.973805 28.215106 -4.274335 -17.387579 -32.019007 -2.197204 -15.449730 20.896936 22.717778 -0.000000 0.000000 0.000000 -0.000000 0.000000 0.000000 -0.000000 0.000000 0.000000 10.086298 5.738051 -20.597767 -41.961630 -44.854640 -30.009085 0.000000 0.000000 0.000000 -48.469619 -78.452413 -70.831120 38.899082 44.238794 -35.407695 0.000000 0.000000 -0.000000
0.000000 0.828272 0.000000 -0.000000 0.000000 5.946991 -23.402582 -9.413270 -7.900814 0.358103 34.922109 6.665785 20.610926 -23.152408 10.213039 15.659170 1.268713 -6.121457 -1.961632 28.523158 -3.513945 -13.650619 -31.399253 2.093271 -14.888880 22.771028 23.215334 0.000000 0.000000 0.000000 0.000000 0.000000 0.000000 0.000000 0.000000 0.000000 11.083172 5.661126 -23.799008 -21.500219 -54.124345 -18.945063 0.000000 0.000000 0.000000 -25.567638 -65.799987 -48.980348 33.302429 33.719138 -23.015494 -0.000000 0.000000 0.000000
0.000000 0.807539 0.000000 -0.000000 0.000000 9.485064 -23.390628 -11.337244 -11.839283 -4.840406 41.524512 10.065396 23.284127 -26.758048 15.096126 16.785893 -1.631479 -9.244337 -7.377676 30.087683 -2.624347 -9.459640 -31.216409 6.836877 -14.235791 25.014592 23.297804 0.000000 0.000000 -0.000000 0.000000 0.000000 -0.000000 0.000000 0.000000 -0.000000 11.693863 5.063882 -26.977248 -0.514594 -54.996643 -4.490762 -0.000000 0.000000 0.000000 -23.415547 -54.572550 -47.489285 34.444475 23.611195 -16.651413 -0.000000 0.000000 0.000000
0.000000 0.785380 0.000000 -0.000000 0.000000 13.138784 -21.981082 -14.041984 -15.879073 -14.493164 48.202707 16.023961 26.845525 -30.546635 20.596029 18.900736 -5.910838 -12.154062 -14.744003 33.179864 -1.272895 -5.049441 -31.612593 11.708485 -13.685356 27.557981 22.918093 0.000000 0.000000 0.000000 0.000000 0.000000 0.000000 0.000000 0.000000 0.000000 12.243064 3.864416 -29.649654 12.846041 -52.327590 4.711096 -0.000000 0.000000 -0.000000 -23.978609 -46.106966 -48.868379 38.797335 15.534673 -13.031206 -0.000000 0.000000 -0.000000
0.000000 0.772902 0.000000 -0.000000 0.000000 16.677351 -19.581662 -16.429403 -19.531491 -25.108605 52.001129 22.195722 29.574923 -32.837237 25.573053 21.141688 -10.931908 -14.631263 -22.567772 36.395594 0.692901 -1.242915 -31.789597 16.323406 -13.182486 30.628704 22.152102 -0.000000 0.000000 -0.000000 -0.000000 0.000000 -0.000000 -0.000000 0.000000 -0.000000 12.772912 2.064936 -31.589443 19.232934 -50.638329 8.950164 -0.000000 0.000000 -0.000000 -24.353063 -40.600708 -50.509277 43.000866 10.946590 -10.524555 -0.000000 0.000000 -0.000000
0.000000 0.764248 0.000000 -0.000000 0.000000 20.277619 -17.066574 -18.589799 -23.091089 -35.869900 53.900872 28.257995 32.038736 -34.311187 30.407627 23.240175 -16.458146 -16.870773 -30.441538 39.454265 3.218481 1.769286 -31.806307 20.781756 -12.504596 33.977738 20.647866 -0.000000 0.000000 -0.000000 -0.000000 0.000000 -0.000000 -0.000000 0.000000 -0.000000 13.469230 -0.066944 -32.700875 24.509239 -50.397221 12.629287 0.000000 0.000000 0.000000 -24.384404 -37.124043 -51.958818 45.278045 8.561922 -8.322148 0.000000 0.000000 0.000000
0.000000 0.759480 0.000000 -0.000000 0.000000 23.463058 -14.640297 -20.564152 -26.132982 -45.404702 54.275589 33.215868 34.172130 -35.048219 34.550227 24.937322 -21.760029 -18.595710 -37.604999 41.853738 5.970645 3.920839 -31.550508 24.571113 -11.760135 37.401470 18.788508 0.000000 0.000000 0.000000 0.000000 0.000000 0.000000 0.000000 0.000000 0.000000 14.311275 -2.340303 -32.922451 29.085809 -50.290891 16.026017 0.000000 0.000000 0.000000 -24.227898 -35.227933 -53.044226 47.052550 7.295601 -6.641504 -0.000000 0.000000 0.000000
0.000000 0.756005 0.000000 -0.000000 0.000000 25.827347 -12.714598 -22.304810 -28.343864 -52.674417 53.948521 36.737718 35.825571 -35.319026 37.578220 26.311723 -26.098141 -19.625648 -43.575578 43.513690 8.519019 5.403745 -31.252775 27.339816 -10.892281 40.320668 17.038960 -0.000000 0.000000 0.000000 -0.000000 0.000000 0.000000 -0.000000 0.000000 0.000000 15.198958 -4.329329 -32.563657 31.848383 -50.026692 18.330015 -0.000000 0.000000 -0.000000 -23.909758 -33.784996 -53.524340 48.533593 5.744724 -4.991885 -0.000000 0.000000 -0.000000
0.000000 0.749897 0.000000 -0.000000 0.000000 27.192467 -11.485336 -23.953932 -29.636745 -58.061901 53.849083 39.621770 36.928305 -35.588410 39.426122 27.808256 -29.479271 -19.739990 -48.621259 44.731194 10.777857 6.406125 -31.037281 28.972999 -10.180096 42.560778 15.701176 0.000000 0.000000 0.000000 0.000000 0.000000 0.000000 0.000000 0.000000 0.000000 15.954862 -5.856529 -31.801549 33.123688 -49.491058 19.599527 -0.000000 0.000000 0.000000 -23.393770 -32.069255 -53.270898 50.225950 3.334751 -3.105292 -0.000000 0.000000 0.000000
0.000000 0.743240 0.000000 -0.000000 0.000000 27.624881 -10.749552 -25.360223 -30.050233 -61.720619 54.034723 41.907179 37.491514 -35.878774 40.164957 29.449227 -31.858713 -19.045734 -52.520563 45.754072 12.581965 6.908619 -31.028943 29.544837 -9.685836 44.093216 14.750108 0.000000 0.000000 -0.000000 0.000000 0.000000 -0.000000 0.000000 0.000000 -0.000000 16.617285 -6.984553 -30.656589 33.652441 -48.951123 20.410430 0.000000 0.000000 -0.000000 -22.634353 -30.018544 -52.237693 52.023811 0.098311 -0.923216 0.000000 0.000000 0.000000
0.000000 0.737107 0.000000 -0.000000 0.000000 27.272247 -10.551091 -26.483533 -29.761747 -63.787396 54.722563 43.797838 37.461565 -36.295006 39.955872 31.178316 -33.375977 -17.710000 -55.634806 46.831717 14.126837 7.187279 -31.335763 29.290592 -9.314332 45.045114 14.065040 -0.000000 0.000000 -0.000000 -0.000000 0.000000 -0.000000 -0.000000 0.000000 -0.000000 17.194230 -7.584435 -29.183939 33.468369 -48.263981 20.776523 0.000000 0.000000 -0.000000 -21.744081 -27.565536 -50.517124 53.994803 -3.751555 1.588602 -0.000000 0.000000 0.000000
0.000000 0.732285 0.000000 -0.000000 0.000000 26.325084 -10.709045 -27.310082 -28.933917 -64.351037 55.788610 45.120938 36.854558 -36.739690 38.952255 32.789415 -33.982368 -16.050781 -57.384254 47.746605 15.029044 7.014246 -31.704721 28.319131 -8.900288 45.607737 13.249578 -0.000000 0.000000 -0.000000 -0.000000 0.000000 -0.000000 -0.000000 0.000000 -0.000000 17.792620 -7.658532 -27.166171 32.477727 -47.320672 20.672156 0.000000 0.000000 0.000000 -20.808853 -24.997389 -48.085357 55.835646 -8.098681 4.393505 0.000000 0.000000 -0.000000
0.000000 0.728209 0.000000 -0.000000 0.000000 24.842618 -11.358251 -27.848141 -27.667251 -63.234296 57.462399 45.863994 35.513956 -37.313828 37.184976 34.355856 -33.741225 -14.131241 -57.990001 48.567100 15.308051 6.472204 -32.201893 26.712663 -8.447224 45.659783 12.198965 0.000000 0.000000 -0.000000 0.000000 0.000000 -0.000000 0.000000 0.000000 -0.000000 18.466354 -7.014375 -24.602145 30.843400 -46.147520 20.212417 -0.000000 0.000000 -0.000000 -19.794092 -22.188669 -44.861947 57.272879 -13.297785 7.543386 0.000000 0.000000 0.000000
0.000000 0.725184 0.000000 -0.000000 0.000000 22.943834 -12.624530 -28.080916 -26.112980 -59.883256 59.911139 45.617348 33.161114 -38.046390 34.666299 35.762196 -32.736587 -12.117432 -57.498590 49.274498 14.957120 5.605870 -32.799156 24.594889 -7.882602 45.258354 10.879972 -0.000000 0.000000 -0.000000 -0.000000 0.000000 -0.000000 -0.000000 0.000000 -0.000000 19.161996 -5.652089 -21.621768 28.650098 -44.717252 19.433255 0.000000 0.000000 -0.000000 -18.857036 -19.288479 -41.041598 58.479752 -18.948528 10.862919 0.000000 0.000000 0.000000
0.000000 0.722779 0.000000 -0.000000 0.000000 20.676799 -14.921754 -27.967118 -24.412485 -52.909196 63.418126 43.463842 29.350237 -38.971787 31.265116 37.087829 -31.055589 -10.027268 -56.056313 49.806154 13.979202 4.403867 -33.451172 22.000760 -7.177572 44.447970 9.191670 0.000000 0.000000 -0.000000 0.000000 0.000000 -0.000000 0.000000 0.000000 -0.000000 19.801267 -3.632497 -18.203614 26.040541 -42.992720 18.404792 0.000000 0.000000 -0.000000 -17.889613 -16.200885 -36.494833 59.129757 -25.363416 14.411872 -0.000000 0.000000 -0.000000
0.000000 0.721316 0.000000 -0.000000 0.000000 18.415740 -17.701602 -27.571896 -22.791820 -41.837460 66.950771 37.950468 24.564244 -39.659084 27.393529 38.197856 -29.004899 -8.179689 -53.624275 49.947480 12.320999 2.767958 -33.915667 19.259912 -6.208764 43.309378 7.270870 0.000000 0.000000 -0.000000 0.000000 0.000000 -0.000000 0.000000 0.000000 -0.000000 20.221183 -1.289524 -14.893100 23.439773 -41.157291 17.335971 -0.000000 0.000000 0.000000 -17.380118 -13.148902 -32.005293 59.583830 -31.717921 17.751953 0.000000 0.000000 0.000000
0.000000 0.721985 0.000000 -0.000000 0.000000 16.343752 -20.342012 -26.941731 -21.265308 -27.100473 69.342549 28.589636 19.533627 -39.842024 23.483053 38.963812 -26.738865 -6.731632 -49.718031 49.580941 9.772935 0.311758 -34.038030 16.439180 -4.943395 42.018782 5.003358 -0.000000 0.000000 -0.000000 -0.000000 0.000000 -0.000000 -0.000000 0.000000 -0.000000 20.357670 1.376689 -11.727165 21.071176 -39.654538 16.416146 0.000000 0.000000 -0.000000 -17.589056 -10.100348 -27.742571 60.151332 -37.547663 20.785759 -0.000000 0.000000 0.000000
0.000000 0.724055 0.000000 -0.000000 0.000000 14.485524 -22.339190 -26.228766 -19.753162 -11.410684 70.218136 17.519620 14.767683 -39.748273 19.849641 39.565920 -24.271291 -5.640149 -44.362084 48.358731 6.370109 -3.149959 -33.597557 13.534351 -3.537627 40.504420 2.722819 -0.000000 0.000000 0.000000 -0.000000 0.000000 0.000000 -0.000000 0.000000 0.000000 20.400629 4.119442 -8.884350 18.832250 -38.569573 15.612346 -0.000000 0.000000 -0.000000 -18.418001 -7.203628 -23.892613 60.589816 -42.504723 23.248415 -0.000000 0.000000 -0.000000
0.000000 0.726070 0.000000 -0.000000 0.000000 12.753912 -23.412513 -25.539866 -18.131323 2.362892 69.954831 7.411247 10.401651 -39.719336 16.519974 40.316611 -21.337526 -4.841650 -37.661068 45.653212 2.251466 -7.895447 -32.328742 10.462073 -2.124409 38.472334 0.712533 0.000000 0.000000 -0.000000 0.000000 0.000000 -0.000000 0.000000 0.000000 -0.000000 20.473723 7.154944 -6.567510 16.940347 -38.432413 15.198272 0.000000 0.000000 0.000000 -19.723897 -3.943498 -20.347934 61.293875 -47.086085 25.581370 -0.000000 0.000000 -0.000000
0.000000 0.728759 0.000000 -0.000000 0.000000 11.266148 -23.633903 -24.711834 -16.514344 12.794511 68.839704 -0.310434 6.559315 -39.761154 13.640326 41.030195 -17.954737 -4.500103 -30.813507 41.495256 -1.501113 -13.205016 -30.459102 7.656306 -0.769982 36.045003 -0.741394 -0.000000 0.000000 0.000000 -0.000000 0.000000 0.000000 -0.000000 0.000000 0.000000 20.580658 10.160867 -5.104104 15.621768 -39.021075 15.241770 0.000000 0.000000 -0.000000 -21.433834 -0.427529 -17.410988 61.820578 -50.878826 27.371162 -0.000000 0.000000 0.000000
0.000000 0.732876 0.000000 -0.000000 0.000000 10.132017 -22.756229 -23.775699 -14.983547 18.659962 67.421007 -4.818135 3.519942 -39.961420 11.412178 41.478446 -14.222440 -4.722872 -24.086120 35.734576 -4.280618 -18.865938 -27.786254 5.425595 0.589841 33.388367 -1.663833 -0.000000 0.000000 0.000000 -0.000000 0.000000 0.000000 -0.000000 0.000000 0.000000 20.801246 13.186621 -4.590086 15.215450 -40.497935 16.066330 0.000000 0.000000 -0.000000 -23.463551 3.495277 -15.102118 61.719027 -54.013149 28.368497 -0.000000 0.000000 -0.000000
0.000000 0.739893 0.000000 -0.000000 0.000000 9.270411 -20.468135 -22.703512 -13.422027 20.110035 65.770831 -6.526481 1.263402 -40.168091 9.732368 40.982771 -10.307459 -5.409415 -18.034507 29.354686 -5.541934 -23.662637 -24.899857 3.974453 1.534191 30.945265 -2.268472 0.000000 0.000000 -0.000000 0.000000 0.000000 -0.000000 0.000000 0.000000 -0.000000 21.218306 15.856022 -4.404943 14.830358 -42.094484 16.830303 0.000000 0.000000 0.000000 -25.196754 6.970178 -13.074466 59.903686 -56.208069 27.771869 0.000000 0.000000 0.000000
0.000000 0.750258 0.000000 -0.000000 0.000000 8.558410 -17.447855 -21.129975 -11.837141 19.278211 63.264942 -6.743011 -0.599725 -39.954862 8.340393 39.068139 -7.553235 -5.875216 -13.839900 26.839734 -5.943403 -25.663348 -24.597516 2.872693 2.207369 28.967274 -2.911031 0.000000 0.000000 -0.000000 0.000000 0.000000 -0.000000 0.000000 0.000000 -0.000000 21.455427 18.234019 -4.127178 14.327224 -43.392162 17.291747 0.000000 0.000000 0.000000 -26.622460 9.748671 -11.094078 56.402652 -57.638926 25.720466 -0.000000 0.000000 0.000000
0.000000 0.762782 0.000000 -0.000000 0.000000 8.158346 -14.105660 -19.125650 -10.546457 17.244102 60.250240 -6.251378 -2.172522 -39.516558 7.377895 36.627257 -5.958727 -6.184529 -12.275569 27.712149 -6.058255 -24.687552 -26.597522 2.236309 2.711432 27.274083 -3.892496 0.000000 0.000000 -0.000000 0.000000 0.000000 -0.000000 0.000000 0.000000 -0.000000 21.540478 20.333907 -3.640137 13.543123 -44.333873 17.317740 -0.000000 0.000000 -0.000000 -27.814695 12.137695 -9.018987 51.387581 -58.443510 22.386162 0.000000 0.000000 -0.000000
0.000000 0.773952 0.000000 -0.000000 0.000000 7.974600 -10.807140 -16.733831 -9.568711 15.122756 56.871488 -5.705825 -3.687795 -38.994107 6.668503 34.047213 -5.104258 -6.410835 -14.016380 30.930158 -5.599820 -20.338767 -30.286875 2.416060 3.096210 25.595462 -5.135092 0.000000 0.000000 0.000000 0.000000 0.000000 0.000000 0.000000 0.000000 0.000000 21.510217 22.416795 -3.037906 12.770636 -45.127214 17.222544 -0.000000 0.000000 -0.000000 -28.830086 14.516505 -6.727162 45.116003 -59.150289 18.114574 -0.000000 0.000000 -0.000000
0.000000 0.782204 0.000000 -0.000000 0.000000 7.925653 -7.793594 -14.340951 -8.907623 13.670246 53.905919 -5.560021 -5.391791 -38.817427 6.024753 31.509710 -4.556142 -6.639647 -18.884106 34.517493 -3.956958 -12.931613 -34.110626 3.943084 3.304449 24.025397 -6.458352 0.000000 0.000000 -0.000000 0.000000 0.000000 -0.000000 0.000000 0.000000 -0.000000 21.455839 24.438797 -2.371835 11.920183 -45.820709 16.975863 0.000000 0.000000 0.000000 -29.614996 16.845065 -4.355647 37.975686 -59.990690 13.168784 0.000000 0.000000 0.000000
0.000000 0.790169 0.000000 -0.000000 0.000000 7.988046 -4.729846 -11.830710 -8.478385 12.624218 50.957050 -5.678423 -7.482832 -38.767887 5.351998 28.842221 -4.050250 -6.946123 -24.071033 36.749001 -1.632690 -5.051800 -36.569415 6.317855 3.349255 22.652801 -7.695194 -0.000000 0.000000 -0.000000 -0.000000 0.000000 -0.000000 -0.000000 0.000000 -0.000000 21.410567 26.261178 -1.760136 10.250132 -46.155681 15.943191 0.000000 0.000000 0.000000 -29.938842 18.853535 -2.181243 30.177561 -60.603898 7.690174 0.000000 0.000000 0.000000
0.000000 0.795163 0.000000 -0.000000 0.000000 8.110687 -1.816613 -9.523609 -8.262025 12.174012 48.654221 -6.118336 -9.943086 -39.148219 4.567405 26.104710 -3.562442 -7.284551 -29.816163 37.597595 1.180467 3.492198 -37.622676 9.300625 3.180959 21.510772 -8.833235 -0.000000 0.000000 -0.000000 -0.000000 0.000000 -0.000000 -0.000000 0.000000 -0.000000 21.495385 27.923003 -1.153946 8.209404 -46.528333 14.601600 0.000000 0.000000 0.000000 -29.885720 20.587338 -0.194380 22.371994 -60.790157 2.145102 -0.000000 0.000000 -0.000000
0.000000 0.799644 0.000000 -0.000000 0.000000 8.355501 0.772385 -7.667454 -8.303741 11.358458 47.119185 -6.354559 -11.810657 -39.796065 4.067362 23.405210 -2.992750 -7.735455 -33.809454 37.022147 3.333196 10.326850 -37.347030 11.854019 2.881939 20.568913 -10.019678 0.000000 0.000000 -0.000000 0.000000 0.000000 -0.000000 0.000000 0.000000 -0.000000 21.665703 29.441656 -0.502894 5.756116 -46.948955 12.928668 0.000000 0.000000 0.000000 -29.402946 22.028388 1.639963 15.044712 -60.434401 -2.961414 -0.000000 0.000000 0.000000
0.000000 0.803448 0.000000 -0.000000 0.000000 8.629581 3.288171 -6.107555 -8.454112 9.031014 45.786798 -5.907967 -12.232366 -40.332725 4.122282 20.670176 -2.349735 -8.201017 -35.579560 35.545017 4.552827 15.017385 -36.197282 13.562866 2.447527 19.953110 -11.130903 0.000000 0.000000 0.000000 0.000000 0.000000 0.000000 0.000000 0.000000 0.000000 21.976707 30.570529 0.224669 2.811070 -47.169742 10.841153 0.000000 0.000000 0.000000 -28.451335 22.890154 3.144899 8.850814 -59.250776 -7.023925 0.000000 0.000000 0.000000
0.000000 0.805192 0.000000 -0.000000 0.000000 8.862099 5.540735 -5.093198 -8.615479 5.540617 45.315137 -5.061427 -11.215406 -41.172906 4.637943 17.860811 -1.523106 -8.622745 -35.273654 33.385301 4.894770 17.756445 -34.473771 14.411344 1.995418 19.551800 -12.130784 0.000000 0.000000 0.000000 0.000000 0.000000 0.000000 0.000000 0.000000 0.000000 22.429282 31.344791 0.975219 -0.159920 -47.299635 8.774611 0.000000 0.000000 0.000000 -27.285647 23.294877 4.368178 3.841796 -57.588532 -10.033678 0.000000 0.000000 -0.000000
0.000000 0.806954 0.000000 -0.000000 0.000000 9.002280 7.391415 -4.584588 -8.705996 1.506374 45.546774 -3.996103 -9.209064 -42.177701 5.444335 15.017636 -0.550455 -8.929725 -33.308968 30.895947 4.621460 18.876035 -32.507836 14.551523 1.515817 19.229163 -12.928001 -0.000000 0.000000 0.000000 -0.000000 0.000000 0.000000 -0.000000 0.000000 0.000000 23.125449 31.806799 1.648276 -2.915501 -47.172204 6.924461 0.000000 0.000000 0.000000 -26.109451 23.480289 5.379760 -0.025871 -55.931896 -12.165948 -0.000000 0.000000 0.000000
0.000000 0.811304 0.000000 -0.000000 0.000000 9.035507 8.654224 -4.278136 -8.711647 -2.738591 45.702953 -2.631544 -6.379445 -42.822956 6.531767 12.220124 0.569436 -9.096464 -30.359814 28.179252 4.014607 18.961173 -30.434244 14.237246 1.062342 18.946891 -13.469301 0.000000 0.000000 0.000000 0.000000 0.000000 0.000000 0.000000 0.000000 0.000000 23.989157 31.981760 2.171060 -5.420755 -46.836070 5.311166 -0.000000 0.000000 -0.000000 -25.094731 23.563430 6.166473 -2.811292 -54.380324 -13.548629 0.000000 0.000000 0.000000
0.000000 0.827149 0.000000 -0.000000 0.000000 9.002319 8.996771 -3.906271 -8.694881 -6.016531 45.239421 -1.305377 -3.522649 -42.774365 7.622349 9.563845 1.844468 -9.156630 -27.378680 25.458108 3.375753 18.888224 -28.513797 13.842800 0.703605 18.631802 -13.837037 -0.000000 0.000000 0.000000 -0.000000 0.000000 0.000000 -0.000000 0.000000 0.000000 24.890101 32.083785 2.519325 -7.622208 -46.525555 3.978929 -0.000000 0.000000 0.000000 -24.324425 23.677193 6.805497 -4.844999 -53.101913 -14.477458 -0.000000 0.000000 0.000000
0.000000 0.849710 0.000000 -0.000000 0.000000 8.891705 8.565094 -3.486723 -8.630525 -8.413496 44.346064 -0.079340 -0.715049 -42.217638 8.615661 6.951981 3.213644 -9.086960 -24.305078 22.792159 2.758529 18.658103 -26.751026 13.365618 0.401961 18.290338 -14.072842 0.000000 0.000000 -0.000000 0.000000 0.000000 -0.000000 0.000000 0.000000 -0.000000 25.848592 32.111294 2.766767 -9.447927 -46.139766 2.970698 0.000000 0.000000 -0.000000 -23.749345 23.816269 7.366795 -6.391983 -52.041628 -15.134478 0.000000 0.000000 0.000000
0.000000 0.868299 0.000000 -0.000000 0.000000 8.660860 7.608526 -2.910999 -8.467252 -9.670868 42.817468 0.814448 1.562237 -41.085689 9.246319 4.579327 4.605130 -8.845088 -21.347093 20.224799 2.183464 18.264875 -25.159636 12.769898 0.075914 17.963485 -14.155723 0.000000 0.000000 0.000000 0.000000 0.000000 0.000000 0.000000 0.000000 0.000000 26.833824 32.032575 2.993211 -10.859364 -45.737310 2.292237 0.000000 0.000000 -0.000000 -23.226853 23.890329 7.868751 -7.800866 -51.122458 -15.740894 -0.000000 0.000000 0.000000
0.000000 0.884247 0.000000 -0.000000 0.000000 8.314035 5.993578 -2.267509 -8.195312 -9.534003 40.871833 1.330444 3.148903 -39.499403 9.444836 2.296862 5.947171 -8.433363 -18.499027 17.885534 1.712921 17.831797 -23.793380 12.099949 -0.204068 17.634338 -14.087570 -0.000000 0.000000 -0.000000 -0.000000 0.000000 -0.000000 -0.000000 0.000000 -0.000000 27.769205 31.771448 3.196526 -11.892242 -45.052171 1.869450 -0.000000 0.000000 0.000000 -22.801217 23.929596 8.294092 -9.266611 -50.297231 -16.428168 -0.000000 0.000000 -0.000000
0.000000 0.899138 0.000000 -0.000000 0.000000 7.845439 3.911509 -1.599036 -7.790832 -8.376315 38.412752 1.564776 4.194300 -37.367781 9.264378 0.231484 7.121743 -7.859844 -16.108199 15.852269 1.370236 17.570724 -22.635747 11.388808 -0.493202 17.323661 -13.862035 0.000000 0.000000 -0.000000 0.000000 0.000000 -0.000000 0.000000 0.000000 -0.000000 28.745409 31.394544 3.381390 -12.655683 -44.171780 1.640791 0.000000 0.000000 0.000000 -22.375624 23.943977 8.660485 -10.970560 -49.634347 -17.327680 0.000000 0.000000 0.000000
0.000000 0.913007 0.000000 -0.000000 0.000000 7.292160 1.262897 -0.894455 -7.282302 -6.420262 35.335525 1.648195 5.003506 -34.612144 8.852055 -1.571037 7.893989 -7.183756 -14.271153 14.546956 1.213561 17.514393 -21.888502 10.704543 -0.751574 17.005293 -13.503794 0.000000 0.000000 -0.000000 0.000000 0.000000 -0.000000 0.000000 0.000000 -0.000000 29.709505 30.954482 3.512501 -13.106395 -43.254624 1.631877 -0.000000 0.000000 -0.000000 -21.991047 23.970522 8.957979 -12.839677 -49.183282 -18.403913 0.000000 0.000000 -0.000000
0.000000 0.919779 0.000000 -0.000000 0.000000 6.725285 -1.623498 -0.205919 -6.728203 -3.815805 32.204064 1.572643 5.384230 -31.810692 8.260605 -2.784963 7.892893 -6.533120 -12.970598 14.981884 1.357204 17.310862 -22.238089 10.152614 -0.986446 16.676252 -13.133977 -0.000000 0.000000 -0.000000 -0.000000 0.000000 -0.000000 -0.000000 0.000000 -0.000000 30.823318 30.590099 3.592509 -13.421898 -42.382859 1.770954 0.000000 0.000000 0.000000 -21.601214 24.024325 9.251115 -14.971422 -49.003804 -19.730541 0.000000 0.000000 -0.000000
0.000000 0.919106 0.000000 -0.000000 0.000000 6.178855 -4.977329 0.443567 -6.159577 -1.091185 28.833990 1.566821 6.084067 -28.740038 7.738955 -3.408628 7.405877 -5.958189 -11.639492 16.772637 1.643183 16.436724 -23.564954 9.630085 -1.197894 16.340868 -12.778242 0.000000 0.000000 0.000000 0.000000 0.000000 0.000000 0.000000 0.000000 0.000000 32.007033 30.380646 3.603990 -13.524908 -41.673994 2.080866 -0.000000 0.000000 0.000000 -21.216894 24.126405 9.539114 -17.383010 -49.022252 -21.320350 0.000000 0.000000 0.000000
0.000000 0.933327 0.000000 -0.000000 0.000000 5.628714 -8.424760 0.867505 -5.564818 1.636651 26.033912 1.581953 6.833130 -26.074025 7.212693 -2.999048 6.675899 -5.453757 -10.645463 19.382000 1.873623 14.856149 -25.578576 9.019059 -1.516285 15.958170 -12.423734 0.000000 0.000000 -0.000000 0.000000 0.000000 -0.000000 0.000000 0.000000 -0.000000 33.407694 30.531512 3.502371 -13.586397 -41.358815 2.486195 -0.000000 0.000000 -0.000000 -20.813275 24.385476 9.915214 -20.132814 -49.307982 -23.272299 0.000000 0.000000 0.000000
0.000000 0.946163 0.000000 -0.000000 0.000000 5.237860 -11.422877 1.299383 -5.107897 3.558084 23.540716 1.664727 7.938913 -23.800036 6.913416 -1.819176 5.891984 -5.144233 -10.587957 22.025420 2.017085 13.483299 -27.602812 8.564463 -1.819875 15.621479 -12.118060 -0.000000 0.000000 0.000000 -0.000000 0.000000 0.000000 -0.000000 0.000000 0.000000 34.842733 30.749579 3.263905 -13.452843 -41.277257 3.021641 0.000000 0.000000 -0.000000 -20.313631 24.728725 10.178849 -23.009443 -49.636286 -25.353710 -0.000000 0.000000 -0.000000
0.000000 0.955152 0.000000 -0.000000 0.000000 4.971520 -13.915809 1.673086 -4.767324 5.270289 21.486001 1.683818 8.741452 -21.962276 6.670873 0.036238 4.944816 -4.973084 -11.963680 24.877722 2.240109 12.904218 -29.691633 8.405506 -2.119122 15.328367 -11.850297 -0.000000 0.000000 -0.000000 -0.000000 0.000000 -0.000000 -0.000000 0.000000 -0.000000 36.331270 31.100486 2.888985 -13.219341 -41.504961 3.650942 -0.000000 0.000000 0.000000 -19.804130 25.326475 10.406347 -25.856082 -50.052441 -27.501773 -0.000000 0.000000 -0.000000
0.000000 0.960099 0.000000 -0.000000 0.000000 4.728472 -16.227654 1.817828 -4.469288 7.371484 20.354284 1.642709 8.950004 -20.851384 6.378496 1.925203 4.058126 -4.796686 -13.622786 27.630587 2.492515 12.584538 -31.724655 8.317599 -2.453740 15.086077 -11.622246 0.000000 0.000000 -0.000000 0.000000 0.000000 -0.000000 0.000000 0.000000 -0.000000 37.670590 31.485701 2.560874 -12.970738 -41.746588 4.228375 -0.000000 0.000000 0.000000 -19.399665 25.926234 10.667287 -28.264766 -50.461987 -29.406767 -0.000000 0.000000 -0.000000
